July 22, 2019, 2:26 am {"address_id":"58","entity_id":"1","location_id":"10","address":"ZmdkZmdk","landmark":"bGFuZMKgbWFyaw==","phone":"9950449428","otheraddress":"","otherlandmark":"","otherphone":"","varifed":"","phone_varified":"","type":1,"postalCode_id":"4","postalCode":"61241","location":"Q29sb25h","country_id":"234","fl_admin_id":"49","city_id":"10","city":"Q29sb25h","town_id":"","town":"","fl_admin":"IElsbGlub2lzCQ==","country":"VW5pdGVkIFN0YXRlcw=="}
July 22, 2019, 2:28 am {"address_id":"58","entity_id":"1","location_id":"10","address":"ZmdkZmdk","landmark":"bGFuZMKgbWFyaw==","phone":"9950449428","otheraddress":"","otherlandmark":"","otherphone":"","varifed":"","phone_varified":"","type":1,"postalCode_id":"4","postalCode":"61241","location":"Q29sb25h","country_id":"234","fl_admin_id":"49","city_id":"10","city":"Q29sb25h","town_id":"","town":"","fl_admin":"IElsbGlub2lzCQ==","country":"VW5pdGVkIFN0YXRlcw=="}
July 22, 2019, 2:28 am {"address_id":"58","entity_id":"1","location_id":"10","address":"ZmdkZmdk","landmark":"bGFuZMKgbWFyaw==","phone":"9950449428","otheraddress":"","otherlandmark":"","otherphone":"","varifed":"","phone_varified":"","type":1,"postalCode_id":"4","postalCode":"61241","location":"Q29sb25h","country_id":"234","fl_admin_id":"49","city_id":"10","city":"Q29sb25h","town_id":"","town":"","fl_admin":"IElsbGlub2lzCQ==","country":"VW5pdGVkIFN0YXRlcw=="}
July 22, 2019, 2:29 am {"address_id":"58","entity_id":"1","location_id":"10","address":"ZmdkZmdk","landmark":"bGFuZMKgbWFyaw==","phone":"9950449428","otheraddress":"","otherlandmark":"","otherphone":"","varifed":"","phone_varified":"","type":1,"postalCode_id":"4","postalCode":"61241","location":"Q29sb25h","country_id":"234","fl_admin_id":"49","city_id":"10","city":"Q29sb25h","town_id":"","town":"","fl_admin":"IElsbGlub2lzCQ==","country":"VW5pdGVkIFN0YXRlcw=="}
July 22, 2019, 2:29 am {"address_id":"58","entity_id":"1","location_id":"10","address":"ZmdkZmdk","landmark":"bGFuZMKgbWFyaw==","phone":"9950449428","otheraddress":"","otherlandmark":"","otherphone":"","varifed":"","phone_varified":"","type":1,"postalCode_id":"4","postalCode":"61241","location":"Q29sb25h","country_id":"234","fl_admin_id":"49","city_id":"10","city":"Q29sb25h","town_id":"","town":"","fl_admin":"IElsbGlub2lzCQ==","country":"VW5pdGVkIFN0YXRlcw=="}
July 22, 2019, 2:29 am {"address_id":"58","entity_id":"1","location_id":"10","address":"ZmdkZmdk","landmark":"bGFuZMKgbWFyaw==","phone":"9950449428","otheraddress":"","otherlandmark":"","otherphone":"","varifed":"","phone_varified":"","type":1,"postalCode_id":"4","postalCode":"61241","location":"Q29sb25h","country_id":"234","fl_admin_id":"49","city_id":"10","city":"Q29sb25h","town_id":"","town":"","fl_admin":"IElsbGlub2lzCQ==","country":"VW5pdGVkIFN0YXRlcw=="}
July 22, 2019, 2:29 am {"address_id":"58","entity_id":"1","location_id":"10","address":"ZmdkZmdk","landmark":"bGFuZMKgbWFyaw==","phone":"9950449428","otheraddress":"","otherlandmark":"","otherphone":"","varifed":"","phone_varified":"","type":1,"postalCode_id":"4","postalCode":"61241","location":"Q29sb25h","country_id":"234","fl_admin_id":"49","city_id":"10","city":"Q29sb25h","town_id":"","town":"","fl_admin":"IElsbGlub2lzCQ==","country":"VW5pdGVkIFN0YXRlcw=="}
July 22, 2019, 2:29 am {"address_id":"58","entity_id":"1","location_id":"10","address":"ZmdkZmdk","landmark":"bGFuZMKgbWFyaw==","phone":"9950449428","otheraddress":"","otherlandmark":"","otherphone":"","varifed":"","phone_varified":"","type":1,"postalCode_id":"4","postalCode":"61241","location":"Q29sb25h","country_id":"234","fl_admin_id":"49","city_id":"10","city":"Q29sb25h","town_id":"","town":"","fl_admin":"IElsbGlub2lzCQ==","country":"VW5pdGVkIFN0YXRlcw=="}
July 22, 2019, 2:29 am {"address_id":"58","entity_id":"1","location_id":"10","address":"ZmdkZmdk","landmark":"bGFuZMKgbWFyaw==","phone":"9950449428","otheraddress":"","otherlandmark":"","otherphone":"","varifed":"","phone_varified":"","type":1,"postalCode_id":"4","postalCode":"61241","location":"Q29sb25h","country_id":"234","fl_admin_id":"49","city_id":"10","city":"Q29sb25h","town_id":"","town":"","fl_admin":"IElsbGlub2lzCQ==","country":"VW5pdGVkIFN0YXRlcw=="}
July 22, 2019, 2:29 am {"address_id":"58","entity_id":"1","location_id":"10","address":"ZmdkZmdk","landmark":"bGFuZMKgbWFyaw==","phone":"9950449428","otheraddress":"","otherlandmark":"","otherphone":"","varifed":"","phone_varified":"","type":1,"postalCode_id":"4","postalCode":"61241","location":"Q29sb25h","country_id":"234","fl_admin_id":"49","city_id":"10","city":"Q29sb25h","town_id":"","town":"","fl_admin":"IElsbGlub2lzCQ==","country":"VW5pdGVkIFN0YXRlcw=="}
July 22, 2019, 2:33 am {"address_id":"58","entity_id":"1","location_id":"10","address":"ZmdkZmdk","landmark":"bGFuZMKgbWFyaw==","phone":"9950449428","otheraddress":"","otherlandmark":"","otherphone":"","varifed":"","phone_varified":"","type":1,"postalCode_id":"4","postalCode":"61241","location":"Q29sb25h","country_id":"234","fl_admin_id":"49","city_id":"10","city":"Q29sb25h","town_id":"","town":"","fl_admin":"IElsbGlub2lzCQ==","country":"VW5pdGVkIFN0YXRlcw=="}
July 22, 2019, 2:33 am {"address_id":"58","entity_id":"1","location_id":"10","address":"ZmdkZmdk","landmark":"bGFuZMKgbWFyaw==","phone":"9950449428","otheraddress":"","otherlandmark":"","otherphone":"","varifed":"","phone_varified":"","type":1,"postalCode_id":"4","postalCode":"61241","location":"Q29sb25h","country_id":"234","fl_admin_id":"49","city_id":"10","city":"Q29sb25h","town_id":"","town":"","fl_admin":"IElsbGlub2lzCQ==","country":"VW5pdGVkIFN0YXRlcw=="}
July 22, 2019, 2:33 am {"address_id":"58","entity_id":"1","location_id":"10","address":"ZmdkZmdk","landmark":"bGFuZMKgbWFyaw==","phone":"9950449428","otheraddress":"","otherlandmark":"","otherphone":"","varifed":"","phone_varified":"","type":1,"postalCode_id":"4","postalCode":"61241","location":"Q29sb25h","country_id":"234","fl_admin_id":"49","city_id":"10","city":"Q29sb25h","town_id":"","town":"","fl_admin":"IElsbGlub2lzCQ==","country":"VW5pdGVkIFN0YXRlcw=="}
July 22, 2019, 2:34 am {"address_id":"58","entity_id":"1","location_id":"10","address":"ZmdkZmdk","landmark":"bGFuZMKgbWFyaw==","phone":"9950449428","otheraddress":"","otherlandmark":"","otherphone":"","varifed":"","phone_varified":"","type":1,"postalCode_id":"4","postalCode":"61241","location":"Q29sb25h","country_id":"234","fl_admin_id":"49","city_id":"10","city":"Q29sb25h","town_id":"","town":"","fl_admin":"IElsbGlub2lzCQ==","country":"VW5pdGVkIFN0YXRlcw=="}
July 22, 2019, 2:34 am {"address_id":"58","entity_id":"1","location_id":"10","address":"ZmdkZmdk","landmark":"bGFuZMKgbWFyaw==","phone":"9950449428","otheraddress":"","otherlandmark":"","otherphone":"","varifed":"","phone_varified":"","type":1,"postalCode_id":"4","postalCode":"61241","location":"Q29sb25h","country_id":"234","fl_admin_id":"49","city_id":"10","city":"Q29sb25h","town_id":"","town":"","fl_admin":"IElsbGlub2lzCQ==","country":"VW5pdGVkIFN0YXRlcw=="}
July 22, 2019, 2:35 am {"address_id":"58","entity_id":"1","location_id":"10","address":"ZmdkZmdk","landmark":"bGFuZMKgbWFyaw==","phone":"9950449428","otheraddress":"","otherlandmark":"","otherphone":"","varifed":"","phone_varified":"","type":1,"postalCode_id":"4","postalCode":"61241","location":"Q29sb25h","country_id":"234","fl_admin_id":"49","city_id":"10","city":"Q29sb25h","town_id":"","town":"","fl_admin":"IElsbGlub2lzCQ==","country":"VW5pdGVkIFN0YXRlcw=="}
July 22, 2019, 2:35 am {"address_id":"58","entity_id":"1","location_id":"10","address":"ZmdkZmdk","landmark":"bGFuZMKgbWFyaw==","phone":"9950449428","otheraddress":"","otherlandmark":"","otherphone":"","varifed":"","phone_varified":"","type":1,"postalCode_id":"4","postalCode":"61241","location":"Q29sb25h","country_id":"234","fl_admin_id":"49","city_id":"10","city":"Q29sb25h","town_id":"","town":"","fl_admin":"IElsbGlub2lzCQ==","country":"VW5pdGVkIFN0YXRlcw=="}
July 22, 2019, 2:08 pm [{"entity_id":"1","account_id":"1","type":"1","device_in_use":"0","last_login":"2019-07-22 02:35:04","public_data":"{\"theme\":[\"0\",\"\"],\"Name\":\"RGVtb8Kgc3RvcmU=\",\"slug\":\"test-mob-store\",\"avatar\":\"https&colon;&sol;&sol;s3-ap-south-1&period;amazonaws&period;com&sol;wowrol&sol;0&lowbar;124&lowbar;ua2bbz5x30&period;png\",\"banner\":\"\",\"profilepicData\":{\"mainimages\":[{\"url\":\"https&colon;&sol;&sol;s3-ap-south-1&period;amazonaws&period;com&sol;wowrol&sol;0&lowbar;124&lowbar;ua2bbz5x30&period;png\",\"key\":\"0&lowbar;124&lowbar;ua2bbz5x30\",\"hash\":\"ua2bbz5x30\",\"name\":\"0&lowbar;124&lowbar;ua2bbz5x30&period;png\",\"priviewId\":\"1493054650DkEXh56\"}],\"webimages\":[],\"featureimage\":{\"image_id\":\"\",\"url\":\"https&colon;&sol;&sol;s3-ap-south-1&period;amazonaws&period;com&sol;wowrol&sol;0&lowbar;124&lowbar;ua2bbz5x30&period;png\",\"update_hash\":\"\",\"width\":\"400\",\"height\":\"400\",\"time\":\"\",\"filesize\":\"\",\"key\":\"0&lowbar;124&lowbar;ua2bbz5x30\",\"hash\":\"ua2bbz5x30\",\"name\":\"0&lowbar;124&lowbar;ua2bbz5x30&period;png\",\"priviewId\":\"1493054650DkEXh56\"}},\"bannerData\":{\"featureimage\":{\"image_id\":\"\",\"url\":\"\",\"update_hash\":\"\",\"width\":\"400\",\"height\":\"400\",\"time\":\"\",\"filesize\":\"\"}},\"addressdata\":{\"address_id\":\"58\",\"entity_id\":\"1\",\"location_id\":\"10\",\"address\":\"ZmdkZmdk\",\"landmark\":\"bGFuZMKgbWFyaw==\",\"phone\":\"9950449428\",\"otheraddress\":\"\",\"otherlandmark\":\"\",\"otherphone\":\"\",\"varifed\":\"\",\"phone_varified\":\"\",\"type\":1,\"postalCode_id\":\"4\",\"postalCode\":\"61241\",\"location\":\"Q29sb25h\",\"country_id\":\"234\",\"fl_admin_id\":\"49\",\"city_id\":\"10\",\"city\":\"Q29sb25h\",\"town_id\":\"\",\"town\":\"\",\"fl_admin\":\"IElsbGlub2lzCQ==\",\"country\":\"VW5pdGVkIFN0YXRlcw==\"},\"collection\":[\"1\",\"4\",\"5\",\"6\",\"7\"],\"collection_data\":[{\"id\":\"1\",\"name\":\"Daily&nbsp;Needs\",\"slug\":\"daily-needs-collection\"},{\"id\":\"4\",\"name\":\"Real-Estate\",\"slug\":\"real-estate-collection\"},{\"id\":\"5\",\"name\":\"industry&nbsp;supply\",\"slug\":\"industry-supply-collection\"},{\"id\":\"6\",\"name\":\"Furniture\",\"slug\":\"furniture-collection\"},{\"id\":\"7\",\"name\":\"Electronics\",\"slug\":\"electronics-collection\"}],\"store_policy\":\"c3RvcmUmbG93YmFyO3BvbGljeXN0b3JlJmxvd2Jhcjtwb2xpY3lzdG9yZSZsb3diYXI7cG9saWN5c3RvcmUmbG93YmFyO3BvbGljeXN0b3JlJmxvd2Jhcjtwb2xpY3lzdG9yZSZsb3diYXI7cG9saWN5c3RvcmUmbG93YmFyO3BvbGljeXN0b3JlJmxvd2Jhcjtwb2xpY3lzdG9yZSZsb3diYXI7cG9saWN5c3RvcmUmbG93YmFyO3BvbGljeXN0b3JlJmxvd2Jhcjtwb2xpY3lzdG9yZSZsb3diYXI7cG9saWN5c3RvcmUmbG93YmFyO3BvbGljeXN0b3JlJmxvd2Jhcjtwb2xpY3lzdG9yZSZsb3diYXI7cG9saWN5c3RvcmUmbG93YmFyO3BvbGljeXN0b3JlJmxvd2Jhcjtwb2xpY3lzdG9yZSZsb3diYXI7cG9saWN5c3RvcmUmbG93YmFyO3BvbGljeXN0b3JlJmxvd2Jhcjtwb2xpY3lzdG9yZSZsb3diYXI7cG9saQ==\",\"about_store\":\"c2FkYWFhYWFhYWFhYWFhYWFhYWFhYWFhYWFhYWFhYWFhYWFhYWFhYWFhYWFhYWFhYWFhYWFhYWFhYWFhYWFhYWFhYWFhYWFhYWFhYWFhYWFhYWFhYWFhYWFhYWFhYWFhYWFhYWFhYWFhYWFhYWFhYWFhYWFhYWFhYWFhYWFhYWFhYWFhYWFhYWFhYWFhYWFhYWFhYWFhYWFhYWFhYWFhYWFhYWFhYWFhYWFhYWFhYWFhYWFhYWFhYWFhYWFhYWFhYWFhYWFhYWFhYWFhYWFhYWFhYWFhYWFhYWFhYWFhYWFhYWFhYWFhYWFhYWFhYWFhYWFhYWFhYWFhYQ==\",\"sliderBox\":[{\"webimages\":[{\"url\":\"https&colon;&sol;&sol;www&period;f-cdn&period;com&sol;assets&sol;css&sol;images&sol;homepage&sol;bg-architecture-2x-cd1a1d20&period;jpg\",\"key\":\"\",\"hash\":\"\",\"name\":\"\",\"priviewId\":\"14911985620fx8761\"}],\"linkto\":{\"id\":\"0&lowbar;15\",\"mid\":\"15\",\"name\":\"Cameras &amp; Accessories\",\"slug\":\"cameras-accessories-category\",\"type\":\"0\",\"saveingId\":\"suggestion&period;1491200377H1BDZ72\"}},{\"webimages\":[{\"url\":\"http&colon;&sol;&sol;i&period;imgur&period;com&sol;4sX8V8U&period;jpg\",\"key\":\"\",\"hash\":\"\",\"name\":\"\",\"priviewId\":\"1480961508ARHV682\"}],\"linkto\":{\"id\":\"0&lowbar;22\",\"mid\":\"22\",\"name\":\"Men\",\"slug\":\"men-category\",\"type\":\"0\",\"saveingId\":\"suggestion&period;1480961521wuBSD94\"}},{\"webimages\":[{\"url\":\"https&colon;&sol;&sol;www&period;f-cdn&period;com&sol;assets&sol;css&sol;images&sol;homepage&sol;bg-app-2x-c16b1159&period;jpg\",\"key\":\"\",\"hash\":\"\",\"name\":\"\",\"priviewId\":\"1491200064RXxiD66\"}],\"linkto\":{\"id\":\"0&lowbar;15\",\"mid\":\"15\",\"name\":\"Cameras &amp; Accessories\",\"slug\":\"cameras-accessories-category\",\"type\":\"0\",\"saveingId\":\"suggestion&period;1491200066nHHrR74\"}}],\"website\":\"d293cm9sJnBlcmlvZDtjb20=\",\"categoryBox\":[{\"cid\":\"12\",\"sort\":0},{\"cid\":\"6\",\"sort\":0},{\"cid\":\"40\",\"sort\":0},{\"cid\":\"22\",\"sort\":0}],\"profilepic\":[],\"policy_store\":\"\"}","private_data":"{\"notification_setting\":{\"nss0\":1,\"nss1\":0,\"nss2\":1,\"nss3\":0,\"ns0\":0,\"ns1\":0,\"ns2\":0},\"notification_checktime\":1563742059,\"order_checktime\":1476820645,\"checkin_msg_checktime\":1563743100,\"chat_msg_checktime\":1563742764,\"default_category\":{\"cN\":\"hhjghj\",\"pa\":{\"cid\":\"\",\"cN\":\"\"},\"description\":\"\",\"cid\":\"63\",\"sid\":\"287\"},\"deactivate\":\"0\",\"wallet_id\":0,\"minimum_order\":\"2000\",\"activity_update_server_code\":0,\"memberSince\":1476820645,\"blocked_entity\":[],\"price_range\":{\"min\":\"0\",\"max\":\"200\"},\"feedback_spreadId\":191,\"privacy_setting\":{\"ip0\":0,\"ip1\":0,\"ip2\":0,\"ip3\":0,\"ip4\":0,\"ip5\":0,\"ip6\":0,\"ip7\":0,\"ip8\":0,\"ip9\":0,\"ip10\":0,\"cp0\":0,\"cp1\":0,\"cp2\":0,\"cp3\":0,\"cp4\":0,\"cp5\":0,\"cp6\":0,\"op0\":0,\"op1\":0},\"profile_complete\":{\"profile_pic\":1,\"slider\":1,\"address\":1,\"collection\":1,\"product_count\":28,\"category_count\":41,\"favoriter_count\":2,\"menu_set\":1},\"ratting\":0,\"staffHash\":\"\",\"staffloginattemp\":5,\"stafflogin_block_time\":0,\"staffloginblock\":0,\"nextOrderCount\":0,\"varified\":1,\"shippingZonecountry\":\"105\",\"countryinfo_id\":105,\"shippingZonetype\":\"1\",\"currency\":\"INR\",\"unitsystem\":\"metric\",\"weightunit\":\"kg\",\"return_policy\":\"1\",\"store_menu_table_code\":0,\"avatar\":\"\",\"profilepic\":[],\"addressdata\":{\"address_id\":\"1\",\"entity_id\":\"1\",\"location_id\":\"3\",\"address\":\"YXNkYXNkYXMmbmJzcDthc2QmbmJzcDthc2Rhc2Rhc2Rhc2R0eXNkZnNkZnNkZiZuYnNwO3NkZnNkPGJyPmRmZ2RmZ2RmZ2RmZ2RmZ2Rmc2RzZDxicj5kZmdkZmdkZmdzY2N2PGJyPmRmZ2RmZ2prJm5ic3A7ZmdoZmdzZGZmZyZuYnNwO3J0Zmc=\",\"landmark\":\"c2RmZGZjY3Z2\",\"phone\":\"7891945988\",\"otheraddress\":\"\",\"otherlandmark\":\"\",\"otherphone\":\"\",\"varifed\":\"\",\"phone_varified\":\"\",\"type\":1,\"postalCode_id\":\"2\",\"location\":\"YXlhbmE=\",\"country_id\":\"105\",\"fl_admin_id\":\"22\",\"city_id\":\"1\",\"city\":\"a290YQ==\",\"town_id\":\"3\",\"town\":\"YXlhbmE=\",\"fl_admin\":\"UmFqYXN0aGFuCQ==\",\"country\":\"SW5kaWE=\"},\"collection\":[\"3\",\"6\"],\"theme\":[\"19\",\"\"],\"store_policy\":\"ZGZnZGZnZGZnZGZnZGdkZmc=\",\"about_store\":\"ZGZnZGY=\",\"sliderBox\":[],\"website\":\"\",\"categoryBox\":[{\"cid\":\"22\",\"sort\":1},{\"cid\":\"17\",\"sort\":0}],\"policy_store\":\"\",\"slider\":[],\"storeterms\":\"\",\"address_id\":\"\"}","search_data":"Demo store test-mob-store","slug_id":"2044","object_id":"1","object_type":"store","content_slug":"test-mob-store","original_slug":"test-mob-store"}]
July 22, 2019, 7:44 pm {"address_id":"58","entity_id":"1","location_id":"10","address":"ZmdkZmdk","landmark":"bGFuZMKgbWFyaw==","phone":"9950449428","otheraddress":"","otherlandmark":"","otherphone":"","varifed":"","phone_varified":"","type":1,"postalCode_id":"4","postalCode":"61241","location":"Q29sb25h","country_id":"234","fl_admin_id":"49","city_id":"10","city":"Q29sb25h","town_id":"","town":"","fl_admin":"IElsbGlub2lzCQ==","country":"VW5pdGVkIFN0YXRlcw=="}
July 22, 2019, 7:44 pm {"address_id":"58","entity_id":"1","location_id":"10","address":"ZmdkZmdk","landmark":"bGFuZMKgbWFyaw==","phone":"9950449428","otheraddress":"","otherlandmark":"","otherphone":"","varifed":"","phone_varified":"","type":1,"postalCode_id":"4","postalCode":"61241","location":"Q29sb25h","country_id":"234","fl_admin_id":"49","city_id":"10","city":"Q29sb25h","town_id":"","town":"","fl_admin":"IElsbGlub2lzCQ==","country":"VW5pdGVkIFN0YXRlcw=="}
July 23, 2019, 2:31 pm {"address_id":"58","entity_id":"1","location_id":"10","address":"ZmdkZmdk","landmark":"bGFuZMKgbWFyaw==","phone":"9950449428","otheraddress":"","otherlandmark":"","otherphone":"","varifed":"","phone_varified":"","type":1,"postalCode_id":"4","postalCode":"61241","location":"Q29sb25h","country_id":"234","fl_admin_id":"49","city_id":"10","city":"Q29sb25h","town_id":"","town":"","fl_admin":"IElsbGlub2lzCQ==","country":"VW5pdGVkIFN0YXRlcw=="}
July 23, 2019, 2:31 pm {"address_id":"58","entity_id":"1","location_id":"10","address":"ZmdkZmdk","landmark":"bGFuZMKgbWFyaw==","phone":"9950449428","otheraddress":"","otherlandmark":"","otherphone":"","varifed":"","phone_varified":"","type":1,"postalCode_id":"4","postalCode":"61241","location":"Q29sb25h","country_id":"234","fl_admin_id":"49","city_id":"10","city":"Q29sb25h","town_id":"","town":"","fl_admin":"IElsbGlub2lzCQ==","country":"VW5pdGVkIFN0YXRlcw=="}
July 23, 2019, 2:33 pm {"address_id":"58","entity_id":"1","location_id":"10","address":"ZmdkZmdk","landmark":"bGFuZMKgbWFyaw==","phone":"9950449428","otheraddress":"","otherlandmark":"","otherphone":"","varifed":"","phone_varified":"","type":1,"postalCode_id":"4","postalCode":"61241","location":"Q29sb25h","country_id":"234","fl_admin_id":"49","city_id":"10","city":"Q29sb25h","town_id":"","town":"","fl_admin":"IElsbGlub2lzCQ==","country":"VW5pdGVkIFN0YXRlcw=="}
July 23, 2019, 2:33 pm {"address_id":"58","entity_id":"1","location_id":"10","address":"ZmdkZmdk","landmark":"bGFuZMKgbWFyaw==","phone":"9950449428","otheraddress":"","otherlandmark":"","otherphone":"","varifed":"","phone_varified":"","type":1,"postalCode_id":"4","postalCode":"61241","location":"Q29sb25h","country_id":"234","fl_admin_id":"49","city_id":"10","city":"Q29sb25h","town_id":"","town":"","fl_admin":"IElsbGlub2lzCQ==","country":"VW5pdGVkIFN0YXRlcw=="}
July 23, 2019, 2:34 pm {"address_id":"58","entity_id":"1","location_id":"10","address":"ZmdkZmdk","landmark":"bGFuZMKgbWFyaw==","phone":"9950449428","otheraddress":"","otherlandmark":"","otherphone":"","varifed":"","phone_varified":"","type":1,"postalCode_id":"4","postalCode":"61241","location":"Q29sb25h","country_id":"234","fl_admin_id":"49","city_id":"10","city":"Q29sb25h","town_id":"","town":"","fl_admin":"IElsbGlub2lzCQ==","country":"VW5pdGVkIFN0YXRlcw=="}
July 23, 2019, 2:34 pm {"address_id":"58","entity_id":"1","location_id":"10","address":"ZmdkZmdk","landmark":"bGFuZMKgbWFyaw==","phone":"9950449428","otheraddress":"","otherlandmark":"","otherphone":"","varifed":"","phone_varified":"","type":1,"postalCode_id":"4","postalCode":"61241","location":"Q29sb25h","country_id":"234","fl_admin_id":"49","city_id":"10","city":"Q29sb25h","town_id":"","town":"","fl_admin":"IElsbGlub2lzCQ==","country":"VW5pdGVkIFN0YXRlcw=="}
July 23, 2019, 2:34 pm {"address_id":"58","entity_id":"1","location_id":"10","address":"ZmdkZmdk","landmark":"bGFuZMKgbWFyaw==","phone":"9950449428","otheraddress":"","otherlandmark":"","otherphone":"","varifed":"","phone_varified":"","type":1,"postalCode_id":"4","postalCode":"61241","location":"Q29sb25h","country_id":"234","fl_admin_id":"49","city_id":"10","city":"Q29sb25h","town_id":"","town":"","fl_admin":"IElsbGlub2lzCQ==","country":"VW5pdGVkIFN0YXRlcw=="}
July 23, 2019, 2:34 pm {"address_id":"58","entity_id":"1","location_id":"10","address":"ZmdkZmdk","landmark":"bGFuZMKgbWFyaw==","phone":"9950449428","otheraddress":"","otherlandmark":"","otherphone":"","varifed":"","phone_varified":"","type":1,"postalCode_id":"4","postalCode":"61241","location":"Q29sb25h","country_id":"234","fl_admin_id":"49","city_id":"10","city":"Q29sb25h","town_id":"","town":"","fl_admin":"IElsbGlub2lzCQ==","country":"VW5pdGVkIFN0YXRlcw=="}
July 23, 2019, 2:35 pm {"address_id":"58","entity_id":"1","location_id":"10","address":"ZmdkZmdk","landmark":"bGFuZMKgbWFyaw==","phone":"9950449428","otheraddress":"","otherlandmark":"","otherphone":"","varifed":"","phone_varified":"","type":1,"postalCode_id":"4","postalCode":"61241","location":"Q29sb25h","country_id":"234","fl_admin_id":"49","city_id":"10","city":"Q29sb25h","town_id":"","town":"","fl_admin":"IElsbGlub2lzCQ==","country":"VW5pdGVkIFN0YXRlcw=="}
July 23, 2019, 2:35 pm {"address_id":"58","entity_id":"1","location_id":"10","address":"ZmdkZmdk","landmark":"bGFuZMKgbWFyaw==","phone":"9950449428","otheraddress":"","otherlandmark":"","otherphone":"","varifed":"","phone_varified":"","type":1,"postalCode_id":"4","postalCode":"61241","location":"Q29sb25h","country_id":"234","fl_admin_id":"49","city_id":"10","city":"Q29sb25h","town_id":"","town":"","fl_admin":"IElsbGlub2lzCQ==","country":"VW5pdGVkIFN0YXRlcw=="}
July 23, 2019, 2:35 pm {"address_id":"58","entity_id":"1","location_id":"10","address":"ZmdkZmdk","landmark":"bGFuZMKgbWFyaw==","phone":"9950449428","otheraddress":"","otherlandmark":"","otherphone":"","varifed":"","phone_varified":"","type":1,"postalCode_id":"4","postalCode":"61241","location":"Q29sb25h","country_id":"234","fl_admin_id":"49","city_id":"10","city":"Q29sb25h","town_id":"","town":"","fl_admin":"IElsbGlub2lzCQ==","country":"VW5pdGVkIFN0YXRlcw=="}
July 23, 2019, 2:35 pm {"address_id":"58","entity_id":"1","location_id":"10","address":"ZmdkZmdk","landmark":"bGFuZMKgbWFyaw==","phone":"9950449428","otheraddress":"","otherlandmark":"","otherphone":"","varifed":"","phone_varified":"","type":1,"postalCode_id":"4","postalCode":"61241","location":"Q29sb25h","country_id":"234","fl_admin_id":"49","city_id":"10","city":"Q29sb25h","town_id":"","town":"","fl_admin":"IElsbGlub2lzCQ==","country":"VW5pdGVkIFN0YXRlcw=="}
July 23, 2019, 2:35 pm {"address_id":"58","entity_id":"1","location_id":"10","address":"ZmdkZmdk","landmark":"bGFuZMKgbWFyaw==","phone":"9950449428","otheraddress":"","otherlandmark":"","otherphone":"","varifed":"","phone_varified":"","type":1,"postalCode_id":"4","postalCode":"61241","location":"Q29sb25h","country_id":"234","fl_admin_id":"49","city_id":"10","city":"Q29sb25h","town_id":"","town":"","fl_admin":"IElsbGlub2lzCQ==","country":"VW5pdGVkIFN0YXRlcw=="}
July 23, 2019, 2:35 pm {"address_id":"58","entity_id":"1","location_id":"10","address":"ZmdkZmdk","landmark":"bGFuZMKgbWFyaw==","phone":"9950449428","otheraddress":"","otherlandmark":"","otherphone":"","varifed":"","phone_varified":"","type":1,"postalCode_id":"4","postalCode":"61241","location":"Q29sb25h","country_id":"234","fl_admin_id":"49","city_id":"10","city":"Q29sb25h","town_id":"","town":"","fl_admin":"IElsbGlub2lzCQ==","country":"VW5pdGVkIFN0YXRlcw=="}
July 23, 2019, 2:35 pm {"address_id":"58","entity_id":"1","location_id":"10","address":"ZmdkZmdk","landmark":"bGFuZMKgbWFyaw==","phone":"9950449428","otheraddress":"","otherlandmark":"","otherphone":"","varifed":"","phone_varified":"","type":1,"postalCode_id":"4","postalCode":"61241","location":"Q29sb25h","country_id":"234","fl_admin_id":"49","city_id":"10","city":"Q29sb25h","town_id":"","town":"","fl_admin":"IElsbGlub2lzCQ==","country":"VW5pdGVkIFN0YXRlcw=="}
July 23, 2019, 2:35 pm {"address_id":"58","entity_id":"1","location_id":"10","address":"ZmdkZmdk","landmark":"bGFuZMKgbWFyaw==","phone":"9950449428","otheraddress":"","otherlandmark":"","otherphone":"","varifed":"","phone_varified":"","type":1,"postalCode_id":"4","postalCode":"61241","location":"Q29sb25h","country_id":"234","fl_admin_id":"49","city_id":"10","city":"Q29sb25h","town_id":"","town":"","fl_admin":"IElsbGlub2lzCQ==","country":"VW5pdGVkIFN0YXRlcw=="}
July 23, 2019, 2:36 pm {"address_id":"58","entity_id":"1","location_id":"10","address":"ZmdkZmdk","landmark":"bGFuZMKgbWFyaw==","phone":"9950449428","otheraddress":"","otherlandmark":"","otherphone":"","varifed":"","phone_varified":"","type":1,"postalCode_id":"4","postalCode":"61241","location":"Q29sb25h","country_id":"234","fl_admin_id":"49","city_id":"10","city":"Q29sb25h","town_id":"","town":"","fl_admin":"IElsbGlub2lzCQ==","country":"VW5pdGVkIFN0YXRlcw=="}
July 23, 2019, 2:36 pm {"address_id":"58","entity_id":"1","location_id":"10","address":"ZmdkZmdk","landmark":"bGFuZMKgbWFyaw==","phone":"9950449428","otheraddress":"","otherlandmark":"","otherphone":"","varifed":"","phone_varified":"","type":1,"postalCode_id":"4","postalCode":"61241","location":"Q29sb25h","country_id":"234","fl_admin_id":"49","city_id":"10","city":"Q29sb25h","town_id":"","town":"","fl_admin":"IElsbGlub2lzCQ==","country":"VW5pdGVkIFN0YXRlcw=="}
July 23, 2019, 2:36 pm {"address_id":"58","entity_id":"1","location_id":"10","address":"ZmdkZmdk","landmark":"bGFuZMKgbWFyaw==","phone":"9950449428","otheraddress":"","otherlandmark":"","otherphone":"","varifed":"","phone_varified":"","type":1,"postalCode_id":"4","postalCode":"61241","location":"Q29sb25h","country_id":"234","fl_admin_id":"49","city_id":"10","city":"Q29sb25h","town_id":"","town":"","fl_admin":"IElsbGlub2lzCQ==","country":"VW5pdGVkIFN0YXRlcw=="}
July 23, 2019, 2:36 pm {"address_id":"58","entity_id":"1","location_id":"10","address":"ZmdkZmdk","landmark":"bGFuZMKgbWFyaw==","phone":"9950449428","otheraddress":"","otherlandmark":"","otherphone":"","varifed":"","phone_varified":"","type":1,"postalCode_id":"4","postalCode":"61241","location":"Q29sb25h","country_id":"234","fl_admin_id":"49","city_id":"10","city":"Q29sb25h","town_id":"","town":"","fl_admin":"IElsbGlub2lzCQ==","country":"VW5pdGVkIFN0YXRlcw=="}
July 23, 2019, 2:36 pm {"address_id":"58","entity_id":"1","location_id":"10","address":"ZmdkZmdk","landmark":"bGFuZMKgbWFyaw==","phone":"9950449428","otheraddress":"","otherlandmark":"","otherphone":"","varifed":"","phone_varified":"","type":1,"postalCode_id":"4","postalCode":"61241","location":"Q29sb25h","country_id":"234","fl_admin_id":"49","city_id":"10","city":"Q29sb25h","town_id":"","town":"","fl_admin":"IElsbGlub2lzCQ==","country":"VW5pdGVkIFN0YXRlcw=="}
July 23, 2019, 2:37 pm {"address_id":"58","entity_id":"1","location_id":"10","address":"ZmdkZmdk","landmark":"bGFuZMKgbWFyaw==","phone":"9950449428","otheraddress":"","otherlandmark":"","otherphone":"","varifed":"","phone_varified":"","type":1,"postalCode_id":"4","postalCode":"61241","location":"Q29sb25h","country_id":"234","fl_admin_id":"49","city_id":"10","city":"Q29sb25h","town_id":"","town":"","fl_admin":"IElsbGlub2lzCQ==","country":"VW5pdGVkIFN0YXRlcw=="}
July 23, 2019, 2:37 pm {"address_id":"58","entity_id":"1","location_id":"10","address":"ZmdkZmdk","landmark":"bGFuZMKgbWFyaw==","phone":"9950449428","otheraddress":"","otherlandmark":"","otherphone":"","varifed":"","phone_varified":"","type":1,"postalCode_id":"4","postalCode":"61241","location":"Q29sb25h","country_id":"234","fl_admin_id":"49","city_id":"10","city":"Q29sb25h","town_id":"","town":"","fl_admin":"IElsbGlub2lzCQ==","country":"VW5pdGVkIFN0YXRlcw=="}
July 23, 2019, 2:37 pm {"address_id":"58","entity_id":"1","location_id":"10","address":"ZmdkZmdk","landmark":"bGFuZMKgbWFyaw==","phone":"9950449428","otheraddress":"","otherlandmark":"","otherphone":"","varifed":"","phone_varified":"","type":1,"postalCode_id":"4","postalCode":"61241","location":"Q29sb25h","country_id":"234","fl_admin_id":"49","city_id":"10","city":"Q29sb25h","town_id":"","town":"","fl_admin":"IElsbGlub2lzCQ==","country":"VW5pdGVkIFN0YXRlcw=="}
July 23, 2019, 2:50 pm {"address_id":"58","entity_id":"1","location_id":"10","address":"ZmdkZmdk","landmark":"bGFuZMKgbWFyaw==","phone":"9950449428","otheraddress":"","otherlandmark":"","otherphone":"","varifed":"","phone_varified":"","type":1,"postalCode_id":"4","postalCode":"61241","location":"Q29sb25h","country_id":"234","fl_admin_id":"49","city_id":"10","city":"Q29sb25h","town_id":"","town":"","fl_admin":"IElsbGlub2lzCQ==","country":"VW5pdGVkIFN0YXRlcw=="}
July 23, 2019, 2:50 pm {"address_id":"58","entity_id":"1","location_id":"10","address":"ZmdkZmdk","landmark":"bGFuZMKgbWFyaw==","phone":"9950449428","otheraddress":"","otherlandmark":"","otherphone":"","varifed":"","phone_varified":"","type":1,"postalCode_id":"4","postalCode":"61241","location":"Q29sb25h","country_id":"234","fl_admin_id":"49","city_id":"10","city":"Q29sb25h","town_id":"","town":"","fl_admin":"IElsbGlub2lzCQ==","country":"VW5pdGVkIFN0YXRlcw=="}
July 23, 2019, 2:50 pm {"address_id":"58","entity_id":"1","location_id":"10","address":"ZmdkZmdk","landmark":"bGFuZMKgbWFyaw==","phone":"9950449428","otheraddress":"","otherlandmark":"","otherphone":"","varifed":"","phone_varified":"","type":1,"postalCode_id":"4","postalCode":"61241","location":"Q29sb25h","country_id":"234","fl_admin_id":"49","city_id":"10","city":"Q29sb25h","town_id":"","town":"","fl_admin":"IElsbGlub2lzCQ==","country":"VW5pdGVkIFN0YXRlcw=="}
July 25, 2019, 11:40 pm {"address_id":"58","entity_id":"1","location_id":"10","address":"ZmdkZmdk","landmark":"bGFuZMKgbWFyaw==","phone":"9950449428","otheraddress":"","otherlandmark":"","otherphone":"","varifed":"","phone_varified":"","type":1,"postalCode_id":"4","postalCode":"61241","location":"Q29sb25h","country_id":"234","fl_admin_id":"49","city_id":"10","city":"Q29sb25h","town_id":"","town":"","fl_admin":"IElsbGlub2lzCQ==","country":"VW5pdGVkIFN0YXRlcw=="}
July 25, 2019, 11:40 pm {"address_id":"58","entity_id":"1","location_id":"10","address":"ZmdkZmdk","landmark":"bGFuZMKgbWFyaw==","phone":"9950449428","otheraddress":"","otherlandmark":"","otherphone":"","varifed":"","phone_varified":"","type":1,"postalCode_id":"4","postalCode":"61241","location":"Q29sb25h","country_id":"234","fl_admin_id":"49","city_id":"10","city":"Q29sb25h","town_id":"","town":"","fl_admin":"IElsbGlub2lzCQ==","country":"VW5pdGVkIFN0YXRlcw=="}
July 25, 2019, 11:40 pm {"address_id":"58","entity_id":"1","location_id":"10","address":"ZmdkZmdk","landmark":"bGFuZMKgbWFyaw==","phone":"9950449428","otheraddress":"","otherlandmark":"","otherphone":"","varifed":"","phone_varified":"","type":1,"postalCode_id":"4","postalCode":"61241","location":"Q29sb25h","country_id":"234","fl_admin_id":"49","city_id":"10","city":"Q29sb25h","town_id":"","town":"","fl_admin":"IElsbGlub2lzCQ==","country":"VW5pdGVkIFN0YXRlcw=="}
July 25, 2019, 6:12 pm [{"entity_id":"2","account_id":"1","type":"0","device_in_use":"0","last_login":"2019-07-22 19:38:57","public_data":"{\"theme\":[\"\",\"\"],\"Name\":\"a2VzaGF2IGdhdXRhbQ==\",\"UserName\":\"keshav\",\"FirstName\":\"a2VzaGF2\",\"LastName\":\"Z2F1dGFt\",\"sex\":\"0\",\"birthday\":\"Jun,19,1992\",\"slug\":\"keshav\",\"profilepicData\":{\"mainimages\":[{\"url\":\"https&colon;&sol;&sol;s3-ap-south-1&period;amazonaws&period;com&sol;wowrol&sol;0&lowbar;92&period;jpeg\",\"key\":\"0&lowbar;92\",\"hash\":\"lpuet2lqmp\",\"name\":\"0&lowbar;92\",\"priviewId\":\"1486546772kagDG71\"}],\"webimages\":[],\"featureimage\":{\"image_id\":\"\",\"url\":\"https&colon;&sol;&sol;s3-ap-south-1&period;amazonaws&period;com&sol;wowrol&sol;0&lowbar;92&period;jpeg\",\"update_hash\":\"\",\"width\":\"400\",\"height\":\"400\",\"time\":\"\",\"filesize\":\"\",\"key\":\"0&lowbar;92\",\"hash\":\"lpuet2lqmp\",\"name\":\"0&lowbar;92\",\"priviewId\":\"1486546772kagDG71\"}},\"bannerData\":{\"mainimages\":[{\"url\":\"https&colon;&sol;&sol;s3-ap-south-1&period;amazonaws&period;com&sol;wowrol&sol;0&lowbar;94&period;jpeg\",\"key\":\"0&lowbar;94\",\"hash\":\"v7i11h6zxy\",\"name\":\"0&lowbar;94&period;jpeg\",\"priviewId\":\"14797441958ezZh33\"}],\"webimages\":[],\"featureimage\":{\"image_id\":\"\",\"url\":\"https&colon;&sol;&sol;s3-ap-south-1&period;amazonaws&period;com&sol;wowrol&sol;0&lowbar;94&period;jpeg\",\"update_hash\":\"\",\"width\":\"400\",\"height\":\"400\",\"time\":\"\",\"filesize\":\"\",\"key\":\"0&lowbar;94\",\"hash\":\"v7i11h6zxy\",\"name\":\"0&lowbar;94&period;jpeg\",\"priviewId\":\"14797441958ezZh33\"}},\"livingPalce\":\"ZnNkZnNkZg==\",\"about\":\"cnR0dHR0dHR0dHR0dHR0dHR0dGRmZ2RmJm5ic3A7ZGZnJm5ic3A7ZGYmbmJzcDtkZmcmbmJzcDtmZGRkZGRkZGRkZGRkZGdkZmdkZmdkZmcmbmJzcDtkZmdkZmdkZmdkZmdmZGdkZmdkZmdkZmdkZmZmZmZmZmZmZmZmZmZnZGZmZmZmZmZmZmZmZmZmZmZnZGZmZmZmZmZmZmZmZmZmZmZmZmZmZmZmZmZmZmZmZmZmZmZmZmZmZmZmZmZmZmZmZmZmZmZmZmZmZmZmZmZmZmZmZmZmZmZmZmZmZmZmZmZmZmZmZmZmZmZmZmZmZmZmZmZmZmZmZmZmZmZmZmZmZmZmZmZmZmZmZmZmZmZmZmZmZmY=\",\"website\":\"cnR5cnR5\",\"avatar\":\"https&colon;&sol;&sol;s3-ap-south-1&period;amazonaws&period;com&sol;wowrol&sol;0&lowbar;92&period;jpeg\",\"banner\":\"https&colon;&sol;&sol;s3-ap-south-1&period;amazonaws&period;com&sol;wowrol&sol;0&lowbar;94&period;jpeg\",\"addressdata\":{\"0\":{\"address_id\":16,\"entity_id\":\"2\",\"location_id\":\"3\",\"address\":\"amFpcHVy\",\"landmark\":\"c2Q=\",\"phone\":\"7891945988\",\"otheraddress\":\"\",\"otherlandmark\":\"\",\"otherphone\":\"\",\"varifed\":\"\",\"phone_varified\":\"\",\"type\":0,\"postalCode_id\":\"2\",\"postalCode\":\"325214\",\"location\":\"YXlhbmE=\",\"country_id\":\"105\",\"fl_admin_id\":\"22\",\"city_id\":\"1\",\"city\":\"a290YQ==\",\"town_id\":\"3\",\"town\":\"YXlhbmE=\",\"fl_admin\":\"UmFqYXN0aGFuCQ==\",\"country\":\"SW5kaWE=\"},\"14\":{\"address_id\":\"14\",\"entity_id\":\"2\",\"location_id\":\"1\",\"address\":\"ZmRnZGZnPGJyPnNkZnNk\",\"landmark\":\"\",\"phone\":\"7891945988\",\"otheraddress\":\"\",\"otherlandmark\":\"\",\"otherphone\":\"\",\"varifed\":\"\",\"phone_varified\":\"\",\"type\":0,\"postalCode_id\":\"1\",\"postalCode\":\"324001\",\"location\":\"a290YQ==\",\"country_id\":\"105\",\"fl_admin_id\":\"22\",\"city_id\":\"1\",\"city\":\"a290YQ==\",\"town_id\":\"\",\"town\":\"\",\"fl_admin\":\"UmFqYXN0aGFuCQ==\",\"country\":\"SW5kaWE=\"},\"17\":{\"address_id\":\"17\",\"entity_id\":\"2\",\"location_id\":\"1\",\"address\":\"aG91c2UmbmJzcDszNCZuYnNwO3NreSZuYnNwO3ZpZXc8YnI+cG9sb2FsdG8mbmJzcDttYXhpbXVt\",\"landmark\":\"\",\"phone\":\"7891945988\",\"otheraddress\":\"\",\"otherlandmark\":\"\",\"otherphone\":\"\",\"varifed\":\"\",\"phone_varified\":\"\",\"type\":0,\"postalCode_id\":\"1\",\"postalCode\":\"324001\",\"location\":\"a290YQ==\",\"country_id\":\"105\",\"fl_admin_id\":\"22\",\"city_id\":\"1\",\"city\":\"a290YQ==\",\"town_id\":\"\",\"town\":\"\",\"fl_admin\":\"UmFqYXN0aGFuCQ==\",\"country\":\"SW5kaWE=\"},\"18\":{\"address_id\":\"18\",\"entity_id\":\"2\",\"location_id\":\"1\",\"address\":\"d3dlcmRmPGJyPnNkZnNkZjxicj5zZGZzZA==\",\"landmark\":\"\",\"phone\":\"7891945988\",\"otheraddress\":\"\",\"otherlandmark\":\"\",\"otherphone\":\"\",\"varifed\":\"\",\"phone_varified\":\"\",\"type\":0,\"postalCode_id\":\"1\",\"postalCode\":\"324001\",\"location\":\"a290YQ==\",\"country_id\":\"105\",\"fl_admin_id\":\"22\",\"city_id\":\"1\",\"city\":\"a290YQ==\",\"town_id\":\"\",\"town\":\"\",\"fl_admin\":\"UmFqYXN0aGFuCQ==\",\"country\":\"SW5kaWE=\"},\"16\":{\"address_id\":\"16\",\"entity_id\":\"2\",\"location_id\":\"3\",\"address\":\"aG91c2XCoE51bWJlcsKgwqAyN8KgPGJyPnBvd2VywqBob3VzZcKgc3RhdGlvbg==\",\"landmark\":\"\",\"phone\":\"7891945988\",\"otheraddress\":\"\",\"otherlandmark\":\"\",\"otherphone\":\"\",\"varifed\":\"\",\"phone_varified\":\"\",\"type\":0,\"postalCode_id\":\"2\",\"postalCode\":\"325214\",\"location\":\"YXlhbmE=\",\"country_id\":\"105\",\"fl_admin_id\":\"22\",\"city_id\":\"1\",\"city\":\"a290YQ==\",\"town_id\":\"3\",\"town\":\"YXlhbmE=\",\"fl_admin\":\"UmFqYXN0aGFuCQ==\",\"country\":\"SW5kaWE=\"},\"38\":{\"address_id\":38,\"entity_id\":\"2\",\"location_id\":\"7\",\"address\":\"cHVsaXlhJm5ic3A7a2UmbmJzcDtwYXNz\",\"landmark\":\"YmFzJm5ic3A7c3RhbmQ=\",\"phone\":\"7891945988\",\"otheraddress\":\"\",\"otherlandmark\":\"\",\"otherphone\":\"\",\"varifed\":\"\",\"phone_varified\":\"\",\"type\":0,\"postalCode_id\":\"2\",\"postalCode\":\"325214\",\"location\":\"THVoYXdhZA==\",\"country_id\":\"105\",\"fl_admin_id\":\"22\",\"city_id\":\"1\",\"city\":\"a290YQ==\",\"town_id\":\"7\",\"town\":\"THVoYXdhZA==\",\"fl_admin\":\"UmFqYXN0aGFuCQ==\",\"country\":\"SW5kaWE=\"}},\"bio\":[],\"profilepic\":\"\",\"banner_id\":\"\",\"Url\":[]}","private_data":"{\"deactivate\":1,\"wallet_id\":0,\"countryinfo_id\":\"105\",\"varified\":1,\"memberSince\":1476860439,\"notification_checktime\":\"1523085319\",\"order_checktime\":1476860439,\"checkin_msg_checktime\":1563804240,\"chat_msg_checktime\":1563743119,\"blocked_entity\":[],\"profile_complete\":{\"profile_pic\":1,\"profile_banner\":1,\"address\":1,\"following_count\":0,\"friend_count\":0,\"favoritestore_count\":3},\"activity_update_server_code\":0,\"privacy_setting\":{\"ip0\":0,\"ip1\":0,\"ip2\":0,\"ip3\":0,\"ip4\":0,\"ip5\":2,\"ip6\":0,\"ip7\":0,\"ip8\":0,\"ip9\":2,\"ip10\":0,\"cp0\":0,\"cp1\":0,\"cp2\":0,\"cp3\":0,\"cp4\":0,\"cp5\":5,\"cp6\":0,\"op0\":0,\"op1\":0},\"notification_setting\":{\"nss0\":1,\"nss1\":1,\"nss2\":1,\"nss3\":0,\"ns0\":0,\"ns1\":0,\"ns2\":0},\"FirstName\":\"a2VzaGF2\",\"LastName\":\"Z2F1dGFt\",\"sex\":\"0\",\"birthday\":\"Jun,19,1991\",\"livingPalce\":\"dfgfd\",\"about\":\"\",\"website\":\"dfg\",\"theme\":[\"\",\"\"],\"profilepic\":\"\",\"avatar\":\"http:\/\/localhost:3325\/assets\/imgs\/pic\/avatar.png\",\"banner_id\":\"\",\"addressdata\":{\"address_id\":\"2\",\"entity_id\":\"2\",\"location_id\":\"1\",\"address\":\"c2Rm\",\"landmark\":\"c2Rm\",\"phone\":\"7891945988\",\"otheraddress\":\"\",\"otherlandmark\":\"\",\"otherphone\":\"\",\"varifed\":\"\",\"phone_varified\":\"\",\"type\":0,\"postalCode_id\":\"1\",\"postalCode\":\"324001\",\"location\":\"a290YQ==\",\"country_id\":\"105\",\"fl_admin_id\":\"22\",\"city_id\":\"1\",\"city\":\"a290YQ==\",\"town_id\":\"\",\"town\":\"\",\"fl_admin\":\"UmFqYXN0aGFuCQ==\",\"country\":\"SW5kaWE=\"},\"AddressHome\":{\"address\":\"\",\"location_id\":\"105005\",\"address_id\":\"\",\"location_name\":\"Jaloda&nbsp;Khatian\",\"Districtname\":\"Kota\",\"Statename\":\"RAJASTHAN\",\"Country\":\"India\",\"pincode\":\"325214\",\"phone\":\"\"},\"AddressWork\":{\"address\":\"\",\"location_id\":\"\",\"address_id\":\"\",\"location_name\":\"\",\"Districtname\":\"\",\"Statename\":\"\",\"Country\":\"\",\"pincode\":\"\",\"phone\":\"\"},\"bio\":[]}","search_data":"keshav gautam keshav gautam keshav","slug_id":"2045","object_id":"2","object_type":"buyer","content_slug":"keshav","original_slug":"keshav"}]
July 26, 2019, 12:01 am {"address_id":"58","entity_id":"1","location_id":"10","address":"ZmdkZmdk","landmark":"bGFuZMKgbWFyaw==","phone":"9950449428","otheraddress":"","otherlandmark":"","otherphone":"","varifed":"","phone_varified":"","type":1,"postalCode_id":"4","postalCode":"61241","location":"Q29sb25h","country_id":"234","fl_admin_id":"49","city_id":"10","city":"Q29sb25h","town_id":"","town":"","fl_admin":"IElsbGlub2lzCQ==","country":"VW5pdGVkIFN0YXRlcw=="}
July 26, 2019, 12:02 am {"address_id":"58","entity_id":"1","location_id":"10","address":"ZmdkZmdk","landmark":"bGFuZMKgbWFyaw==","phone":"9950449428","otheraddress":"","otherlandmark":"","otherphone":"","varifed":"","phone_varified":"","type":1,"postalCode_id":"4","postalCode":"61241","location":"Q29sb25h","country_id":"234","fl_admin_id":"49","city_id":"10","city":"Q29sb25h","town_id":"","town":"","fl_admin":"IElsbGlub2lzCQ==","country":"VW5pdGVkIFN0YXRlcw=="}
July 26, 2019, 12:08 am {"address_id":"58","entity_id":"1","location_id":"10","address":"ZmdkZmdk","landmark":"bGFuZMKgbWFyaw==","phone":"9950449428","otheraddress":"","otherlandmark":"","otherphone":"","varifed":"","phone_varified":"","type":1,"postalCode_id":"4","postalCode":"61241","location":"Q29sb25h","country_id":"234","fl_admin_id":"49","city_id":"10","city":"Q29sb25h","town_id":"","town":"","fl_admin":"IElsbGlub2lzCQ==","country":"VW5pdGVkIFN0YXRlcw=="}
July 26, 2019, 12:08 am {"address_id":"58","entity_id":"1","location_id":"10","address":"ZmdkZmdk","landmark":"bGFuZMKgbWFyaw==","phone":"9950449428","otheraddress":"","otherlandmark":"","otherphone":"","varifed":"","phone_varified":"","type":1,"postalCode_id":"4","postalCode":"61241","location":"Q29sb25h","country_id":"234","fl_admin_id":"49","city_id":"10","city":"Q29sb25h","town_id":"","town":"","fl_admin":"IElsbGlub2lzCQ==","country":"VW5pdGVkIFN0YXRlcw=="}
July 26, 2019, 12:08 am {"address_id":"58","entity_id":"1","location_id":"10","address":"ZmdkZmdk","landmark":"bGFuZMKgbWFyaw==","phone":"9950449428","otheraddress":"","otherlandmark":"","otherphone":"","varifed":"","phone_varified":"","type":1,"postalCode_id":"4","postalCode":"61241","location":"Q29sb25h","country_id":"234","fl_admin_id":"49","city_id":"10","city":"Q29sb25h","town_id":"","town":"","fl_admin":"IElsbGlub2lzCQ==","country":"VW5pdGVkIFN0YXRlcw=="}
July 26, 2019, 12:08 am {"address_id":"58","entity_id":"1","location_id":"10","address":"ZmdkZmdk","landmark":"bGFuZMKgbWFyaw==","phone":"9950449428","otheraddress":"","otherlandmark":"","otherphone":"","varifed":"","phone_varified":"","type":1,"postalCode_id":"4","postalCode":"61241","location":"Q29sb25h","country_id":"234","fl_admin_id":"49","city_id":"10","city":"Q29sb25h","town_id":"","town":"","fl_admin":"IElsbGlub2lzCQ==","country":"VW5pdGVkIFN0YXRlcw=="}
July 26, 2019, 12:08 am {"address_id":"58","entity_id":"1","location_id":"10","address":"ZmdkZmdk","landmark":"bGFuZMKgbWFyaw==","phone":"9950449428","otheraddress":"","otherlandmark":"","otherphone":"","varifed":"","phone_varified":"","type":1,"postalCode_id":"4","postalCode":"61241","location":"Q29sb25h","country_id":"234","fl_admin_id":"49","city_id":"10","city":"Q29sb25h","town_id":"","town":"","fl_admin":"IElsbGlub2lzCQ==","country":"VW5pdGVkIFN0YXRlcw=="}
July 26, 2019, 12:08 am {"address_id":"58","entity_id":"1","location_id":"10","address":"ZmdkZmdk","landmark":"bGFuZMKgbWFyaw==","phone":"9950449428","otheraddress":"","otherlandmark":"","otherphone":"","varifed":"","phone_varified":"","type":1,"postalCode_id":"4","postalCode":"61241","location":"Q29sb25h","country_id":"234","fl_admin_id":"49","city_id":"10","city":"Q29sb25h","town_id":"","town":"","fl_admin":"IElsbGlub2lzCQ==","country":"VW5pdGVkIFN0YXRlcw=="}
July 26, 2019, 12:08 am {"address_id":"58","entity_id":"1","location_id":"10","address":"ZmdkZmdk","landmark":"bGFuZMKgbWFyaw==","phone":"9950449428","otheraddress":"","otherlandmark":"","otherphone":"","varifed":"","phone_varified":"","type":1,"postalCode_id":"4","postalCode":"61241","location":"Q29sb25h","country_id":"234","fl_admin_id":"49","city_id":"10","city":"Q29sb25h","town_id":"","town":"","fl_admin":"IElsbGlub2lzCQ==","country":"VW5pdGVkIFN0YXRlcw=="}
July 26, 2019, 12:08 am {"address_id":"58","entity_id":"1","location_id":"10","address":"ZmdkZmdk","landmark":"bGFuZMKgbWFyaw==","phone":"9950449428","otheraddress":"","otherlandmark":"","otherphone":"","varifed":"","phone_varified":"","type":1,"postalCode_id":"4","postalCode":"61241","location":"Q29sb25h","country_id":"234","fl_admin_id":"49","city_id":"10","city":"Q29sb25h","town_id":"","town":"","fl_admin":"IElsbGlub2lzCQ==","country":"VW5pdGVkIFN0YXRlcw=="}
July 26, 2019, 12:09 am {"address_id":"58","entity_id":"1","location_id":"10","address":"ZmdkZmdk","landmark":"bGFuZMKgbWFyaw==","phone":"9950449428","otheraddress":"","otherlandmark":"","otherphone":"","varifed":"","phone_varified":"","type":1,"postalCode_id":"4","postalCode":"61241","location":"Q29sb25h","country_id":"234","fl_admin_id":"49","city_id":"10","city":"Q29sb25h","town_id":"","town":"","fl_admin":"IElsbGlub2lzCQ==","country":"VW5pdGVkIFN0YXRlcw=="}
July 26, 2019, 12:09 am {"address_id":"58","entity_id":"1","location_id":"10","address":"ZmdkZmdk","landmark":"bGFuZMKgbWFyaw==","phone":"9950449428","otheraddress":"","otherlandmark":"","otherphone":"","varifed":"","phone_varified":"","type":1,"postalCode_id":"4","postalCode":"61241","location":"Q29sb25h","country_id":"234","fl_admin_id":"49","city_id":"10","city":"Q29sb25h","town_id":"","town":"","fl_admin":"IElsbGlub2lzCQ==","country":"VW5pdGVkIFN0YXRlcw=="}
July 26, 2019, 12:09 am {"address_id":"58","entity_id":"1","location_id":"10","address":"ZmdkZmdk","landmark":"bGFuZMKgbWFyaw==","phone":"9950449428","otheraddress":"","otherlandmark":"","otherphone":"","varifed":"","phone_varified":"","type":1,"postalCode_id":"4","postalCode":"61241","location":"Q29sb25h","country_id":"234","fl_admin_id":"49","city_id":"10","city":"Q29sb25h","town_id":"","town":"","fl_admin":"IElsbGlub2lzCQ==","country":"VW5pdGVkIFN0YXRlcw=="}
July 26, 2019, 12:09 am {"address_id":"58","entity_id":"1","location_id":"10","address":"ZmdkZmdk","landmark":"bGFuZMKgbWFyaw==","phone":"9950449428","otheraddress":"","otherlandmark":"","otherphone":"","varifed":"","phone_varified":"","type":1,"postalCode_id":"4","postalCode":"61241","location":"Q29sb25h","country_id":"234","fl_admin_id":"49","city_id":"10","city":"Q29sb25h","town_id":"","town":"","fl_admin":"IElsbGlub2lzCQ==","country":"VW5pdGVkIFN0YXRlcw=="}
July 26, 2019, 12:09 am {"address_id":"58","entity_id":"1","location_id":"10","address":"ZmdkZmdk","landmark":"bGFuZMKgbWFyaw==","phone":"9950449428","otheraddress":"","otherlandmark":"","otherphone":"","varifed":"","phone_varified":"","type":1,"postalCode_id":"4","postalCode":"61241","location":"Q29sb25h","country_id":"234","fl_admin_id":"49","city_id":"10","city":"Q29sb25h","town_id":"","town":"","fl_admin":"IElsbGlub2lzCQ==","country":"VW5pdGVkIFN0YXRlcw=="}
July 26, 2019, 12:10 am {"address_id":"58","entity_id":"1","location_id":"10","address":"ZmdkZmdk","landmark":"bGFuZMKgbWFyaw==","phone":"9950449428","otheraddress":"","otherlandmark":"","otherphone":"","varifed":"","phone_varified":"","type":1,"postalCode_id":"4","postalCode":"61241","location":"Q29sb25h","country_id":"234","fl_admin_id":"49","city_id":"10","city":"Q29sb25h","town_id":"","town":"","fl_admin":"IElsbGlub2lzCQ==","country":"VW5pdGVkIFN0YXRlcw=="}
July 26, 2019, 12:10 am {"address_id":"58","entity_id":"1","location_id":"10","address":"ZmdkZmdk","landmark":"bGFuZMKgbWFyaw==","phone":"9950449428","otheraddress":"","otherlandmark":"","otherphone":"","varifed":"","phone_varified":"","type":1,"postalCode_id":"4","postalCode":"61241","location":"Q29sb25h","country_id":"234","fl_admin_id":"49","city_id":"10","city":"Q29sb25h","town_id":"","town":"","fl_admin":"IElsbGlub2lzCQ==","country":"VW5pdGVkIFN0YXRlcw=="}
July 26, 2019, 12:10 am {"address_id":"58","entity_id":"1","location_id":"10","address":"ZmdkZmdk","landmark":"bGFuZMKgbWFyaw==","phone":"9950449428","otheraddress":"","otherlandmark":"","otherphone":"","varifed":"","phone_varified":"","type":1,"postalCode_id":"4","postalCode":"61241","location":"Q29sb25h","country_id":"234","fl_admin_id":"49","city_id":"10","city":"Q29sb25h","town_id":"","town":"","fl_admin":"IElsbGlub2lzCQ==","country":"VW5pdGVkIFN0YXRlcw=="}
July 26, 2019, 12:12 am {"address_id":"58","entity_id":"1","location_id":"10","address":"ZmdkZmdk","landmark":"bGFuZMKgbWFyaw==","phone":"9950449428","otheraddress":"","otherlandmark":"","otherphone":"","varifed":"","phone_varified":"","type":1,"postalCode_id":"4","postalCode":"61241","location":"Q29sb25h","country_id":"234","fl_admin_id":"49","city_id":"10","city":"Q29sb25h","town_id":"","town":"","fl_admin":"IElsbGlub2lzCQ==","country":"VW5pdGVkIFN0YXRlcw=="}
July 26, 2019, 12:13 am {"address_id":"58","entity_id":"1","location_id":"10","address":"ZmdkZmdk","landmark":"bGFuZMKgbWFyaw==","phone":"9950449428","otheraddress":"","otherlandmark":"","otherphone":"","varifed":"","phone_varified":"","type":1,"postalCode_id":"4","postalCode":"61241","location":"Q29sb25h","country_id":"234","fl_admin_id":"49","city_id":"10","city":"Q29sb25h","town_id":"","town":"","fl_admin":"IElsbGlub2lzCQ==","country":"VW5pdGVkIFN0YXRlcw=="}
July 26, 2019, 12:13 am {"address_id":"58","entity_id":"1","location_id":"10","address":"ZmdkZmdk","landmark":"bGFuZMKgbWFyaw==","phone":"9950449428","otheraddress":"","otherlandmark":"","otherphone":"","varifed":"","phone_varified":"","type":1,"postalCode_id":"4","postalCode":"61241","location":"Q29sb25h","country_id":"234","fl_admin_id":"49","city_id":"10","city":"Q29sb25h","town_id":"","town":"","fl_admin":"IElsbGlub2lzCQ==","country":"VW5pdGVkIFN0YXRlcw=="}
July 26, 2019, 12:13 am {"address_id":"58","entity_id":"1","location_id":"10","address":"ZmdkZmdk","landmark":"bGFuZMKgbWFyaw==","phone":"9950449428","otheraddress":"","otherlandmark":"","otherphone":"","varifed":"","phone_varified":"","type":1,"postalCode_id":"4","postalCode":"61241","location":"Q29sb25h","country_id":"234","fl_admin_id":"49","city_id":"10","city":"Q29sb25h","town_id":"","town":"","fl_admin":"IElsbGlub2lzCQ==","country":"VW5pdGVkIFN0YXRlcw=="}
July 26, 2019, 12:13 am {"address_id":"58","entity_id":"1","location_id":"10","address":"ZmdkZmdk","landmark":"bGFuZMKgbWFyaw==","phone":"9950449428","otheraddress":"","otherlandmark":"","otherphone":"","varifed":"","phone_varified":"","type":1,"postalCode_id":"4","postalCode":"61241","location":"Q29sb25h","country_id":"234","fl_admin_id":"49","city_id":"10","city":"Q29sb25h","town_id":"","town":"","fl_admin":"IElsbGlub2lzCQ==","country":"VW5pdGVkIFN0YXRlcw=="}
July 26, 2019, 12:14 am {"address_id":"58","entity_id":"1","location_id":"10","address":"ZmdkZmdk","landmark":"bGFuZMKgbWFyaw==","phone":"9950449428","otheraddress":"","otherlandmark":"","otherphone":"","varifed":"","phone_varified":"","type":1,"postalCode_id":"4","postalCode":"61241","location":"Q29sb25h","country_id":"234","fl_admin_id":"49","city_id":"10","city":"Q29sb25h","town_id":"","town":"","fl_admin":"IElsbGlub2lzCQ==","country":"VW5pdGVkIFN0YXRlcw=="}
July 26, 2019, 12:14 am {"address_id":"58","entity_id":"1","location_id":"10","address":"ZmdkZmdk","landmark":"bGFuZMKgbWFyaw==","phone":"9950449428","otheraddress":"","otherlandmark":"","otherphone":"","varifed":"","phone_varified":"","type":1,"postalCode_id":"4","postalCode":"61241","location":"Q29sb25h","country_id":"234","fl_admin_id":"49","city_id":"10","city":"Q29sb25h","town_id":"","town":"","fl_admin":"IElsbGlub2lzCQ==","country":"VW5pdGVkIFN0YXRlcw=="}
July 26, 2019, 12:14 am {"address_id":"58","entity_id":"1","location_id":"10","address":"ZmdkZmdk","landmark":"bGFuZMKgbWFyaw==","phone":"9950449428","otheraddress":"","otherlandmark":"","otherphone":"","varifed":"","phone_varified":"","type":1,"postalCode_id":"4","postalCode":"61241","location":"Q29sb25h","country_id":"234","fl_admin_id":"49","city_id":"10","city":"Q29sb25h","town_id":"","town":"","fl_admin":"IElsbGlub2lzCQ==","country":"VW5pdGVkIFN0YXRlcw=="}
July 26, 2019, 12:15 am {"address_id":"58","entity_id":"1","location_id":"10","address":"ZmdkZmdk","landmark":"bGFuZMKgbWFyaw==","phone":"9950449428","otheraddress":"","otherlandmark":"","otherphone":"","varifed":"","phone_varified":"","type":1,"postalCode_id":"4","postalCode":"61241","location":"Q29sb25h","country_id":"234","fl_admin_id":"49","city_id":"10","city":"Q29sb25h","town_id":"","town":"","fl_admin":"IElsbGlub2lzCQ==","country":"VW5pdGVkIFN0YXRlcw=="}
July 26, 2019, 1:14 pm [{"entity_id":"1","account_id":"1","type":"1","device_in_use":"0","last_login":"2019-07-26 00:53:05","public_data":"{\"theme\":[\"1\",\"\"],\"Name\":\"RGVtb8Kgc3RvcmU=\",\"slug\":\"test-mob-store\",\"avatar\":\"https&colon;&sol;&sol;i&period;imgur&period;com&sol;OL5KPb4&period;jpg\",\"banner\":\"\",\"profilepicData\":{\"webimages\":[{\"url\":\"https&colon;&sol;&sol;i&period;imgur&period;com&sol;OL5KPb4&period;jpg\",\"key\":\"\",\"hash\":\"\",\"name\":\"\",\"priviewId\":\"1564079515WThC784\"}],\"featureimage\":{\"url\":\"https&colon;&sol;&sol;i&period;imgur&period;com&sol;OL5KPb4&period;jpg\",\"key\":\"\",\"hash\":\"\",\"name\":\"\",\"priviewId\":\"1564079515WThC784\"}},\"bannerData\":{\"featureimage\":{\"image_id\":\"\",\"url\":\"\",\"update_hash\":\"\",\"width\":\"400\",\"height\":\"400\",\"time\":\"\",\"filesize\":\"\"}},\"addressdata\":{\"address_id\":\"58\",\"entity_id\":\"1\",\"location_id\":\"10\",\"address\":\"ZmdkZmdk\",\"landmark\":\"bGFuZMKgbWFyaw==\",\"phone\":\"9950449428\",\"otheraddress\":\"\",\"otherlandmark\":\"\",\"otherphone\":\"\",\"varifed\":\"\",\"phone_varified\":\"\",\"type\":1,\"postalCode_id\":\"4\",\"postalCode\":\"61241\",\"location\":\"Q29sb25h\",\"country_id\":\"234\",\"fl_admin_id\":\"49\",\"city_id\":\"10\",\"city\":\"Q29sb25h\",\"town_id\":\"\",\"town\":\"\",\"fl_admin\":\"IElsbGlub2lzCQ==\",\"country\":\"VW5pdGVkIFN0YXRlcw==\"},\"collection\":[\"1\",\"4\",\"5\",\"6\",\"7\"],\"collection_data\":[{\"id\":\"1\",\"name\":\"Daily&nbsp;Needs\",\"slug\":\"daily-needs-collection\"},{\"id\":\"4\",\"name\":\"Real-Estate\",\"slug\":\"real-estate-collection\"},{\"id\":\"5\",\"name\":\"industry&nbsp;supply\",\"slug\":\"industry-supply-collection\"},{\"id\":\"6\",\"name\":\"Furniture\",\"slug\":\"furniture-collection\"},{\"id\":\"7\",\"name\":\"Electronics\",\"slug\":\"electronics-collection\"}],\"store_policy\":\"c3RvcmUmbG93YmFyO3BvbGljeXN0b3JlJmxvd2Jhcjtwb2xpY3lzdG9yZSZsb3diYXI7cG9saWN5c3RvcmUmbG93YmFyO3BvbGljeXN0b3JlJmxvd2Jhcjtwb2xpY3lzdG9yZSZsb3diYXI7cG9saWN5c3RvcmUmbG93YmFyO3BvbGljeXN0b3JlJmxvd2Jhcjtwb2xpY3lzdG9yZSZsb3diYXI7cG9saWN5c3RvcmUmbG93YmFyO3BvbGljeXN0b3JlJmxvd2Jhcjtwb2xpY3lzdG9yZSZsb3diYXI7cG9saWN5c3RvcmUmbG93YmFyO3BvbGljeXN0b3JlJmxvd2Jhcjtwb2xpY3lzdG9yZSZsb3diYXI7cG9saWN5c3RvcmUmbG93YmFyO3BvbGljeXN0b3JlJmxvd2Jhcjtwb2xpY3lzdG9yZSZsb3diYXI7cG9saWN5c3RvcmUmbG93YmFyO3BvbGljeXN0b3JlJmxvd2Jhcjtwb2xpY3lzdG9yZSZsb3diYXI7cG9saQ==\",\"about_store\":\"c2FkYWFhYWFhYWFhYWFhYWFhYWFhYWFhYWFhYWFhYWFhYWFhYWFhYWFhYWFhYWFhYWFhYWFhYWFhYWFhYWFhYWFhYWFhYWFhYWFhYWFhYWFhYWFhYWFhYWFhYWFhYWFhYWFhYWFhYWFhYWFhYWFhYWFhYWFhYWFhYWFhYWFhYWFhYWFhYWFhYWFhYWFhYWFhYWFhYWFhYWFhYWFhYWFhYWFhYWFhYWFhYWFhYWFhYWFhYWFhYWFhYWFhYWFhYWFhYWFhYWFhYWFhYWFhYWFhYWFhYWFhYWFhYWFhYWFhYWFhYWFhYWFhYWFhYWFhYWFhYWFhYWFhYWFhYQ==\",\"sliderBox\":[{\"webimages\":[{\"url\":\"https&colon;&sol;&sol;www&period;f-cdn&period;com&sol;assets&sol;css&sol;images&sol;homepage&sol;bg-architecture-2x-cd1a1d20&period;jpg\",\"key\":\"\",\"hash\":\"\",\"name\":\"\",\"priviewId\":\"14911985620fx8761\"}],\"linkto\":{\"id\":\"0&lowbar;15\",\"mid\":\"15\",\"name\":\"Cameras &amp; Accessories\",\"slug\":\"cameras-accessories-category\",\"type\":\"0\",\"saveingId\":\"suggestion&period;1491200377H1BDZ72\"}},{\"webimages\":[{\"url\":\"http&colon;&sol;&sol;i&period;imgur&period;com&sol;4sX8V8U&period;jpg\",\"key\":\"\",\"hash\":\"\",\"name\":\"\",\"priviewId\":\"1480961508ARHV682\"}],\"linkto\":{\"id\":\"0&lowbar;22\",\"mid\":\"22\",\"name\":\"Men\",\"slug\":\"men-category\",\"type\":\"0\",\"saveingId\":\"suggestion&period;1480961521wuBSD94\"}},{\"webimages\":[{\"url\":\"https&colon;&sol;&sol;www&period;f-cdn&period;com&sol;assets&sol;css&sol;images&sol;homepage&sol;bg-app-2x-c16b1159&period;jpg\",\"key\":\"\",\"hash\":\"\",\"name\":\"\",\"priviewId\":\"1491200064RXxiD66\"}],\"linkto\":{\"id\":\"0&lowbar;15\",\"mid\":\"15\",\"name\":\"Cameras &amp; Accessories\",\"slug\":\"cameras-accessories-category\",\"type\":\"0\",\"saveingId\":\"suggestion&period;1491200066nHHrR74\"}}],\"website\":\"d293cm9sJnBlcmlvZDtjb20=\",\"categoryBox\":[{\"cid\":\"12\",\"sort\":0},{\"cid\":\"6\",\"sort\":0},{\"cid\":\"40\",\"sort\":0},{\"cid\":\"22\",\"sort\":0}],\"profilepic\":[],\"policy_store\":\"\"}","private_data":"{\"notification_setting\":{\"nss0\":1,\"nss1\":0,\"nss2\":1,\"nss3\":0,\"ns0\":0,\"ns1\":0,\"ns2\":0},\"notification_checktime\":1563873628,\"order_checktime\":1476820645,\"checkin_msg_checktime\":1564080317,\"chat_msg_checktime\":1564080218,\"default_category\":{\"cN\":\"hhjghj\",\"pa\":{\"cid\":\"\",\"cN\":\"\"},\"description\":\"\",\"cid\":\"63\",\"sid\":\"287\"},\"deactivate\":\"0\",\"wallet_id\":0,\"minimum_order\":\"2000\",\"activity_update_server_code\":0,\"memberSince\":1476820645,\"blocked_entity\":[],\"price_range\":{\"min\":\"0\",\"max\":\"200\"},\"feedback_spreadId\":191,\"privacy_setting\":{\"ip0\":0,\"ip1\":0,\"ip2\":0,\"ip3\":0,\"ip4\":0,\"ip5\":0,\"ip6\":0,\"ip7\":0,\"ip8\":0,\"ip9\":0,\"ip10\":0,\"cp0\":0,\"cp1\":0,\"cp2\":0,\"cp3\":0,\"cp4\":0,\"cp5\":0,\"cp6\":0,\"op0\":0,\"op1\":0},\"profile_complete\":{\"profile_pic\":1,\"slider\":1,\"address\":1,\"collection\":1,\"product_count\":28,\"category_count\":41,\"favoriter_count\":2,\"menu_set\":1},\"ratting\":0,\"staffHash\":\"\",\"staffloginattemp\":5,\"stafflogin_block_time\":0,\"staffloginblock\":0,\"nextOrderCount\":0,\"varified\":1,\"shippingZonecountry\":\"105\",\"countryinfo_id\":105,\"shippingZonetype\":\"1\",\"currency\":\"INR\",\"unitsystem\":\"metric\",\"weightunit\":\"kg\",\"return_policy\":\"1\",\"store_menu_table_code\":0,\"avatar\":\"\",\"profilepic\":[],\"addressdata\":{\"address_id\":\"1\",\"entity_id\":\"1\",\"location_id\":\"3\",\"address\":\"YXNkYXNkYXMmbmJzcDthc2QmbmJzcDthc2Rhc2Rhc2Rhc2R0eXNkZnNkZnNkZiZuYnNwO3NkZnNkPGJyPmRmZ2RmZ2RmZ2RmZ2RmZ2Rmc2RzZDxicj5kZmdkZmdkZmdzY2N2PGJyPmRmZ2RmZ2prJm5ic3A7ZmdoZmdzZGZmZyZuYnNwO3J0Zmc=\",\"landmark\":\"c2RmZGZjY3Z2\",\"phone\":\"7891945988\",\"otheraddress\":\"\",\"otherlandmark\":\"\",\"otherphone\":\"\",\"varifed\":\"\",\"phone_varified\":\"\",\"type\":1,\"postalCode_id\":\"2\",\"location\":\"YXlhbmE=\",\"country_id\":\"105\",\"fl_admin_id\":\"22\",\"city_id\":\"1\",\"city\":\"a290YQ==\",\"town_id\":\"3\",\"town\":\"YXlhbmE=\",\"fl_admin\":\"UmFqYXN0aGFuCQ==\",\"country\":\"SW5kaWE=\"},\"collection\":[\"3\",\"6\"],\"theme\":[\"19\",\"\"],\"store_policy\":\"ZGZnZGZnZGZnZGZnZGdkZmc=\",\"about_store\":\"ZGZnZGY=\",\"sliderBox\":[],\"website\":\"\",\"categoryBox\":[{\"cid\":\"22\",\"sort\":1},{\"cid\":\"17\",\"sort\":0}],\"policy_store\":\"\",\"slider\":[],\"storeterms\":\"\",\"address_id\":\"\"}","search_data":"Demo store test-mob-store","slug_id":"2044","object_id":"1","object_type":"store","content_slug":"test-mob-store","original_slug":"test-mob-store"}]
August 3, 2019, 11:36 am {"address_id":"58","entity_id":"1","location_id":"10","address":"ZmdkZmdk","landmark":"bGFuZMKgbWFyaw==","phone":"9950449428","otheraddress":"","otherlandmark":"","otherphone":"","varifed":"","phone_varified":"","type":1,"postalCode_id":"4","postalCode":"61241","location":"Q29sb25h","country_id":"234","fl_admin_id":"49","city_id":"10","city":"Q29sb25h","town_id":"","town":"","fl_admin":"IElsbGlub2lzCQ==","country":"VW5pdGVkIFN0YXRlcw=="}
August 3, 2019, 11:38 am [{"entity_id":"2","account_id":"1","type":"0","device_in_use":"0","last_login":"2019-07-26 18:44:13","public_data":"{\"theme\":[\"\",\"\"],\"Name\":\"a2VzaGF2IGdhdXRhbQ==\",\"UserName\":\"keshav\",\"FirstName\":\"a2VzaGF2\",\"LastName\":\"Z2F1dGFt\",\"sex\":\"0\",\"birthday\":\"Jun,19,1992\",\"slug\":\"keshav\",\"profilepicData\":{\"mainimages\":[{\"url\":\"https&colon;&sol;&sol;s3-ap-south-1&period;amazonaws&period;com&sol;wowrol&sol;0&lowbar;92&period;jpeg\",\"key\":\"0&lowbar;92\",\"hash\":\"lpuet2lqmp\",\"name\":\"0&lowbar;92\",\"priviewId\":\"1486546772kagDG71\"}],\"webimages\":[],\"featureimage\":{\"image_id\":\"\",\"url\":\"https&colon;&sol;&sol;s3-ap-south-1&period;amazonaws&period;com&sol;wowrol&sol;0&lowbar;92&period;jpeg\",\"update_hash\":\"\",\"width\":\"400\",\"height\":\"400\",\"time\":\"\",\"filesize\":\"\",\"key\":\"0&lowbar;92\",\"hash\":\"lpuet2lqmp\",\"name\":\"0&lowbar;92\",\"priviewId\":\"1486546772kagDG71\"}},\"bannerData\":{\"mainimages\":[{\"url\":\"https&colon;&sol;&sol;s3-ap-south-1&period;amazonaws&period;com&sol;wowrol&sol;0&lowbar;94&period;jpeg\",\"key\":\"0&lowbar;94\",\"hash\":\"v7i11h6zxy\",\"name\":\"0&lowbar;94&period;jpeg\",\"priviewId\":\"14797441958ezZh33\"}],\"webimages\":[],\"featureimage\":{\"image_id\":\"\",\"url\":\"https&colon;&sol;&sol;s3-ap-south-1&period;amazonaws&period;com&sol;wowrol&sol;0&lowbar;94&period;jpeg\",\"update_hash\":\"\",\"width\":\"400\",\"height\":\"400\",\"time\":\"\",\"filesize\":\"\",\"key\":\"0&lowbar;94\",\"hash\":\"v7i11h6zxy\",\"name\":\"0&lowbar;94&period;jpeg\",\"priviewId\":\"14797441958ezZh33\"}},\"livingPalce\":\"ZnNkZnNkZg==\",\"about\":\"cnR0dHR0dHR0dHR0dHR0dHR0dGRmZ2RmJm5ic3A7ZGZnJm5ic3A7ZGYmbmJzcDtkZmcmbmJzcDtmZGRkZGRkZGRkZGRkZGdkZmdkZmdkZmcmbmJzcDtkZmdkZmdkZmdkZmdmZGdkZmdkZmdkZmdkZmZmZmZmZmZmZmZmZmZnZGZmZmZmZmZmZmZmZmZmZmZnZGZmZmZmZmZmZmZmZmZmZmZmZmZmZmZmZmZmZmZmZmZmZmZmZmZmZmZmZmZmZmZmZmZmZmZmZmZmZmZmZmZmZmZmZmZmZmZmZmZmZmZmZmZmZmZmZmZmZmZmZmZmZmZmZmZmZmZmZmZmZmZmZmZmZmZmZmZmZmZmZmZmZmZmZmZmZmY=\",\"website\":\"cnR5cnR5\",\"avatar\":\"https&colon;&sol;&sol;s3-ap-south-1&period;amazonaws&period;com&sol;wowrol&sol;0&lowbar;92&period;jpeg\",\"banner\":\"https&colon;&sol;&sol;s3-ap-south-1&period;amazonaws&period;com&sol;wowrol&sol;0&lowbar;94&period;jpeg\",\"addressdata\":{\"0\":{\"address_id\":16,\"entity_id\":\"2\",\"location_id\":\"3\",\"address\":\"amFpcHVy\",\"landmark\":\"c2Q=\",\"phone\":\"7891945988\",\"otheraddress\":\"\",\"otherlandmark\":\"\",\"otherphone\":\"\",\"varifed\":\"\",\"phone_varified\":\"\",\"type\":0,\"postalCode_id\":\"2\",\"postalCode\":\"325214\",\"location\":\"YXlhbmE=\",\"country_id\":\"105\",\"fl_admin_id\":\"22\",\"city_id\":\"1\",\"city\":\"a290YQ==\",\"town_id\":\"3\",\"town\":\"YXlhbmE=\",\"fl_admin\":\"UmFqYXN0aGFuCQ==\",\"country\":\"SW5kaWE=\"},\"14\":{\"address_id\":\"14\",\"entity_id\":\"2\",\"location_id\":\"1\",\"address\":\"ZmRnZGZnPGJyPnNkZnNk\",\"landmark\":\"\",\"phone\":\"7891945988\",\"otheraddress\":\"\",\"otherlandmark\":\"\",\"otherphone\":\"\",\"varifed\":\"\",\"phone_varified\":\"\",\"type\":0,\"postalCode_id\":\"1\",\"postalCode\":\"324001\",\"location\":\"a290YQ==\",\"country_id\":\"105\",\"fl_admin_id\":\"22\",\"city_id\":\"1\",\"city\":\"a290YQ==\",\"town_id\":\"\",\"town\":\"\",\"fl_admin\":\"UmFqYXN0aGFuCQ==\",\"country\":\"SW5kaWE=\"},\"17\":{\"address_id\":\"17\",\"entity_id\":\"2\",\"location_id\":\"1\",\"address\":\"aG91c2UmbmJzcDszNCZuYnNwO3NreSZuYnNwO3ZpZXc8YnI+cG9sb2FsdG8mbmJzcDttYXhpbXVt\",\"landmark\":\"\",\"phone\":\"7891945988\",\"otheraddress\":\"\",\"otherlandmark\":\"\",\"otherphone\":\"\",\"varifed\":\"\",\"phone_varified\":\"\",\"type\":0,\"postalCode_id\":\"1\",\"postalCode\":\"324001\",\"location\":\"a290YQ==\",\"country_id\":\"105\",\"fl_admin_id\":\"22\",\"city_id\":\"1\",\"city\":\"a290YQ==\",\"town_id\":\"\",\"town\":\"\",\"fl_admin\":\"UmFqYXN0aGFuCQ==\",\"country\":\"SW5kaWE=\"},\"18\":{\"address_id\":\"18\",\"entity_id\":\"2\",\"location_id\":\"1\",\"address\":\"d3dlcmRmPGJyPnNkZnNkZjxicj5zZGZzZA==\",\"landmark\":\"\",\"phone\":\"7891945988\",\"otheraddress\":\"\",\"otherlandmark\":\"\",\"otherphone\":\"\",\"varifed\":\"\",\"phone_varified\":\"\",\"type\":0,\"postalCode_id\":\"1\",\"postalCode\":\"324001\",\"location\":\"a290YQ==\",\"country_id\":\"105\",\"fl_admin_id\":\"22\",\"city_id\":\"1\",\"city\":\"a290YQ==\",\"town_id\":\"\",\"town\":\"\",\"fl_admin\":\"UmFqYXN0aGFuCQ==\",\"country\":\"SW5kaWE=\"},\"16\":{\"address_id\":\"16\",\"entity_id\":\"2\",\"location_id\":\"3\",\"address\":\"aG91c2XCoE51bWJlcsKgwqAyN8KgPGJyPnBvd2VywqBob3VzZcKgc3RhdGlvbg==\",\"landmark\":\"\",\"phone\":\"7891945988\",\"otheraddress\":\"\",\"otherlandmark\":\"\",\"otherphone\":\"\",\"varifed\":\"\",\"phone_varified\":\"\",\"type\":0,\"postalCode_id\":\"2\",\"postalCode\":\"325214\",\"location\":\"YXlhbmE=\",\"country_id\":\"105\",\"fl_admin_id\":\"22\",\"city_id\":\"1\",\"city\":\"a290YQ==\",\"town_id\":\"3\",\"town\":\"YXlhbmE=\",\"fl_admin\":\"UmFqYXN0aGFuCQ==\",\"country\":\"SW5kaWE=\"},\"38\":{\"address_id\":38,\"entity_id\":\"2\",\"location_id\":\"7\",\"address\":\"cHVsaXlhJm5ic3A7a2UmbmJzcDtwYXNz\",\"landmark\":\"YmFzJm5ic3A7c3RhbmQ=\",\"phone\":\"7891945988\",\"otheraddress\":\"\",\"otherlandmark\":\"\",\"otherphone\":\"\",\"varifed\":\"\",\"phone_varified\":\"\",\"type\":0,\"postalCode_id\":\"2\",\"postalCode\":\"325214\",\"location\":\"THVoYXdhZA==\",\"country_id\":\"105\",\"fl_admin_id\":\"22\",\"city_id\":\"1\",\"city\":\"a290YQ==\",\"town_id\":\"7\",\"town\":\"THVoYXdhZA==\",\"fl_admin\":\"UmFqYXN0aGFuCQ==\",\"country\":\"SW5kaWE=\"}},\"bio\":[],\"profilepic\":\"\",\"banner_id\":\"\",\"Url\":[]}","private_data":"{\"deactivate\":1,\"wallet_id\":0,\"countryinfo_id\":\"105\",\"varified\":1,\"memberSince\":1476860439,\"notification_checktime\":\"1564079294\",\"order_checktime\":1476860439,\"checkin_msg_checktime\":1564079686,\"chat_msg_checktime\":1564080208,\"blocked_entity\":[],\"profile_complete\":{\"profile_pic\":1,\"profile_banner\":1,\"address\":1,\"following_count\":0,\"friend_count\":0,\"favoritestore_count\":3},\"activity_update_server_code\":0,\"privacy_setting\":{\"ip0\":0,\"ip1\":0,\"ip2\":0,\"ip3\":0,\"ip4\":0,\"ip5\":2,\"ip6\":0,\"ip7\":0,\"ip8\":0,\"ip9\":2,\"ip10\":0,\"cp0\":0,\"cp1\":0,\"cp2\":0,\"cp3\":0,\"cp4\":0,\"cp5\":5,\"cp6\":0,\"op0\":0,\"op1\":0},\"notification_setting\":{\"nss0\":1,\"nss1\":1,\"nss2\":1,\"nss3\":0,\"ns0\":0,\"ns1\":0,\"ns2\":0},\"FirstName\":\"a2VzaGF2\",\"LastName\":\"Z2F1dGFt\",\"sex\":\"0\",\"birthday\":\"Jun,19,1991\",\"livingPalce\":\"dfgfd\",\"about\":\"\",\"website\":\"dfg\",\"theme\":[\"\",\"\"],\"profilepic\":\"\",\"avatar\":\"http:\/\/localhost:3325\/assets\/imgs\/pic\/avatar.png\",\"banner_id\":\"\",\"addressdata\":{\"address_id\":\"2\",\"entity_id\":\"2\",\"location_id\":\"1\",\"address\":\"c2Rm\",\"landmark\":\"c2Rm\",\"phone\":\"7891945988\",\"otheraddress\":\"\",\"otherlandmark\":\"\",\"otherphone\":\"\",\"varifed\":\"\",\"phone_varified\":\"\",\"type\":0,\"postalCode_id\":\"1\",\"postalCode\":\"324001\",\"location\":\"a290YQ==\",\"country_id\":\"105\",\"fl_admin_id\":\"22\",\"city_id\":\"1\",\"city\":\"a290YQ==\",\"town_id\":\"\",\"town\":\"\",\"fl_admin\":\"UmFqYXN0aGFuCQ==\",\"country\":\"SW5kaWE=\"},\"AddressHome\":{\"address\":\"\",\"location_id\":\"105005\",\"address_id\":\"\",\"location_name\":\"Jaloda&nbsp;Khatian\",\"Districtname\":\"Kota\",\"Statename\":\"RAJASTHAN\",\"Country\":\"India\",\"pincode\":\"325214\",\"phone\":\"\"},\"AddressWork\":{\"address\":\"\",\"location_id\":\"\",\"address_id\":\"\",\"location_name\":\"\",\"Districtname\":\"\",\"Statename\":\"\",\"Country\":\"\",\"pincode\":\"\",\"phone\":\"\"},\"bio\":[]}","search_data":"keshav gautam keshav gautam keshav","slug_id":"2045","object_id":"2","object_type":"buyer","content_slug":"keshav","original_slug":"keshav"}]
August 6, 2019, 7:29 am [{"entity_id":"1","account_id":"1","type":"1","device_in_use":"0","last_login":"2019-08-03 17:08:35","public_data":"{\"theme\":[\"1\",\"\"],\"Name\":\"RGVtb8Kgc3RvcmU=\",\"slug\":\"test-mob-store\",\"avatar\":\"https&colon;&sol;&sol;i&period;imgur&period;com&sol;OL5KPb4&period;jpg\",\"banner\":\"\",\"profilepicData\":{\"webimages\":[{\"url\":\"https&colon;&sol;&sol;i&period;imgur&period;com&sol;OL5KPb4&period;jpg\",\"key\":\"\",\"hash\":\"\",\"name\":\"\",\"priviewId\":\"1564079515WThC784\"}],\"featureimage\":{\"image_id\":\"\",\"url\":\"https&colon;&sol;&sol;i&period;imgur&period;com&sol;OL5KPb4&period;jpg\",\"update_hash\":\"\",\"width\":\"400\",\"height\":\"400\",\"time\":\"\",\"filesize\":\"\",\"key\":\"\",\"hash\":\"\",\"name\":\"\",\"priviewId\":\"1564079515WThC784\"}},\"bannerData\":{\"featureimage\":{\"image_id\":\"\",\"url\":\"\",\"update_hash\":\"\",\"width\":\"400\",\"height\":\"400\",\"time\":\"\",\"filesize\":\"\"}},\"addressdata\":{\"address_id\":\"58\",\"entity_id\":\"1\",\"location_id\":\"10\",\"address\":\"ZmdkZmdk\",\"landmark\":\"bGFuZMKgbWFyaw==\",\"phone\":\"9950449428\",\"otheraddress\":\"\",\"otherlandmark\":\"\",\"otherphone\":\"\",\"varifed\":\"\",\"phone_varified\":\"\",\"type\":1,\"postalCode_id\":\"4\",\"postalCode\":\"61241\",\"location\":\"Q29sb25h\",\"country_id\":\"234\",\"fl_admin_id\":\"49\",\"city_id\":\"10\",\"city\":\"Q29sb25h\",\"town_id\":\"\",\"town\":\"\",\"fl_admin\":\"IElsbGlub2lzCQ==\",\"country\":\"VW5pdGVkIFN0YXRlcw==\"},\"collection\":[\"1\",\"4\",\"5\",\"6\",\"7\"],\"collection_data\":[{\"id\":\"1\",\"name\":\"Daily&nbsp;Needs\",\"slug\":\"daily-needs-collection\"},{\"id\":\"4\",\"name\":\"Real-Estate\",\"slug\":\"real-estate-collection\"},{\"id\":\"5\",\"name\":\"industry&nbsp;supply\",\"slug\":\"industry-supply-collection\"},{\"id\":\"6\",\"name\":\"Furniture\",\"slug\":\"furniture-collection\"},{\"id\":\"7\",\"name\":\"Electronics\",\"slug\":\"electronics-collection\"}],\"store_policy\":\"c3RvcmUmbG93YmFyO3BvbGljeXN0b3JlJmxvd2Jhcjtwb2xpY3lzdG9yZSZsb3diYXI7cG9saWN5c3RvcmUmbG93YmFyO3BvbGljeXN0b3JlJmxvd2Jhcjtwb2xpY3lzdG9yZSZsb3diYXI7cG9saWN5c3RvcmUmbG93YmFyO3BvbGljeXN0b3JlJmxvd2Jhcjtwb2xpY3lzdG9yZSZsb3diYXI7cG9saWN5c3RvcmUmbG93YmFyO3BvbGljeXN0b3JlJmxvd2Jhcjtwb2xpY3lzdG9yZSZsb3diYXI7cG9saWN5c3RvcmUmbG93YmFyO3BvbGljeXN0b3JlJmxvd2Jhcjtwb2xpY3lzdG9yZSZsb3diYXI7cG9saWN5c3RvcmUmbG93YmFyO3BvbGljeXN0b3JlJmxvd2Jhcjtwb2xpY3lzdG9yZSZsb3diYXI7cG9saWN5c3RvcmUmbG93YmFyO3BvbGljeXN0b3JlJmxvd2Jhcjtwb2xpY3lzdG9yZSZsb3diYXI7cG9saQ==\",\"about_store\":\"c2FkYWFhYWFhYWFhYWFhYWFhYWFhYWFhYWFhYWFhYWFhYWFhYWFhYWFhYWFhYWFhYWFhYWFhYWFhYWFhYWFhYWFhYWFhYWFhYWFhYWFhYWFhYWFhYWFhYWFhYWFhYWFhYWFhYWFhYWFhYWFhYWFhYWFhYWFhYWFhYWFhYWFhYWFhYWFhYWFhYWFhYWFhYWFhYWFhYWFhYWFhYWFhYWFhYWFhYWFhYWFhYWFhYWFhYWFhYWFhYWFhYWFhYWFhYWFhYWFhYWFhYWFhYWFhYWFhYWFhYWFhYWFhYWFhYWFhYWFhYWFhYWFhYWFhYWFhYWFhYWFhYWFhYWFhYQ==\",\"sliderBox\":[{\"webimages\":[{\"url\":\"https&colon;&sol;&sol;www&period;f-cdn&period;com&sol;assets&sol;css&sol;images&sol;homepage&sol;bg-architecture-2x-cd1a1d20&period;jpg\",\"key\":\"\",\"hash\":\"\",\"name\":\"\",\"priviewId\":\"14911985620fx8761\"}],\"linkto\":{\"id\":\"0&lowbar;15\",\"mid\":\"15\",\"name\":\"Cameras &amp; Accessories\",\"slug\":\"cameras-accessories-category\",\"type\":\"0\",\"saveingId\":\"suggestion&period;1491200377H1BDZ72\"}},{\"webimages\":[{\"url\":\"http&colon;&sol;&sol;i&period;imgur&period;com&sol;4sX8V8U&period;jpg\",\"key\":\"\",\"hash\":\"\",\"name\":\"\",\"priviewId\":\"1480961508ARHV682\"}],\"linkto\":{\"id\":\"0&lowbar;22\",\"mid\":\"22\",\"name\":\"Men\",\"slug\":\"men-category\",\"type\":\"0\",\"saveingId\":\"suggestion&period;1480961521wuBSD94\"}},{\"webimages\":[{\"url\":\"https&colon;&sol;&sol;www&period;f-cdn&period;com&sol;assets&sol;css&sol;images&sol;homepage&sol;bg-app-2x-c16b1159&period;jpg\",\"key\":\"\",\"hash\":\"\",\"name\":\"\",\"priviewId\":\"1491200064RXxiD66\"}],\"linkto\":{\"id\":\"0&lowbar;15\",\"mid\":\"15\",\"name\":\"Cameras &amp; Accessories\",\"slug\":\"cameras-accessories-category\",\"type\":\"0\",\"saveingId\":\"suggestion&period;1491200066nHHrR74\"}}],\"website\":\"d293cm9sJnBlcmlvZDtjb20=\",\"categoryBox\":[{\"cid\":\"12\",\"sort\":0},{\"cid\":\"6\",\"sort\":0},{\"cid\":\"40\",\"sort\":0},{\"cid\":\"22\",\"sort\":0}],\"profilepic\":[],\"policy_store\":\"\"}","private_data":"{\"notification_setting\":{\"nss0\":1,\"nss1\":0,\"nss2\":1,\"nss3\":0,\"ns0\":0,\"ns1\":0,\"ns2\":0},\"notification_checktime\":1563873628,\"order_checktime\":1476820645,\"checkin_msg_checktime\":1564080317,\"chat_msg_checktime\":1564080218,\"default_category\":{\"cN\":\"dfdfgdfg\",\"pa\":{\"cid\":\"\",\"cN\":\"\"},\"description\":\"\",\"cid\":\"71\",\"sid\":\"347\"},\"deactivate\":\"0\",\"wallet_id\":0,\"minimum_order\":\"2000\",\"activity_update_server_code\":0,\"memberSince\":1476820645,\"blocked_entity\":[],\"price_range\":{\"min\":\"0\",\"max\":\"200\"},\"feedback_spreadId\":191,\"privacy_setting\":{\"ip0\":0,\"ip1\":0,\"ip2\":0,\"ip3\":0,\"ip4\":0,\"ip5\":0,\"ip6\":0,\"ip7\":0,\"ip8\":0,\"ip9\":0,\"ip10\":0,\"cp0\":0,\"cp1\":0,\"cp2\":0,\"cp3\":0,\"cp4\":0,\"cp5\":0,\"cp6\":0,\"op0\":0,\"op1\":0},\"profile_complete\":{\"profile_pic\":1,\"slider\":1,\"address\":1,\"collection\":1,\"product_count\":28,\"category_count\":41,\"favoriter_count\":2,\"menu_set\":1},\"ratting\":0,\"staffHash\":\"\",\"staffloginattemp\":5,\"stafflogin_block_time\":0,\"staffloginblock\":0,\"nextOrderCount\":0,\"varified\":1,\"shippingZonecountry\":\"105\",\"countryinfo_id\":105,\"shippingZonetype\":\"1\",\"currency\":\"INR\",\"unitsystem\":\"metric\",\"weightunit\":\"kg\",\"return_policy\":\"1\",\"store_menu_table_code\":0,\"avatar\":\"\",\"profilepic\":[],\"addressdata\":{\"address_id\":\"1\",\"entity_id\":\"1\",\"location_id\":\"3\",\"address\":\"YXNkYXNkYXMmbmJzcDthc2QmbmJzcDthc2Rhc2Rhc2Rhc2R0eXNkZnNkZnNkZiZuYnNwO3NkZnNkPGJyPmRmZ2RmZ2RmZ2RmZ2RmZ2Rmc2RzZDxicj5kZmdkZmdkZmdzY2N2PGJyPmRmZ2RmZ2prJm5ic3A7ZmdoZmdzZGZmZyZuYnNwO3J0Zmc=\",\"landmark\":\"c2RmZGZjY3Z2\",\"phone\":\"7891945988\",\"otheraddress\":\"\",\"otherlandmark\":\"\",\"otherphone\":\"\",\"varifed\":\"\",\"phone_varified\":\"\",\"type\":1,\"postalCode_id\":\"2\",\"location\":\"YXlhbmE=\",\"country_id\":\"105\",\"fl_admin_id\":\"22\",\"city_id\":\"1\",\"city\":\"a290YQ==\",\"town_id\":\"3\",\"town\":\"YXlhbmE=\",\"fl_admin\":\"UmFqYXN0aGFuCQ==\",\"country\":\"SW5kaWE=\"},\"collection\":[\"3\",\"6\"],\"theme\":[\"19\",\"\"],\"store_policy\":\"ZGZnZGZnZGZnZGZnZGdkZmc=\",\"about_store\":\"ZGZnZGY=\",\"sliderBox\":[],\"website\":\"\",\"categoryBox\":[{\"cid\":\"22\",\"sort\":1},{\"cid\":\"17\",\"sort\":0}],\"policy_store\":\"\",\"slider\":[],\"storeterms\":\"\",\"address_id\":\"\"}","search_data":"Demo store test-mob-store","slug_id":"2044","object_id":"1","object_type":"store","content_slug":"test-mob-store","original_slug":"test-mob-store"}]
August 6, 2019, 6:45 pm {"address_id":"58","entity_id":"1","location_id":"10","address":"ZmdkZmdk","landmark":"bGFuZMKgbWFyaw==","phone":"9950449428","otheraddress":"","otherlandmark":"","otherphone":"","varifed":"","phone_varified":"","type":1,"postalCode_id":"4","postalCode":"61241","location":"Q29sb25h","country_id":"234","fl_admin_id":"49","city_id":"10","city":"Q29sb25h","town_id":"","town":"","fl_admin":"IElsbGlub2lzCQ==","country":"VW5pdGVkIFN0YXRlcw=="}
August 10, 2019, 1:06 pm {"address_id":"58","entity_id":"1","location_id":"10","address":"ZmdkZmdk","landmark":"bGFuZMKgbWFyaw==","phone":"9950449428","otheraddress":"","otherlandmark":"","otherphone":"","varifed":"","phone_varified":"","type":1,"postalCode_id":"4","postalCode":"61241","location":"Q29sb25h","country_id":"234","fl_admin_id":"49","city_id":"10","city":"Q29sb25h","town_id":"","town":"","fl_admin":"IElsbGlub2lzCQ==","country":"VW5pdGVkIFN0YXRlcw=="}
August 10, 2019, 1:07 pm {"address_id":"58","entity_id":"1","location_id":"10","address":"ZmdkZmdk","landmark":"bGFuZMKgbWFyaw==","phone":"9950449428","otheraddress":"","otherlandmark":"","otherphone":"","varifed":"","phone_varified":"","type":1,"postalCode_id":"4","postalCode":"61241","location":"Q29sb25h","country_id":"234","fl_admin_id":"49","city_id":"10","city":"Q29sb25h","town_id":"","town":"","fl_admin":"IElsbGlub2lzCQ==","country":"VW5pdGVkIFN0YXRlcw=="}
August 10, 2019, 1:12 pm {"address_id":"58","entity_id":"1","location_id":"10","address":"ZmdkZmdk","landmark":"bGFuZMKgbWFyaw==","phone":"9950449428","otheraddress":"","otherlandmark":"","otherphone":"","varifed":"","phone_varified":"","type":1,"postalCode_id":"4","postalCode":"61241","location":"Q29sb25h","country_id":"234","fl_admin_id":"49","city_id":"10","city":"Q29sb25h","town_id":"","town":"","fl_admin":"IElsbGlub2lzCQ==","country":"VW5pdGVkIFN0YXRlcw=="}
August 10, 2019, 1:12 pm {"address_id":"58","entity_id":"1","location_id":"10","address":"ZmdkZmdk","landmark":"bGFuZMKgbWFyaw==","phone":"9950449428","otheraddress":"","otherlandmark":"","otherphone":"","varifed":"","phone_varified":"","type":1,"postalCode_id":"4","postalCode":"61241","location":"Q29sb25h","country_id":"234","fl_admin_id":"49","city_id":"10","city":"Q29sb25h","town_id":"","town":"","fl_admin":"IElsbGlub2lzCQ==","country":"VW5pdGVkIFN0YXRlcw=="}
August 10, 2019, 1:12 pm {"address_id":"58","entity_id":"1","location_id":"10","address":"ZmdkZmdk","landmark":"bGFuZMKgbWFyaw==","phone":"9950449428","otheraddress":"","otherlandmark":"","otherphone":"","varifed":"","phone_varified":"","type":1,"postalCode_id":"4","postalCode":"61241","location":"Q29sb25h","country_id":"234","fl_admin_id":"49","city_id":"10","city":"Q29sb25h","town_id":"","town":"","fl_admin":"IElsbGlub2lzCQ==","country":"VW5pdGVkIFN0YXRlcw=="}
August 12, 2019, 7:18 pm [{"entity_id":"7","account_id":"1","type":"0","device_in_use":"0","last_login":"2017-04-01 20:03:27","public_data":"{\"theme\":[\"\",\"\"],\"Name\":\"ZGVwaWthIHNoYXJtYQ==\",\"UserName\":\"keshavd\",\"FirstName\":\"\",\"LastName\":\"\",\"sex\":\"0\",\"birthday\":\"\",\"slug\":\"keshavd\",\"profilepicData\":{\"webimages\":[{\"url\":\"https&colon;&sol;&sol;www&period;google&period;co&period;in&sol;images&sol;branding&sol;googlelogo&sol;2x&sol;googlelogo&lowbar;color&lowbar;272x92dp&period;png\",\"key\":\"\",\"hash\":\"\",\"name\":\"\",\"priviewId\":\"1486547005ebQdq154\"}],\"featureimage\":{\"image_id\":\"\",\"url\":\"https&colon;&sol;&sol;www&period;google&period;co&period;in&sol;images&sol;branding&sol;googlelogo&sol;2x&sol;googlelogo&lowbar;color&lowbar;272x92dp&period;png\",\"update_hash\":\"\",\"time\":\"\",\"filesize\":\"\",\"key\":\"\",\"hash\":\"\",\"name\":\"\",\"priviewId\":\"1486547005ebQdq154\"}},\"bannerData\":{\"webimages\":[{\"url\":\"http&colon;&sol;&sol;www&period;trendycovers&period;com&sol;covers&sol;hello&lowbar;june&lowbar;facebook&lowbar;cover&lowbar;1464666892&period;jpg\",\"key\":\"\",\"hash\":\"\",\"name\":\"\",\"priviewId\":\"148654714294u5M50\"}],\"featureimage\":{\"image_id\":\"\",\"url\":\"http&colon;&sol;&sol;www&period;trendycovers&period;com&sol;covers&sol;hello&lowbar;june&lowbar;facebook&lowbar;cover&lowbar;1464666892&period;jpg\",\"update_hash\":\"\",\"time\":\"\",\"filesize\":\"\",\"key\":\"\",\"hash\":\"\",\"name\":\"\",\"priviewId\":\"148654714294u5M50\"}},\"livingPalce\":\"\",\"about\":\"\",\"website\":\"\",\"avatar\":\"https&colon;&sol;&sol;www&period;google&period;co&period;in&sol;images&sol;branding&sol;googlelogo&sol;2x&sol;googlelogo&lowbar;color&lowbar;272x92dp&period;png\",\"banner\":\"http&colon;&sol;&sol;www&period;trendycovers&period;com&sol;covers&sol;hello&lowbar;june&lowbar;facebook&lowbar;cover&lowbar;1464666892&period;jpg\",\"addressdata\":{\"0\":{\"address_id\":0,\"entity_id\":\"\",\"location_id\":\"\",\"address\":\"\",\"landmark\":\"\",\"phone\":\"\",\"otheraddress\":\"\",\"otherlandmark\":\"\",\"otherphone\":\"\",\"varifed\":\"\",\"phone_varified\":\"\",\"type\":0,\"postalCode_id\":\"\",\"postalCode\":\"\",\"location\":\"\",\"country_id\":\"\",\"fl_admin_id\":\"\",\"city_id\":\"\",\"city\":\"\",\"town_id\":\"\",\"town\":\"\",\"fl_admin\":\"\",\"country\":\"\"},\"60\":{\"address_id\":60,\"entity_id\":\"7\",\"location_id\":\"1\",\"address\":\"bGtqa2w=\",\"landmark\":\"a2w=\",\"phone\":\"7891945988\",\"otheraddress\":\"\",\"otherlandmark\":\"\",\"otherphone\":\"\",\"varifed\":\"\",\"phone_varified\":\"\",\"type\":0,\"postalCode_id\":\"1\",\"postalCode\":\"324001\",\"location\":\"a290YQ==\",\"country_id\":\"105\",\"fl_admin_id\":\"22\",\"city_id\":\"1\",\"city\":\"a290YQ==\",\"town_id\":\"\",\"town\":\"\",\"fl_admin\":\"UmFqYXN0aGFuCQ==\",\"country\":\"SW5kaWE=\"},\"61\":{\"address_id\":\"61\",\"entity_id\":\"7\",\"location_id\":\"1\",\"address\":\"c2Rmcw==\",\"landmark\":\"\",\"phone\":\"9950443495\",\"otheraddress\":\"\",\"otherlandmark\":\"\",\"otherphone\":\"\",\"varifed\":\"\",\"phone_varified\":\"\",\"type\":0,\"postalCode_id\":\"1\",\"postalCode\":\"324001\",\"location\":\"a290YQ==\",\"country_id\":\"105\",\"fl_admin_id\":\"22\",\"city_id\":\"1\",\"city\":\"a290YQ==\",\"town_id\":\"\",\"town\":\"\",\"fl_admin\":\"UmFqYXN0aGFuCQ==\",\"country\":\"SW5kaWE=\"},\"62\":{\"address_id\":62,\"entity_id\":\"7\",\"location_id\":\"1\",\"address\":\"c2Rmcw==\",\"landmark\":\"c2Rm\",\"phone\":\"7891945988\",\"otheraddress\":\"\",\"otherlandmark\":\"\",\"otherphone\":\"\",\"varifed\":\"\",\"phone_varified\":\"\",\"type\":0,\"postalCode_id\":\"1\",\"postalCode\":\"324001\",\"location\":\"a290YQ==\",\"country_id\":\"105\",\"fl_admin_id\":\"22\",\"city_id\":\"1\",\"city\":\"a290YQ==\",\"town_id\":\"\",\"town\":\"\",\"fl_admin\":\"UmFqYXN0aGFuCQ==\",\"country\":\"SW5kaWE=\"}},\"bio\":[],\"Url\":[],\"entity_id\":\"\"}","private_data":"{\"deactivate\":\"0\",\"wallet_id\":0,\"countryinfo_id\":\"105\",\"varified\":1,\"memberSince\":1483807658,\"notification_checktime\":\"1478848847\",\"order_checktime\":1483807658,\"checkin_msg_checktime\":1483807658,\"chat_msg_checktime\":1491053514,\"blocked_entity\":[],\"profile_complete\":{\"profile_pic\":1,\"profile_banner\":1,\"address\":1,\"following_count\":0,\"friend_count\":0,\"favoritestore_count\":0},\"activity_update_server_code\":0,\"privacy_setting\":{\"ip0\":0,\"ip1\":0,\"ip2\":0,\"ip3\":0,\"ip4\":0,\"ip5\":0,\"ip6\":0,\"ip7\":0,\"ip8\":0,\"ip9\":0,\"ip10\":0,\"cp0\":0,\"cp1\":0,\"cp2\":0,\"cp3\":0,\"cp4\":0,\"cp5\":0,\"cp6\":0,\"op0\":0,\"op1\":0},\"notification_setting\":{\"nss0\":1,\"nss1\":1,\"nss2\":1,\"nss3\":1},\"birthday\":\"Jun,16,1989\",\"profilepic\":\"\",\"avatar\":\"http:\/\/localhost:3325\/assets\/imgs\/pic\/avatar.png\",\"banner_id\":\"\",\"AddressHome\":{\"address\":\"\",\"loaction_id\":\"\",\"location_name\":\"\",\"Districtname\":\"\",\"Statename\":\"\",\"Country\":\"\",\"pincode\":\"\",\"phone\":\"\"},\"AddressWork\":{\"address\":\"\",\"loaction_id\":\"\",\"location_name\":\"\",\"Districtname\":\"\",\"Statename\":\"\",\"Country\":\"\",\"pincode\":\"\",\"phone\":\"\"},\"memberSience\":\"2016-05-01&nbsp;18:45:25&nbsp;&nbsp;\",\"bio\":[],\"sex\":\"1\",\"FirstName\":\"ZGVwaWth\",\"LastName\":\"c2hhcm1h\"}","search_data":"depika sharma depika keshavd","slug_id":"2069","object_id":"7","object_type":"buyer","content_slug":"keshavd","original_slug":"keshavd"}]
August 22, 2019, 2:58 pm [{"entity_id":"1","account_id":"1","type":"1","device_in_use":"0","last_login":"2019-08-13 02:01:03","public_data":"{\"theme\":[\"1\",\"\"],\"Name\":\"RGVtb8Kgc3RvcmU=\",\"slug\":\"test-mob-store\",\"avatar\":\"https&colon;&sol;&sol;i&period;imgur&period;com&sol;OL5KPb4&period;jpg\",\"banner\":\"\",\"profilepicData\":{\"webimages\":[{\"url\":\"https&colon;&sol;&sol;i&period;imgur&period;com&sol;OL5KPb4&period;jpg\",\"key\":\"\",\"hash\":\"\",\"name\":\"\",\"priviewId\":\"1564079515WThC784\"}],\"featureimage\":{\"image_id\":\"\",\"url\":\"https&colon;&sol;&sol;i&period;imgur&period;com&sol;OL5KPb4&period;jpg\",\"update_hash\":\"\",\"width\":\"400\",\"height\":\"400\",\"time\":\"\",\"filesize\":\"\",\"key\":\"\",\"hash\":\"\",\"name\":\"\",\"priviewId\":\"1564079515WThC784\"}},\"bannerData\":{\"featureimage\":{\"image_id\":\"\",\"url\":\"\",\"update_hash\":\"\",\"width\":\"400\",\"height\":\"400\",\"time\":\"\",\"filesize\":\"\"}},\"addressdata\":{\"address_id\":\"58\",\"entity_id\":\"1\",\"location_id\":\"10\",\"address\":\"ZmdkZmdk\",\"landmark\":\"bGFuZMKgbWFyaw==\",\"phone\":\"9950449428\",\"otheraddress\":\"\",\"otherlandmark\":\"\",\"otherphone\":\"\",\"varifed\":\"\",\"phone_varified\":\"\",\"type\":1,\"postalCode_id\":\"4\",\"postalCode\":\"61241\",\"location\":\"Q29sb25h\",\"country_id\":\"234\",\"fl_admin_id\":\"49\",\"city_id\":\"10\",\"city\":\"Q29sb25h\",\"town_id\":\"\",\"town\":\"\",\"fl_admin\":\"IElsbGlub2lzCQ==\",\"country\":\"VW5pdGVkIFN0YXRlcw==\"},\"collection\":[\"1\",\"4\",\"5\",\"6\",\"7\"],\"collection_data\":[{\"id\":\"1\",\"name\":\"Daily&nbsp;Needs\",\"slug\":\"daily-needs-collection\"},{\"id\":\"4\",\"name\":\"Real-Estate\",\"slug\":\"real-estate-collection\"},{\"id\":\"5\",\"name\":\"industry&nbsp;supply\",\"slug\":\"industry-supply-collection\"},{\"id\":\"6\",\"name\":\"Furniture\",\"slug\":\"furniture-collection\"},{\"id\":\"7\",\"name\":\"Electronics\",\"slug\":\"electronics-collection\"}],\"store_policy\":\"c3RvcmUmbG93YmFyO3BvbGljeXN0b3JlJmxvd2Jhcjtwb2xpY3lzdG9yZSZsb3diYXI7cG9saWN5c3RvcmUmbG93YmFyO3BvbGljeXN0b3JlJmxvd2Jhcjtwb2xpY3lzdG9yZSZsb3diYXI7cG9saWN5c3RvcmUmbG93YmFyO3BvbGljeXN0b3JlJmxvd2Jhcjtwb2xpY3lzdG9yZSZsb3diYXI7cG9saWN5c3RvcmUmbG93YmFyO3BvbGljeXN0b3JlJmxvd2Jhcjtwb2xpY3lzdG9yZSZsb3diYXI7cG9saWN5c3RvcmUmbG93YmFyO3BvbGljeXN0b3JlJmxvd2Jhcjtwb2xpY3lzdG9yZSZsb3diYXI7cG9saWN5c3RvcmUmbG93YmFyO3BvbGljeXN0b3JlJmxvd2Jhcjtwb2xpY3lzdG9yZSZsb3diYXI7cG9saWN5c3RvcmUmbG93YmFyO3BvbGljeXN0b3JlJmxvd2Jhcjtwb2xpY3lzdG9yZSZsb3diYXI7cG9saQ==\",\"about_store\":\"c2FkYWFhYWFhYWFhYWFhYWFhYWFhYWFhYWFhYWFhYWFhYWFhYWFhYWFhYWFhYWFhYWFhYWFhYWFhYWFhYWFhYWFhYWFhYWFhYWFhYWFhYWFhYWFhYWFhYWFhYWFhYWFhYWFhYWFhYWFhYWFhYWFhYWFhYWFhYWFhYWFhYWFhYWFhYWFhYWFhYWFhYWFhYWFhYWFhYWFhYWFhYWFhYWFhYWFhYWFhYWFhYWFhYWFhYWFhYWFhYWFhYWFhYWFhYWFhYWFhYWFhYWFhYWFhYWFhYWFhYWFhYWFhYWFhYWFhYWFhYWFhYWFhYWFhYWFhYWFhYWFhYWFhYWFhYQ==\",\"sliderBox\":[{\"webimages\":[{\"url\":\"https&colon;&sol;&sol;www&period;f-cdn&period;com&sol;assets&sol;css&sol;images&sol;homepage&sol;bg-architecture-2x-cd1a1d20&period;jpg\",\"key\":\"\",\"hash\":\"\",\"name\":\"\",\"priviewId\":\"14911985620fx8761\"}],\"linkto\":{\"id\":\"0&lowbar;15\",\"mid\":\"15\",\"name\":\"Cameras &amp; Accessories\",\"slug\":\"cameras-accessories-category\",\"type\":\"0\",\"saveingId\":\"suggestion&period;1491200377H1BDZ72\"}},{\"webimages\":[{\"url\":\"http&colon;&sol;&sol;i&period;imgur&period;com&sol;4sX8V8U&period;jpg\",\"key\":\"\",\"hash\":\"\",\"name\":\"\",\"priviewId\":\"1480961508ARHV682\"}],\"linkto\":{\"id\":\"0&lowbar;22\",\"mid\":\"22\",\"name\":\"Men\",\"slug\":\"men-category\",\"type\":\"0\",\"saveingId\":\"suggestion&period;1480961521wuBSD94\"}},{\"webimages\":[{\"url\":\"https&colon;&sol;&sol;www&period;f-cdn&period;com&sol;assets&sol;css&sol;images&sol;homepage&sol;bg-app-2x-c16b1159&period;jpg\",\"key\":\"\",\"hash\":\"\",\"name\":\"\",\"priviewId\":\"1491200064RXxiD66\"}],\"linkto\":{\"id\":\"0&lowbar;15\",\"mid\":\"15\",\"name\":\"Cameras &amp; Accessories\",\"slug\":\"cameras-accessories-category\",\"type\":\"0\",\"saveingId\":\"suggestion&period;1491200066nHHrR74\"}}],\"website\":\"d293cm9sJnBlcmlvZDtjb20=\",\"categoryBox\":[{\"cid\":\"12\",\"sort\":1},{\"cid\":\"40\",\"sort\":0},{\"cid\":\"22\",\"sort\":2}],\"profilepic\":[],\"policy_store\":\"\"}","private_data":"{\"notification_setting\":{\"nss0\":1,\"nss1\":0,\"nss2\":1,\"nss3\":0,\"ns0\":0,\"ns1\":0,\"ns2\":0},\"notification_checktime\":1565097344,\"order_checktime\":1476820645,\"checkin_msg_checktime\":1565422935,\"chat_msg_checktime\":1564080218,\"default_category\":{\"cN\":\"dfdfgdfg\",\"pa\":{\"cid\":\"\",\"cN\":\"\"},\"description\":\"\",\"cid\":\"71\",\"sid\":\"347\"},\"deactivate\":\"0\",\"wallet_id\":0,\"minimum_order\":\"2000\",\"activity_update_server_code\":0,\"memberSince\":1476820645,\"blocked_entity\":[],\"price_range\":{\"min\":\"0\",\"max\":\"200\"},\"feedback_spreadId\":191,\"privacy_setting\":{\"ip0\":0,\"ip1\":0,\"ip2\":0,\"ip3\":0,\"ip4\":0,\"ip5\":0,\"ip6\":0,\"ip7\":0,\"ip8\":0,\"ip9\":0,\"ip10\":0,\"cp0\":0,\"cp1\":0,\"cp2\":0,\"cp3\":0,\"cp4\":0,\"cp5\":0,\"cp6\":0,\"op0\":0,\"op1\":0},\"profile_complete\":{\"profile_pic\":1,\"slider\":1,\"address\":1,\"collection\":1,\"product_count\":28,\"category_count\":41,\"favoriter_count\":2,\"menu_set\":1},\"ratting\":0,\"staffHash\":\"\",\"staffloginattemp\":5,\"stafflogin_block_time\":0,\"staffloginblock\":0,\"nextOrderCount\":0,\"varified\":1,\"shippingZonecountry\":\"105\",\"countryinfo_id\":105,\"shippingZonetype\":\"1\",\"currency\":\"INR\",\"unitsystem\":\"metric\",\"weightunit\":\"kg\",\"return_policy\":\"1\",\"store_menu_table_code\":0,\"avatar\":\"\",\"profilepic\":[],\"addressdata\":{\"address_id\":\"1\",\"entity_id\":\"1\",\"location_id\":\"3\",\"address\":\"YXNkYXNkYXMmbmJzcDthc2QmbmJzcDthc2Rhc2Rhc2Rhc2R0eXNkZnNkZnNkZiZuYnNwO3NkZnNkPGJyPmRmZ2RmZ2RmZ2RmZ2RmZ2Rmc2RzZDxicj5kZmdkZmdkZmdzY2N2PGJyPmRmZ2RmZ2prJm5ic3A7ZmdoZmdzZGZmZyZuYnNwO3J0Zmc=\",\"landmark\":\"c2RmZGZjY3Z2\",\"phone\":\"7891945988\",\"otheraddress\":\"\",\"otherlandmark\":\"\",\"otherphone\":\"\",\"varifed\":\"\",\"phone_varified\":\"\",\"type\":1,\"postalCode_id\":\"2\",\"location\":\"YXlhbmE=\",\"country_id\":\"105\",\"fl_admin_id\":\"22\",\"city_id\":\"1\",\"city\":\"a290YQ==\",\"town_id\":\"3\",\"town\":\"YXlhbmE=\",\"fl_admin\":\"UmFqYXN0aGFuCQ==\",\"country\":\"SW5kaWE=\"},\"collection\":[\"3\",\"6\"],\"theme\":[\"19\",\"\"],\"store_policy\":\"ZGZnZGZnZGZnZGZnZGdkZmc=\",\"about_store\":\"ZGZnZGY=\",\"sliderBox\":[],\"website\":\"\",\"categoryBox\":[{\"cid\":\"22\",\"sort\":1},{\"cid\":\"17\",\"sort\":0}],\"policy_store\":\"\",\"slider\":[],\"storeterms\":\"\",\"address_id\":\"\"}","search_data":"Demo store test-mob-store","slug_id":"2044","object_id":"1","object_type":"store","content_slug":"test-mob-store","original_slug":"test-mob-store"}]
August 22, 2019, 3:01 pm [{"entity_id":"2","account_id":"1","type":"0","device_in_use":"0","last_login":"2019-08-06 12:59:51","public_data":"{\"theme\":[\"\",\"\"],\"Name\":\"a2VzaGF2IGdhdXRhbQ==\",\"UserName\":\"keshav\",\"FirstName\":\"a2VzaGF2\",\"LastName\":\"Z2F1dGFt\",\"sex\":\"0\",\"birthday\":\"Jun,19,1992\",\"slug\":\"keshav\",\"profilepicData\":{\"mainimages\":[{\"url\":\"https&colon;&sol;&sol;s3-ap-south-1&period;amazonaws&period;com&sol;wowrol&sol;0&lowbar;92&period;jpeg\",\"key\":\"0&lowbar;92\",\"hash\":\"lpuet2lqmp\",\"name\":\"0&lowbar;92\",\"priviewId\":\"1486546772kagDG71\"}],\"webimages\":[],\"featureimage\":{\"image_id\":\"\",\"url\":\"https&colon;&sol;&sol;s3-ap-south-1&period;amazonaws&period;com&sol;wowrol&sol;0&lowbar;92&period;jpeg\",\"update_hash\":\"\",\"width\":\"400\",\"height\":\"400\",\"time\":\"\",\"filesize\":\"\",\"key\":\"0&lowbar;92\",\"hash\":\"lpuet2lqmp\",\"name\":\"0&lowbar;92\",\"priviewId\":\"1486546772kagDG71\"}},\"bannerData\":{\"mainimages\":[{\"url\":\"https&colon;&sol;&sol;s3-ap-south-1&period;amazonaws&period;com&sol;wowrol&sol;0&lowbar;94&period;jpeg\",\"key\":\"0&lowbar;94\",\"hash\":\"v7i11h6zxy\",\"name\":\"0&lowbar;94&period;jpeg\",\"priviewId\":\"14797441958ezZh33\"}],\"webimages\":[],\"featureimage\":{\"image_id\":\"\",\"url\":\"https&colon;&sol;&sol;s3-ap-south-1&period;amazonaws&period;com&sol;wowrol&sol;0&lowbar;94&period;jpeg\",\"update_hash\":\"\",\"width\":\"400\",\"height\":\"400\",\"time\":\"\",\"filesize\":\"\",\"key\":\"0&lowbar;94\",\"hash\":\"v7i11h6zxy\",\"name\":\"0&lowbar;94&period;jpeg\",\"priviewId\":\"14797441958ezZh33\"}},\"livingPalce\":\"ZnNkZnNkZg==\",\"about\":\"cnR0dHR0dHR0dHR0dHR0dHR0dGRmZ2RmJm5ic3A7ZGZnJm5ic3A7ZGYmbmJzcDtkZmcmbmJzcDtmZGRkZGRkZGRkZGRkZGdkZmdkZmdkZmcmbmJzcDtkZmdkZmdkZmdkZmdmZGdkZmdkZmdkZmdkZmZmZmZmZmZmZmZmZmZnZGZmZmZmZmZmZmZmZmZmZmZnZGZmZmZmZmZmZmZmZmZmZmZmZmZmZmZmZmZmZmZmZmZmZmZmZmZmZmZmZmZmZmZmZmZmZmZmZmZmZmZmZmZmZmZmZmZmZmZmZmZmZmZmZmZmZmZmZmZmZmZmZmZmZmZmZmZmZmZmZmZmZmZmZmZmZmZmZmZmZmZmZmZmZmZmZmZmZmY=\",\"website\":\"cnR5cnR5\",\"avatar\":\"https&colon;&sol;&sol;s3-ap-south-1&period;amazonaws&period;com&sol;wowrol&sol;0&lowbar;92&period;jpeg\",\"banner\":\"https&colon;&sol;&sol;s3-ap-south-1&period;amazonaws&period;com&sol;wowrol&sol;0&lowbar;94&period;jpeg\",\"addressdata\":{\"0\":{\"address_id\":16,\"entity_id\":\"2\",\"location_id\":\"3\",\"address\":\"amFpcHVy\",\"landmark\":\"c2Q=\",\"phone\":\"7891945988\",\"otheraddress\":\"\",\"otherlandmark\":\"\",\"otherphone\":\"\",\"varifed\":\"\",\"phone_varified\":\"\",\"type\":0,\"postalCode_id\":\"2\",\"postalCode\":\"325214\",\"location\":\"YXlhbmE=\",\"country_id\":\"105\",\"fl_admin_id\":\"22\",\"city_id\":\"1\",\"city\":\"a290YQ==\",\"town_id\":\"3\",\"town\":\"YXlhbmE=\",\"fl_admin\":\"UmFqYXN0aGFuCQ==\",\"country\":\"SW5kaWE=\"},\"14\":{\"address_id\":\"14\",\"entity_id\":\"2\",\"location_id\":\"1\",\"address\":\"ZmRnZGZnPGJyPnNkZnNk\",\"landmark\":\"\",\"phone\":\"7891945988\",\"otheraddress\":\"\",\"otherlandmark\":\"\",\"otherphone\":\"\",\"varifed\":\"\",\"phone_varified\":\"\",\"type\":0,\"postalCode_id\":\"1\",\"postalCode\":\"324001\",\"location\":\"a290YQ==\",\"country_id\":\"105\",\"fl_admin_id\":\"22\",\"city_id\":\"1\",\"city\":\"a290YQ==\",\"town_id\":\"\",\"town\":\"\",\"fl_admin\":\"UmFqYXN0aGFuCQ==\",\"country\":\"SW5kaWE=\"},\"17\":{\"address_id\":\"17\",\"entity_id\":\"2\",\"location_id\":\"1\",\"address\":\"aG91c2UmbmJzcDszNCZuYnNwO3NreSZuYnNwO3ZpZXc8YnI+cG9sb2FsdG8mbmJzcDttYXhpbXVt\",\"landmark\":\"\",\"phone\":\"7891945988\",\"otheraddress\":\"\",\"otherlandmark\":\"\",\"otherphone\":\"\",\"varifed\":\"\",\"phone_varified\":\"\",\"type\":0,\"postalCode_id\":\"1\",\"postalCode\":\"324001\",\"location\":\"a290YQ==\",\"country_id\":\"105\",\"fl_admin_id\":\"22\",\"city_id\":\"1\",\"city\":\"a290YQ==\",\"town_id\":\"\",\"town\":\"\",\"fl_admin\":\"UmFqYXN0aGFuCQ==\",\"country\":\"SW5kaWE=\"},\"18\":{\"address_id\":\"18\",\"entity_id\":\"2\",\"location_id\":\"1\",\"address\":\"d3dlcmRmPGJyPnNkZnNkZjxicj5zZGZzZA==\",\"landmark\":\"\",\"phone\":\"7891945988\",\"otheraddress\":\"\",\"otherlandmark\":\"\",\"otherphone\":\"\",\"varifed\":\"\",\"phone_varified\":\"\",\"type\":0,\"postalCode_id\":\"1\",\"postalCode\":\"324001\",\"location\":\"a290YQ==\",\"country_id\":\"105\",\"fl_admin_id\":\"22\",\"city_id\":\"1\",\"city\":\"a290YQ==\",\"town_id\":\"\",\"town\":\"\",\"fl_admin\":\"UmFqYXN0aGFuCQ==\",\"country\":\"SW5kaWE=\"},\"16\":{\"address_id\":\"16\",\"entity_id\":\"2\",\"location_id\":\"3\",\"address\":\"aG91c2XCoE51bWJlcsKgwqAyN8KgPGJyPnBvd2VywqBob3VzZcKgc3RhdGlvbg==\",\"landmark\":\"\",\"phone\":\"7891945988\",\"otheraddress\":\"\",\"otherlandmark\":\"\",\"otherphone\":\"\",\"varifed\":\"\",\"phone_varified\":\"\",\"type\":0,\"postalCode_id\":\"2\",\"postalCode\":\"325214\",\"location\":\"YXlhbmE=\",\"country_id\":\"105\",\"fl_admin_id\":\"22\",\"city_id\":\"1\",\"city\":\"a290YQ==\",\"town_id\":\"3\",\"town\":\"YXlhbmE=\",\"fl_admin\":\"UmFqYXN0aGFuCQ==\",\"country\":\"SW5kaWE=\"},\"38\":{\"address_id\":38,\"entity_id\":\"2\",\"location_id\":\"7\",\"address\":\"cHVsaXlhJm5ic3A7a2UmbmJzcDtwYXNz\",\"landmark\":\"YmFzJm5ic3A7c3RhbmQ=\",\"phone\":\"7891945988\",\"otheraddress\":\"\",\"otherlandmark\":\"\",\"otherphone\":\"\",\"varifed\":\"\",\"phone_varified\":\"\",\"type\":0,\"postalCode_id\":\"2\",\"postalCode\":\"325214\",\"location\":\"THVoYXdhZA==\",\"country_id\":\"105\",\"fl_admin_id\":\"22\",\"city_id\":\"1\",\"city\":\"a290YQ==\",\"town_id\":\"7\",\"town\":\"THVoYXdhZA==\",\"fl_admin\":\"UmFqYXN0aGFuCQ==\",\"country\":\"SW5kaWE=\"}},\"bio\":[],\"profilepic\":\"\",\"banner_id\":\"\",\"Url\":[]}","private_data":"{\"deactivate\":1,\"wallet_id\":0,\"countryinfo_id\":\"105\",\"varified\":1,\"memberSince\":1476860439,\"notification_checktime\":\"1564079294\",\"order_checktime\":1476860439,\"checkin_msg_checktime\":1564832558,\"chat_msg_checktime\":1564080208,\"blocked_entity\":[],\"profile_complete\":{\"profile_pic\":1,\"profile_banner\":1,\"address\":1,\"following_count\":0,\"friend_count\":0,\"favoritestore_count\":3},\"activity_update_server_code\":0,\"privacy_setting\":{\"ip0\":0,\"ip1\":0,\"ip2\":0,\"ip3\":0,\"ip4\":0,\"ip5\":2,\"ip6\":0,\"ip7\":0,\"ip8\":0,\"ip9\":2,\"ip10\":0,\"cp0\":0,\"cp1\":0,\"cp2\":0,\"cp3\":0,\"cp4\":0,\"cp5\":5,\"cp6\":0,\"op0\":0,\"op1\":0},\"notification_setting\":{\"nss0\":1,\"nss1\":1,\"nss2\":1,\"nss3\":0,\"ns0\":0,\"ns1\":0,\"ns2\":0},\"FirstName\":\"a2VzaGF2\",\"LastName\":\"Z2F1dGFt\",\"sex\":\"0\",\"birthday\":\"Jun,19,1991\",\"livingPalce\":\"dfgfd\",\"about\":\"\",\"website\":\"dfg\",\"theme\":[\"\",\"\"],\"profilepic\":\"\",\"avatar\":\"http:\/\/localhost:3325\/assets\/imgs\/pic\/avatar.png\",\"banner_id\":\"\",\"addressdata\":{\"address_id\":\"2\",\"entity_id\":\"2\",\"location_id\":\"1\",\"address\":\"c2Rm\",\"landmark\":\"c2Rm\",\"phone\":\"7891945988\",\"otheraddress\":\"\",\"otherlandmark\":\"\",\"otherphone\":\"\",\"varifed\":\"\",\"phone_varified\":\"\",\"type\":0,\"postalCode_id\":\"1\",\"postalCode\":\"324001\",\"location\":\"a290YQ==\",\"country_id\":\"105\",\"fl_admin_id\":\"22\",\"city_id\":\"1\",\"city\":\"a290YQ==\",\"town_id\":\"\",\"town\":\"\",\"fl_admin\":\"UmFqYXN0aGFuCQ==\",\"country\":\"SW5kaWE=\"},\"AddressHome\":{\"address\":\"\",\"location_id\":\"105005\",\"address_id\":\"\",\"location_name\":\"Jaloda&nbsp;Khatian\",\"Districtname\":\"Kota\",\"Statename\":\"RAJASTHAN\",\"Country\":\"India\",\"pincode\":\"325214\",\"phone\":\"\"},\"AddressWork\":{\"address\":\"\",\"location_id\":\"\",\"address_id\":\"\",\"location_name\":\"\",\"Districtname\":\"\",\"Statename\":\"\",\"Country\":\"\",\"pincode\":\"\",\"phone\":\"\"},\"bio\":[]}","search_data":"keshav gautam keshav gautam keshav","slug_id":"2045","object_id":"2","object_type":"buyer","content_slug":"keshav","original_slug":"keshav"}]
August 22, 2019, 3:06 pm [{"entity_id":"1","account_id":"1","type":"1","device_in_use":"0","last_login":"2019-08-22 20:31:51","public_data":"{\"theme\":[\"1\",\"\"],\"Name\":\"RGVtb8Kgc3RvcmU=\",\"slug\":\"test-mob-store\",\"avatar\":\"https&colon;&sol;&sol;i&period;imgur&period;com&sol;OL5KPb4&period;jpg\",\"banner\":\"\",\"profilepicData\":{\"webimages\":[{\"url\":\"https&colon;&sol;&sol;i&period;imgur&period;com&sol;OL5KPb4&period;jpg\",\"key\":\"\",\"hash\":\"\",\"name\":\"\",\"priviewId\":\"1564079515WThC784\"}],\"featureimage\":{\"image_id\":\"\",\"url\":\"https&colon;&sol;&sol;i&period;imgur&period;com&sol;OL5KPb4&period;jpg\",\"update_hash\":\"\",\"width\":\"400\",\"height\":\"400\",\"time\":\"\",\"filesize\":\"\",\"key\":\"\",\"hash\":\"\",\"name\":\"\",\"priviewId\":\"1564079515WThC784\"}},\"bannerData\":{\"featureimage\":{\"image_id\":\"\",\"url\":\"\",\"update_hash\":\"\",\"width\":\"400\",\"height\":\"400\",\"time\":\"\",\"filesize\":\"\"}},\"addressdata\":{\"address_id\":\"58\",\"entity_id\":\"1\",\"location_id\":\"10\",\"address\":\"ZmdkZmdk\",\"landmark\":\"bGFuZMKgbWFyaw==\",\"phone\":\"9950449428\",\"otheraddress\":\"\",\"otherlandmark\":\"\",\"otherphone\":\"\",\"varifed\":\"\",\"phone_varified\":\"\",\"type\":1,\"postalCode_id\":\"4\",\"postalCode\":\"61241\",\"location\":\"Q29sb25h\",\"country_id\":\"234\",\"fl_admin_id\":\"49\",\"city_id\":\"10\",\"city\":\"Q29sb25h\",\"town_id\":\"\",\"town\":\"\",\"fl_admin\":\"IElsbGlub2lzCQ==\",\"country\":\"VW5pdGVkIFN0YXRlcw==\"},\"collection\":[\"1\",\"4\",\"5\",\"6\",\"7\"],\"collection_data\":[{\"id\":\"1\",\"name\":\"Daily&nbsp;Needs\",\"slug\":\"daily-needs-collection\"},{\"id\":\"4\",\"name\":\"Real-Estate\",\"slug\":\"real-estate-collection\"},{\"id\":\"5\",\"name\":\"industry&nbsp;supply\",\"slug\":\"industry-supply-collection\"},{\"id\":\"6\",\"name\":\"Furniture\",\"slug\":\"furniture-collection\"},{\"id\":\"7\",\"name\":\"Electronics\",\"slug\":\"electronics-collection\"}],\"store_policy\":\"c3RvcmUmbG93YmFyO3BvbGljeXN0b3JlJmxvd2Jhcjtwb2xpY3lzdG9yZSZsb3diYXI7cG9saWN5c3RvcmUmbG93YmFyO3BvbGljeXN0b3JlJmxvd2Jhcjtwb2xpY3lzdG9yZSZsb3diYXI7cG9saWN5c3RvcmUmbG93YmFyO3BvbGljeXN0b3JlJmxvd2Jhcjtwb2xpY3lzdG9yZSZsb3diYXI7cG9saWN5c3RvcmUmbG93YmFyO3BvbGljeXN0b3JlJmxvd2Jhcjtwb2xpY3lzdG9yZSZsb3diYXI7cG9saWN5c3RvcmUmbG93YmFyO3BvbGljeXN0b3JlJmxvd2Jhcjtwb2xpY3lzdG9yZSZsb3diYXI7cG9saWN5c3RvcmUmbG93YmFyO3BvbGljeXN0b3JlJmxvd2Jhcjtwb2xpY3lzdG9yZSZsb3diYXI7cG9saWN5c3RvcmUmbG93YmFyO3BvbGljeXN0b3JlJmxvd2Jhcjtwb2xpY3lzdG9yZSZsb3diYXI7cG9saQ==\",\"about_store\":\"c2FkYWFhYWFhYWFhYWFhYWFhYWFhYWFhYWFhYWFhYWFhYWFhYWFhYWFhYWFhYWFhYWFhYWFhYWFhYWFhYWFhYWFhYWFhYWFhYWFhYWFhYWFhYWFhYWFhYWFhYWFhYWFhYWFhYWFhYWFhYWFhYWFhYWFhYWFhYWFhYWFhYWFhYWFhYWFhYWFhYWFhYWFhYWFhYWFhYWFhYWFhYWFhYWFhYWFhYWFhYWFhYWFhYWFhYWFhYWFhYWFhYWFhYWFhYWFhYWFhYWFhYWFhYWFhYWFhYWFhYWFhYWFhYWFhYWFhYWFhYWFhYWFhYWFhYWFhYWFhYWFhYWFhYWFhYQ==\",\"sliderBox\":[{\"webimages\":[{\"url\":\"https&colon;&sol;&sol;www&period;f-cdn&period;com&sol;assets&sol;css&sol;images&sol;homepage&sol;bg-architecture-2x-cd1a1d20&period;jpg\",\"key\":\"\",\"hash\":\"\",\"name\":\"\",\"priviewId\":\"14911985620fx8761\"}],\"linkto\":{\"id\":\"0&lowbar;15\",\"mid\":\"15\",\"name\":\"Cameras &amp; Accessories\",\"slug\":\"cameras-accessories-category\",\"type\":\"0\",\"saveingId\":\"suggestion&period;1491200377H1BDZ72\"}},{\"webimages\":[{\"url\":\"http&colon;&sol;&sol;i&period;imgur&period;com&sol;4sX8V8U&period;jpg\",\"key\":\"\",\"hash\":\"\",\"name\":\"\",\"priviewId\":\"1480961508ARHV682\"}],\"linkto\":{\"id\":\"0&lowbar;22\",\"mid\":\"22\",\"name\":\"Men\",\"slug\":\"men-category\",\"type\":\"0\",\"saveingId\":\"suggestion&period;1480961521wuBSD94\"}},{\"webimages\":[{\"url\":\"https&colon;&sol;&sol;www&period;f-cdn&period;com&sol;assets&sol;css&sol;images&sol;homepage&sol;bg-app-2x-c16b1159&period;jpg\",\"key\":\"\",\"hash\":\"\",\"name\":\"\",\"priviewId\":\"1491200064RXxiD66\"}],\"linkto\":{\"id\":\"0&lowbar;15\",\"mid\":\"15\",\"name\":\"Cameras &amp; Accessories\",\"slug\":\"cameras-accessories-category\",\"type\":\"0\",\"saveingId\":\"suggestion&period;1491200066nHHrR74\"}}],\"website\":\"d293cm9sJnBlcmlvZDtjb20=\",\"categoryBox\":[{\"cid\":\"12\",\"sort\":1},{\"cid\":\"40\",\"sort\":0},{\"cid\":\"22\",\"sort\":2}],\"profilepic\":[],\"policy_store\":\"\"}","private_data":"{\"notification_setting\":{\"nss0\":1,\"nss1\":0,\"nss2\":1,\"nss3\":0,\"ns0\":0,\"ns1\":0,\"ns2\":0},\"notification_checktime\":1565097344,\"order_checktime\":1476820645,\"checkin_msg_checktime\":1565422935,\"chat_msg_checktime\":1564080218,\"default_category\":{\"cN\":\"dfdfgdfg\",\"pa\":{\"cid\":\"\",\"cN\":\"\"},\"description\":\"\",\"cid\":\"71\",\"sid\":\"347\"},\"deactivate\":\"0\",\"wallet_id\":0,\"minimum_order\":\"2000\",\"activity_update_server_code\":0,\"memberSince\":1476820645,\"blocked_entity\":[],\"price_range\":{\"min\":\"0\",\"max\":\"200\"},\"feedback_spreadId\":191,\"privacy_setting\":{\"ip0\":0,\"ip1\":0,\"ip2\":0,\"ip3\":0,\"ip4\":0,\"ip5\":0,\"ip6\":0,\"ip7\":0,\"ip8\":0,\"ip9\":0,\"ip10\":0,\"cp0\":0,\"cp1\":0,\"cp2\":0,\"cp3\":0,\"cp4\":0,\"cp5\":0,\"cp6\":0,\"op0\":0,\"op1\":0},\"profile_complete\":{\"profile_pic\":1,\"slider\":1,\"address\":1,\"collection\":1,\"product_count\":28,\"category_count\":41,\"favoriter_count\":2,\"menu_set\":1},\"ratting\":0,\"staffHash\":\"\",\"staffloginattemp\":5,\"stafflogin_block_time\":0,\"staffloginblock\":0,\"nextOrderCount\":0,\"varified\":1,\"shippingZonecountry\":\"105\",\"countryinfo_id\":105,\"shippingZonetype\":\"1\",\"currency\":\"INR\",\"unitsystem\":\"metric\",\"weightunit\":\"kg\",\"return_policy\":\"1\",\"store_menu_table_code\":0,\"avatar\":\"\",\"profilepic\":[],\"addressdata\":{\"address_id\":\"1\",\"entity_id\":\"1\",\"location_id\":\"3\",\"address\":\"YXNkYXNkYXMmbmJzcDthc2QmbmJzcDthc2Rhc2Rhc2Rhc2R0eXNkZnNkZnNkZiZuYnNwO3NkZnNkPGJyPmRmZ2RmZ2RmZ2RmZ2RmZ2Rmc2RzZDxicj5kZmdkZmdkZmdzY2N2PGJyPmRmZ2RmZ2prJm5ic3A7ZmdoZmdzZGZmZyZuYnNwO3J0Zmc=\",\"landmark\":\"c2RmZGZjY3Z2\",\"phone\":\"7891945988\",\"otheraddress\":\"\",\"otherlandmark\":\"\",\"otherphone\":\"\",\"varifed\":\"\",\"phone_varified\":\"\",\"type\":1,\"postalCode_id\":\"2\",\"location\":\"YXlhbmE=\",\"country_id\":\"105\",\"fl_admin_id\":\"22\",\"city_id\":\"1\",\"city\":\"a290YQ==\",\"town_id\":\"3\",\"town\":\"YXlhbmE=\",\"fl_admin\":\"UmFqYXN0aGFuCQ==\",\"country\":\"SW5kaWE=\"},\"collection\":[\"3\",\"6\"],\"theme\":[\"19\",\"\"],\"store_policy\":\"ZGZnZGZnZGZnZGZnZGdkZmc=\",\"about_store\":\"ZGZnZGY=\",\"sliderBox\":[],\"website\":\"\",\"categoryBox\":[{\"cid\":\"22\",\"sort\":1},{\"cid\":\"17\",\"sort\":0}],\"policy_store\":\"\",\"slider\":[],\"storeterms\":\"\",\"address_id\":\"\"}","search_data":"Demo store test-mob-store","slug_id":"2044","object_id":"1","object_type":"store","content_slug":"test-mob-store","original_slug":"test-mob-store"}]
August 22, 2019, 8:37 pm {"address_id":"58","entity_id":"1","location_id":"10","address":"ZmdkZmdk","landmark":"bGFuZMKgbWFyaw==","phone":"9950449428","otheraddress":"","otherlandmark":"","otherphone":"","varifed":"","phone_varified":"","type":1,"postalCode_id":"4","postalCode":"61241","location":"Q29sb25h","country_id":"234","fl_admin_id":"49","city_id":"10","city":"Q29sb25h","town_id":"","town":"","fl_admin":"IElsbGlub2lzCQ==","country":"VW5pdGVkIFN0YXRlcw=="}
August 22, 2019, 8:37 pm {"address_id":"58","entity_id":"1","location_id":"10","address":"ZmdkZmdk","landmark":"bGFuZMKgbWFyaw==","phone":"9950449428","otheraddress":"","otherlandmark":"","otherphone":"","varifed":"","phone_varified":"","type":1,"postalCode_id":"4","postalCode":"61241","location":"Q29sb25h","country_id":"234","fl_admin_id":"49","city_id":"10","city":"Q29sb25h","town_id":"","town":"","fl_admin":"IElsbGlub2lzCQ==","country":"VW5pdGVkIFN0YXRlcw=="}
August 22, 2019, 8:37 pm {"address_id":"58","entity_id":"1","location_id":"10","address":"ZmdkZmdk","landmark":"bGFuZMKgbWFyaw==","phone":"9950449428","otheraddress":"","otherlandmark":"","otherphone":"","varifed":"","phone_varified":"","type":1,"postalCode_id":"4","postalCode":"61241","location":"Q29sb25h","country_id":"234","fl_admin_id":"49","city_id":"10","city":"Q29sb25h","town_id":"","town":"","fl_admin":"IElsbGlub2lzCQ==","country":"VW5pdGVkIFN0YXRlcw=="}
August 22, 2019, 8:38 pm {"address_id":"58","entity_id":"1","location_id":"10","address":"ZmdkZmdk","landmark":"bGFuZMKgbWFyaw==","phone":"9950449428","otheraddress":"","otherlandmark":"","otherphone":"","varifed":"","phone_varified":"","type":1,"postalCode_id":"4","postalCode":"61241","location":"Q29sb25h","country_id":"234","fl_admin_id":"49","city_id":"10","city":"Q29sb25h","town_id":"","town":"","fl_admin":"IElsbGlub2lzCQ==","country":"VW5pdGVkIFN0YXRlcw=="}
August 22, 2019, 8:38 pm {"address_id":"58","entity_id":"1","location_id":"10","address":"ZmdkZmdk","landmark":"bGFuZMKgbWFyaw==","phone":"9950449428","otheraddress":"","otherlandmark":"","otherphone":"","varifed":"","phone_varified":"","type":1,"postalCode_id":"4","postalCode":"61241","location":"Q29sb25h","country_id":"234","fl_admin_id":"49","city_id":"10","city":"Q29sb25h","town_id":"","town":"","fl_admin":"IElsbGlub2lzCQ==","country":"VW5pdGVkIFN0YXRlcw=="}
August 22, 2019, 8:38 pm {"address_id":"58","entity_id":"1","location_id":"10","address":"ZmdkZmdk","landmark":"bGFuZMKgbWFyaw==","phone":"9950449428","otheraddress":"","otherlandmark":"","otherphone":"","varifed":"","phone_varified":"","type":1,"postalCode_id":"4","postalCode":"61241","location":"Q29sb25h","country_id":"234","fl_admin_id":"49","city_id":"10","city":"Q29sb25h","town_id":"","town":"","fl_admin":"IElsbGlub2lzCQ==","country":"VW5pdGVkIFN0YXRlcw=="}
August 28, 2019, 10:06 am []
August 28, 2019, 10:06 am []
August 28, 2019, 10:06 am []
August 28, 2019, 10:06 am []
August 28, 2019, 10:06 am []
August 28, 2019, 10:06 am []
August 28, 2019, 10:06 am [{"entity_id":"28","account_id":"1","type":"4","device_in_use":"1","last_login":"2017-04-11 12:21:43","public_data":"{\"Name\":\"dGVzdA==\",\"company_industry_category\":\"dGVzdA==\",\"slug\":\"test-company-0\",\"avatar\":\"\",\"banner\":\"\",\"profilepicData\":{\"mainimages\":[],\"webimages\":[],\"featureimage\":{\"image_id\":\"\",\"url\":\"\",\"update_hash\":\"\",\"time\":\"\",\"filesize\":\"\"}},\"bannerData\":{\"mainimages\":[],\"webimages\":[],\"featureimage\":{\"image_id\":\"\",\"url\":\"\",\"update_hash\":\"\",\"time\":\"\",\"filesize\":\"\"}},\"addressdata\":{\"address_id\":0,\"entity_id\":\"\",\"location_id\":\"\",\"address\":\"\",\"landmark\":\"\",\"phone\":\"\",\"otheraddress\":\"\",\"otherlandmark\":\"\",\"otherphone\":\"\",\"varifed\":\"\",\"phone_varified\":\"\",\"type\":0,\"postalCode_id\":\"\",\"postalCode\":\"\",\"location\":\"\",\"country_id\":\"\",\"fl_admin_id\":\"\",\"city_id\":\"\",\"city\":\"\",\"town_id\":\"\",\"town\":\"\",\"fl_admin\":\"\",\"country\":\"\"},\"theme\":[\"\",\"\"],\"policy\":\"\",\"about\":\"\",\"sliderBox\":[],\"website\":\"\",\"categoryBox\":[]}","private_data":"{\"notification_checktime\":1488261723,\"order_checktime\":1491816029,\"checkin_msg_checktime\":1491816029,\"chat_msg_checktime\":1488261723,\"last_statics_checktime\":0,\"deactivate\":\"0\",\"wallet_id\":0,\"countryinfo_id\":105,\"varified\":0,\"memberSince\":1488261723,\"store_menu_table_code\":0,\"blocked_entity\":[],\"profile_complete\":[],\"privacy_setting\":{\"company_name\":\"test\",\"company_industry_category\":\"test\"},\"notification_setting\":{\"nss0\":1,\"nss1\":1,\"nss2\":1,\"nss3\":1}}","search_data":"","slug_id":"2186","object_id":"28","object_type":"buyer","content_slug":"test","original_slug":"test"}]
September 1, 2019, 5:15 pm {"identity_type":"phone","identity_Name":"Mobile No. ","login_identity":"7891945988","recovery_code":"760410","More_Information_link":""}
September 12, 2019, 1:43 pm "\r\n       SELECT DISTINCT * \r\nFROM wowrol_app.entity p,wowrol_app.page_slug q\r\nWHERE   CAST(q.object_id As SIGNED) =p.entity_id\r\n AND (q.object_type=\"buyer\"||q.object_type=\"store\")\r\n AND p.type=0\r\n AND (q.content_slug LIKE  \"%kees\\\" || q.content_slug LIKE  \"%kees\\%\")\r\n \r\n "
September 12, 2019, 1:43 pm "\r\n       SELECT DISTINCT * \r\nFROM wowrol_app.entity p,wowrol_app.page_slug q\r\nWHERE   CAST(q.object_id As SIGNED) =p.entity_id\r\n AND (q.object_type=\"buyer\"||q.object_type=\"store\")\r\n AND p.type=0\r\n AND (q.content_slug LIKE  \"%kees\\\\\\\" || q.content_slug LIKE  \"%kees\\\\\\%\")\r\n \r\n "
September 12, 2019, 1:43 pm "\r\n       SELECT DISTINCT * \r\nFROM wowrol_app.entity p,wowrol_app.page_slug q\r\nWHERE   CAST(q.object_id As SIGNED) =p.entity_id\r\n AND (q.object_type=\"buyer\"||q.object_type=\"store\")\r\n AND p.type=0\r\n AND (q.content_slug LIKE  \"%kees\\\" || q.content_slug LIKE  \"%kees\\%\")\r\n \r\n "
September 15, 2019, 3:36 pm [{"entity_id":"43","account_id":"1","type":"1","device_in_use":null,"last_login":"0000-00-00 00:00:00","public_data":"{\"Name\":\"ZXJ0cmV0\",\"slug\":\"ertert\",\"avatar\":\"\",\"banner\":\"\",\"profilepicData\":{\"mainimages\":[],\"webimages\":[],\"featureimage\":{\"image_id\":\"\",\"url\":\"\",\"update_hash\":\"\",\"width\":\"400\",\"height\":\"400\",\"time\":\"\",\"filesize\":\"\"}},\"bannerData\":{\"mainimages\":[],\"webimages\":[],\"featureimage\":{\"image_id\":\"\",\"url\":\"\",\"update_hash\":\"\",\"width\":\"400\",\"height\":\"400\",\"time\":\"\",\"filesize\":\"\"}},\"addressdata\":{\"address_id\":0,\"entity_id\":\"\",\"location_id\":\"\",\"address\":\"\",\"landmark\":\"\",\"phone\":\"\",\"otheraddress\":\"\",\"otherlandmark\":\"\",\"otherphone\":\"\",\"varifed\":\"\",\"phone_varified\":\"\",\"type\":0,\"postalCode_id\":\"\",\"postalCode\":\"\",\"location\":\"\",\"country_id\":\"\",\"fl_admin_id\":\"\",\"city_id\":\"\",\"city\":\"\",\"town_id\":\"\",\"town\":\"\",\"fl_admin\":\"\",\"country\":\"\"},\"collection\":[],\"collection_data\":[],\"theme\":[\"\",\"\"],\"store_policy\":\"\",\"about_store\":\"\",\"sliderBox\":{\"mainimages\":[],\"webimages\":[]},\"website\":\"\",\"categoryBox\":[]}","private_data":"{\"notification_setting\":{\"nss0\":1,\"nss1\":1,\"nss2\":1,\"nss3\":1,\"ns0\":1,\"ns1\":1,\"ns2\":1},\"notification_checktime\":1568561784,\"order_checktime\":1568561784,\"checkin_msg_checktime\":1568561784,\"chat_msg_checktime\":1568561784,\"default_category\":{\"cN\":\"\",\"pa\":{\"cid\":\"\",\"cN\":\"\"},\"description\":\"\",\"cid\":0,\"sid\":0},\"deactivate\":\"0\",\"wallet_id\":0,\"minimum_order\":0,\"activity_update_server_code\":0,\"memberSince\":\"2019-09-15 21:06:24\",\"blocked_entity\":[],\"price_range\":{\"min\":0,\"max\":100},\"feedback_spreadId\":0,\"privacy_setting\":{\"ip0\":0,\"ip1\":0,\"ip2\":0,\"ip3\":0,\"ip4\":0,\"ip5\":0,\"ip6\":0,\"ip7\":0,\"ip8\":0,\"ip9\":0,\"ip10\":0,\"cp0\":0,\"cp1\":0,\"cp2\":0,\"cp3\":0,\"cp4\":0,\"cp5\":0,\"cp6\":0,\"op0\":0,\"op1\":0},\"profile_complete\":{\"profile_pic\":0,\"slider\":0,\"address\":0,\"collection\":0,\"product_count\":0,\"category_count\":0,\"favoriter_count\":0,\"menu_set\":0},\"ratting\":0,\"staffHash\":\"\",\"staffloginattemp\":5,\"stafflogin_block_time\":0,\"staffloginblock\":0,\"nextOrderCount\":0,\"varified\":0,\"shippingZonecountry\":105,\"countryinfo_id\":105,\"shippingZonetype\":\"0\",\"currency\":\"INR\",\"unitsystem\":\"metric\",\"weightunit\":\"kg\",\"return_policy\":1,\"store_menu_table_code\":0}","search_data":"ertret ertert","slug_id":"2343","object_id":"43","object_type":"store","content_slug":"ertert","original_slug":"ertert"}]
September 15, 2019, 9:06 pm {"address_id":0,"entity_id":"","location_id":"","address":"","landmark":"","phone":"","otheraddress":"","otherlandmark":"","otherphone":"","varifed":"","phone_varified":"","type":0,"postalCode_id":"","postalCode":"","location":"","country_id":"","fl_admin_id":"","city_id":"","city":"","town_id":"","town":"","fl_admin":"","country":""}
September 15, 2019, 9:10 pm {"address_id":0,"entity_id":"","location_id":"","address":"","landmark":"","phone":"","otheraddress":"","otherlandmark":"","otherphone":"","varifed":"","phone_varified":"","type":0,"postalCode_id":"","postalCode":"","location":"","country_id":"","fl_admin_id":"","city_id":"","city":"","town_id":"","town":"","fl_admin":"","country":""}
September 15, 2019, 9:12 pm {"address_id":64,"entity_id":"43","location_id":"13","address":"cmV0cmV0","landmark":"ZmRnZmQ=","phone":"9512345678","otheraddress":"","otherlandmark":"","otherphone":"","varifed":"","phone_varified":"","type":1,"postalCode_id":"2","postalCode":"325214","location":"cGlwbGRh","country_id":"105","fl_admin_id":"22","city_id":"1","city":"a290YQ==","town_id":"13","town":"cGlwbGRh","fl_admin":"UmFqYXN0aGFuCQ==","country":"SW5kaWE="}
September 15, 2019, 3:43 pm {"address_id":64,"entity_id":"43","location_id":"13","address":"cmV0cmV0","landmark":"ZmRnZmQ=","phone":"9512345678","otheraddress":"","otherlandmark":"","otherphone":"","varifed":"","phone_varified":"","type":1,"postalCode_id":"2","postalCode":"325214","location":"cGlwbGRh","country_id":"105","fl_admin_id":"22","city_id":"1","city":"a290YQ==","town_id":"13","town":"cGlwbGRh","fl_admin":"UmFqYXN0aGFuCQ==","country":"SW5kaWE="}
September 20, 2019, 10:10 am {"address_id":"64","entity_id":"43","location_id":"13","address":"cmV0cmV0","landmark":"ZmRnZmQ=","phone":"9512345678","otheraddress":"","otherlandmark":"","otherphone":"","varifed":"","phone_varified":"","type":1,"postalCode_id":"2","postalCode":"325214","location":"cGlwbGRh","country_id":"105","fl_admin_id":"22","city_id":"1","city":"a290YQ==","town_id":"13","town":"cGlwbGRh","fl_admin":"UmFqYXN0aGFuCQ==","country":"SW5kaWE="}
September 27, 2019, 5:39 pm [{"entity_id":"1","account_id":"1","type":"1","device_in_use":"0","last_login":"2019-08-28 15:33:24","public_data":"{\"theme\":[\"1\",\"\"],\"Name\":\"RGVtb8Kgc3RvcmU=\",\"slug\":\"test-mob-store\",\"avatar\":\"https&colon;&sol;&sol;i&period;imgur&period;com&sol;OL5KPb4&period;jpg\",\"banner\":\"\",\"profilepicData\":{\"webimages\":[{\"url\":\"https&colon;&sol;&sol;i&period;imgur&period;com&sol;OL5KPb4&period;jpg\",\"key\":\"\",\"hash\":\"\",\"name\":\"\",\"priviewId\":\"1564079515WThC784\"}],\"featureimage\":{\"image_id\":\"\",\"url\":\"https&colon;&sol;&sol;i&period;imgur&period;com&sol;OL5KPb4&period;jpg\",\"update_hash\":\"\",\"width\":\"400\",\"height\":\"400\",\"time\":\"\",\"filesize\":\"\",\"key\":\"\",\"hash\":\"\",\"name\":\"\",\"priviewId\":\"1564079515WThC784\"}},\"bannerData\":{\"featureimage\":{\"image_id\":\"\",\"url\":\"\",\"update_hash\":\"\",\"width\":\"400\",\"height\":\"400\",\"time\":\"\",\"filesize\":\"\"}},\"addressdata\":{\"address_id\":\"58\",\"entity_id\":\"1\",\"location_id\":\"10\",\"address\":\"ZmdkZmdk\",\"landmark\":\"bGFuZMKgbWFyaw==\",\"phone\":\"9950449428\",\"otheraddress\":\"\",\"otherlandmark\":\"\",\"otherphone\":\"\",\"varifed\":\"\",\"phone_varified\":\"\",\"type\":1,\"postalCode_id\":\"4\",\"postalCode\":\"61241\",\"location\":\"Q29sb25h\",\"country_id\":\"234\",\"fl_admin_id\":\"49\",\"city_id\":\"10\",\"city\":\"Q29sb25h\",\"town_id\":\"\",\"town\":\"\",\"fl_admin\":\"IElsbGlub2lzCQ==\",\"country\":\"VW5pdGVkIFN0YXRlcw==\"},\"collection\":[\"1\",\"4\",\"5\",\"6\",\"7\"],\"collection_data\":[{\"id\":\"1\",\"name\":\"Daily&nbsp;Needs\",\"slug\":\"daily-needs-collection\"},{\"id\":\"4\",\"name\":\"Real-Estate\",\"slug\":\"real-estate-collection\"},{\"id\":\"5\",\"name\":\"industry&nbsp;supply\",\"slug\":\"industry-supply-collection\"},{\"id\":\"6\",\"name\":\"Furniture\",\"slug\":\"furniture-collection\"},{\"id\":\"7\",\"name\":\"Electronics\",\"slug\":\"electronics-collection\"}],\"store_policy\":\"c3RvcmUmbG93YmFyO3BvbGljeXN0b3JlJmxvd2Jhcjtwb2xpY3lzdG9yZSZsb3diYXI7cG9saWN5c3RvcmUmbG93YmFyO3BvbGljeXN0b3JlJmxvd2Jhcjtwb2xpY3lzdG9yZSZsb3diYXI7cG9saWN5c3RvcmUmbG93YmFyO3BvbGljeXN0b3JlJmxvd2Jhcjtwb2xpY3lzdG9yZSZsb3diYXI7cG9saWN5c3RvcmUmbG93YmFyO3BvbGljeXN0b3JlJmxvd2Jhcjtwb2xpY3lzdG9yZSZsb3diYXI7cG9saWN5c3RvcmUmbG93YmFyO3BvbGljeXN0b3JlJmxvd2Jhcjtwb2xpY3lzdG9yZSZsb3diYXI7cG9saWN5c3RvcmUmbG93YmFyO3BvbGljeXN0b3JlJmxvd2Jhcjtwb2xpY3lzdG9yZSZsb3diYXI7cG9saWN5c3RvcmUmbG93YmFyO3BvbGljeXN0b3JlJmxvd2Jhcjtwb2xpY3lzdG9yZSZsb3diYXI7cG9saQ==\",\"about_store\":\"c2FkYWFhYWFhYWFhYWFhYWFhYWFhYWFhYWFhYWFhYWFhYWFhYWFhYWFhYWFhYWFhYWFhYWFhYWFhYWFhYWFhYWFhYWFhYWFhYWFhYWFhYWFhYWFhYWFhYWFhYWFhYWFhYWFhYWFhYWFhYWFhYWFhYWFhYWFhYWFhYWFhYWFhYWFhYWFhYWFhYWFhYWFhYWFhYWFhYWFhYWFhYWFhYWFhYWFhYWFhYWFhYWFhYWFhYWFhYWFhYWFhYWFhYWFhYWFhYWFhYWFhYWFhYWFhYWFhYWFhYWFhYWFhYWFhYWFhYWFhYWFhYWFhYWFhYWFhYWFhYWFhYWFhYWFhYQ==\",\"sliderBox\":[{\"webimages\":[{\"url\":\"https&colon;&sol;&sol;www&period;f-cdn&period;com&sol;assets&sol;css&sol;images&sol;homepage&sol;bg-architecture-2x-cd1a1d20&period;jpg\",\"key\":\"\",\"hash\":\"\",\"name\":\"\",\"priviewId\":\"14911985620fx8761\"}],\"linkto\":{\"id\":\"0&lowbar;15\",\"mid\":\"15\",\"name\":\"Cameras &amp; Accessories\",\"slug\":\"cameras-accessories-category\",\"type\":\"0\",\"saveingId\":\"suggestion&period;1491200377H1BDZ72\"}},{\"webimages\":[{\"url\":\"http&colon;&sol;&sol;i&period;imgur&period;com&sol;4sX8V8U&period;jpg\",\"key\":\"\",\"hash\":\"\",\"name\":\"\",\"priviewId\":\"1480961508ARHV682\"}],\"linkto\":{\"id\":\"0&lowbar;22\",\"mid\":\"22\",\"name\":\"Men\",\"slug\":\"men-category\",\"type\":\"0\",\"saveingId\":\"suggestion&period;1480961521wuBSD94\"}},{\"webimages\":[{\"url\":\"https&colon;&sol;&sol;www&period;f-cdn&period;com&sol;assets&sol;css&sol;images&sol;homepage&sol;bg-app-2x-c16b1159&period;jpg\",\"key\":\"\",\"hash\":\"\",\"name\":\"\",\"priviewId\":\"1491200064RXxiD66\"}],\"linkto\":{\"id\":\"0&lowbar;15\",\"mid\":\"15\",\"name\":\"Cameras &amp; Accessories\",\"slug\":\"cameras-accessories-category\",\"type\":\"0\",\"saveingId\":\"suggestion&period;1491200066nHHrR74\"}}],\"website\":\"d293cm9sJnBlcmlvZDtjb20=\",\"categoryBox\":[{\"cid\":\"12\",\"sort\":1},{\"cid\":\"40\",\"sort\":0},{\"cid\":\"22\",\"sort\":2}],\"profilepic\":[],\"policy_store\":\"\"}","private_data":"{\"notification_setting\":{\"nss0\":1,\"nss1\":0,\"nss2\":1,\"nss3\":0,\"ns0\":0,\"ns1\":0,\"ns2\":0},\"notification_checktime\":1565097344,\"order_checktime\":1476820645,\"checkin_msg_checktime\":1566486530,\"chat_msg_checktime\":1564080218,\"default_category\":{\"cN\":\"dfdfgdfg\",\"pa\":{\"cid\":\"\",\"cN\":\"\"},\"description\":\"\",\"cid\":\"71\",\"sid\":\"347\"},\"deactivate\":\"0\",\"wallet_id\":0,\"minimum_order\":\"2000\",\"activity_update_server_code\":0,\"memberSince\":1476820645,\"blocked_entity\":[],\"price_range\":{\"min\":\"0\",\"max\":\"200\"},\"feedback_spreadId\":191,\"privacy_setting\":{\"ip0\":0,\"ip1\":0,\"ip2\":0,\"ip3\":0,\"ip4\":0,\"ip5\":0,\"ip6\":0,\"ip7\":0,\"ip8\":0,\"ip9\":0,\"ip10\":0,\"cp0\":0,\"cp1\":0,\"cp2\":0,\"cp3\":0,\"cp4\":0,\"cp5\":0,\"cp6\":0,\"op0\":0,\"op1\":0},\"profile_complete\":{\"profile_pic\":1,\"slider\":1,\"address\":1,\"collection\":1,\"product_count\":28,\"category_count\":41,\"favoriter_count\":2,\"menu_set\":1},\"ratting\":0,\"staffHash\":\"\",\"staffloginattemp\":5,\"stafflogin_block_time\":0,\"staffloginblock\":0,\"nextOrderCount\":0,\"varified\":1,\"shippingZonecountry\":\"105\",\"countryinfo_id\":105,\"shippingZonetype\":\"1\",\"currency\":\"INR\",\"unitsystem\":\"metric\",\"weightunit\":\"kg\",\"return_policy\":\"1\",\"store_menu_table_code\":0,\"avatar\":\"\",\"profilepic\":[],\"addressdata\":{\"address_id\":\"1\",\"entity_id\":\"1\",\"location_id\":\"3\",\"address\":\"YXNkYXNkYXMmbmJzcDthc2QmbmJzcDthc2Rhc2Rhc2Rhc2R0eXNkZnNkZnNkZiZuYnNwO3NkZnNkPGJyPmRmZ2RmZ2RmZ2RmZ2RmZ2Rmc2RzZDxicj5kZmdkZmdkZmdzY2N2PGJyPmRmZ2RmZ2prJm5ic3A7ZmdoZmdzZGZmZyZuYnNwO3J0Zmc=\",\"landmark\":\"c2RmZGZjY3Z2\",\"phone\":\"7891945988\",\"otheraddress\":\"\",\"otherlandmark\":\"\",\"otherphone\":\"\",\"varifed\":\"\",\"phone_varified\":\"\",\"type\":1,\"postalCode_id\":\"2\",\"location\":\"YXlhbmE=\",\"country_id\":\"105\",\"fl_admin_id\":\"22\",\"city_id\":\"1\",\"city\":\"a290YQ==\",\"town_id\":\"3\",\"town\":\"YXlhbmE=\",\"fl_admin\":\"UmFqYXN0aGFuCQ==\",\"country\":\"SW5kaWE=\"},\"collection\":[\"3\",\"6\"],\"theme\":[\"19\",\"\"],\"store_policy\":\"ZGZnZGZnZGZnZGZnZGdkZmc=\",\"about_store\":\"ZGZnZGY=\",\"sliderBox\":[],\"website\":\"\",\"categoryBox\":[{\"cid\":\"22\",\"sort\":1},{\"cid\":\"17\",\"sort\":0}],\"policy_store\":\"\",\"slider\":[],\"storeterms\":\"\",\"address_id\":\"\"}","search_data":"Demo store test-mob-store","slug_id":"2044","object_id":"1","object_type":"store","content_slug":"test-mob-store","original_slug":"test-mob-store"}]
October 8, 2019, 10:04 am [{"entity_id":"1","account_id":"1","type":"1","device_in_use":"0","last_login":"2019-09-28 23:18:13","public_data":"{\"theme\":[\"1\",\"\"],\"Name\":\"RGVtb8Kgc3RvcmU=\",\"slug\":\"test-mob-store\",\"avatar\":\"https&colon;&sol;&sol;i&period;imgur&period;com&sol;OL5KPb4&period;jpg\",\"banner\":\"\",\"profilepicData\":{\"webimages\":[{\"url\":\"https&colon;&sol;&sol;i&period;imgur&period;com&sol;OL5KPb4&period;jpg\",\"key\":\"\",\"hash\":\"\",\"name\":\"\",\"priviewId\":\"1564079515WThC784\"}],\"featureimage\":{\"image_id\":\"\",\"url\":\"https&colon;&sol;&sol;i&period;imgur&period;com&sol;OL5KPb4&period;jpg\",\"update_hash\":\"\",\"width\":\"400\",\"height\":\"400\",\"time\":\"\",\"filesize\":\"\",\"key\":\"\",\"hash\":\"\",\"name\":\"\",\"priviewId\":\"1564079515WThC784\"}},\"bannerData\":{\"featureimage\":{\"image_id\":\"\",\"url\":\"\",\"update_hash\":\"\",\"width\":\"400\",\"height\":\"400\",\"time\":\"\",\"filesize\":\"\"}},\"addressdata\":{\"address_id\":\"58\",\"entity_id\":\"1\",\"location_id\":\"10\",\"address\":\"ZmdkZmdk\",\"landmark\":\"bGFuZMKgbWFyaw==\",\"phone\":\"9950449428\",\"otheraddress\":\"\",\"otherlandmark\":\"\",\"otherphone\":\"\",\"varifed\":\"\",\"phone_varified\":\"\",\"type\":1,\"postalCode_id\":\"4\",\"postalCode\":\"61241\",\"location\":\"Q29sb25h\",\"country_id\":\"234\",\"fl_admin_id\":\"49\",\"city_id\":\"10\",\"city\":\"Q29sb25h\",\"town_id\":\"\",\"town\":\"\",\"fl_admin\":\"IElsbGlub2lzCQ==\",\"country\":\"VW5pdGVkIFN0YXRlcw==\"},\"collection\":[\"1\",\"4\",\"5\",\"6\",\"7\"],\"collection_data\":[{\"id\":\"1\",\"name\":\"Daily&nbsp;Needs\",\"slug\":\"daily-needs-collection\"},{\"id\":\"4\",\"name\":\"Real-Estate\",\"slug\":\"real-estate-collection\"},{\"id\":\"5\",\"name\":\"industry&nbsp;supply\",\"slug\":\"industry-supply-collection\"},{\"id\":\"6\",\"name\":\"Furniture\",\"slug\":\"furniture-collection\"},{\"id\":\"7\",\"name\":\"Electronics\",\"slug\":\"electronics-collection\"}],\"store_policy\":\"c3RvcmUmbG93YmFyO3BvbGljeXN0b3JlJmxvd2Jhcjtwb2xpY3lzdG9yZSZsb3diYXI7cG9saWN5c3RvcmUmbG93YmFyO3BvbGljeXN0b3JlJmxvd2Jhcjtwb2xpY3lzdG9yZSZsb3diYXI7cG9saWN5c3RvcmUmbG93YmFyO3BvbGljeXN0b3JlJmxvd2Jhcjtwb2xpY3lzdG9yZSZsb3diYXI7cG9saWN5c3RvcmUmbG93YmFyO3BvbGljeXN0b3JlJmxvd2Jhcjtwb2xpY3lzdG9yZSZsb3diYXI7cG9saWN5c3RvcmUmbG93YmFyO3BvbGljeXN0b3JlJmxvd2Jhcjtwb2xpY3lzdG9yZSZsb3diYXI7cG9saWN5c3RvcmUmbG93YmFyO3BvbGljeXN0b3JlJmxvd2Jhcjtwb2xpY3lzdG9yZSZsb3diYXI7cG9saWN5c3RvcmUmbG93YmFyO3BvbGljeXN0b3JlJmxvd2Jhcjtwb2xpY3lzdG9yZSZsb3diYXI7cG9saQ==\",\"about_store\":\"c2FkYWFhYWFhYWFhYWFhYWFhYWFhYWFhYWFhYWFhYWFhYWFhYWFhYWFhYWFhYWFhYWFhYWFhYWFhYWFhYWFhYWFhYWFhYWFhYWFhYWFhYWFhYWFhYWFhYWFhYWFhYWFhYWFhYWFhYWFhYWFhYWFhYWFhYWFhYWFhYWFhYWFhYWFhYWFhYWFhYWFhYWFhYWFhYWFhYWFhYWFhYWFhYWFhYWFhYWFhYWFhYWFhYWFhYWFhYWFhYWFhYWFhYWFhYWFhYWFhYWFhYWFhYWFhYWFhYWFhYWFhYWFhYWFhYWFhYWFhYWFhYWFhYWFhYWFhYWFhYWFhYWFhYWFhYQ==\",\"sliderBox\":[{\"webimages\":[{\"url\":\"https&colon;&sol;&sol;www&period;f-cdn&period;com&sol;assets&sol;css&sol;images&sol;homepage&sol;bg-architecture-2x-cd1a1d20&period;jpg\",\"key\":\"\",\"hash\":\"\",\"name\":\"\",\"priviewId\":\"14911985620fx8761\"}],\"linkto\":{\"id\":\"0&lowbar;15\",\"mid\":\"15\",\"name\":\"Cameras &amp; Accessories\",\"slug\":\"cameras-accessories-category\",\"type\":\"0\",\"saveingId\":\"suggestion&period;1491200377H1BDZ72\"}},{\"webimages\":[{\"url\":\"http&colon;&sol;&sol;i&period;imgur&period;com&sol;4sX8V8U&period;jpg\",\"key\":\"\",\"hash\":\"\",\"name\":\"\",\"priviewId\":\"1480961508ARHV682\"}],\"linkto\":{\"id\":\"0&lowbar;22\",\"mid\":\"22\",\"name\":\"Men\",\"slug\":\"men-category\",\"type\":\"0\",\"saveingId\":\"suggestion&period;1480961521wuBSD94\"}},{\"webimages\":[{\"url\":\"https&colon;&sol;&sol;www&period;f-cdn&period;com&sol;assets&sol;css&sol;images&sol;homepage&sol;bg-app-2x-c16b1159&period;jpg\",\"key\":\"\",\"hash\":\"\",\"name\":\"\",\"priviewId\":\"1491200064RXxiD66\"}],\"linkto\":{\"id\":\"0&lowbar;15\",\"mid\":\"15\",\"name\":\"Cameras &amp; Accessories\",\"slug\":\"cameras-accessories-category\",\"type\":\"0\",\"saveingId\":\"suggestion&period;1491200066nHHrR74\"}}],\"website\":\"d293cm9sJnBlcmlvZDtjb20=\",\"categoryBox\":[{\"cid\":\"12\",\"sort\":1},{\"cid\":\"40\",\"sort\":0},{\"cid\":\"22\",\"sort\":2}],\"profilepic\":[],\"policy_store\":\"\"}","private_data":"{\"notification_setting\":{\"nss0\":1,\"nss1\":0,\"nss2\":1,\"nss3\":0,\"ns0\":0,\"ns1\":0,\"ns2\":0},\"notification_checktime\":1565097344,\"order_checktime\":1476820645,\"checkin_msg_checktime\":1566486530,\"chat_msg_checktime\":1564080218,\"default_category\":{\"cN\":\"dfdfgdfg\",\"pa\":{\"cid\":\"\",\"cN\":\"\"},\"description\":\"\",\"cid\":\"71\",\"sid\":\"347\"},\"deactivate\":\"0\",\"wallet_id\":0,\"minimum_order\":\"2000\",\"activity_update_server_code\":0,\"memberSince\":1476820645,\"blocked_entity\":[],\"price_range\":{\"min\":\"0\",\"max\":\"200\"},\"feedback_spreadId\":191,\"privacy_setting\":{\"ip0\":0,\"ip1\":0,\"ip2\":0,\"ip3\":0,\"ip4\":0,\"ip5\":0,\"ip6\":0,\"ip7\":0,\"ip8\":0,\"ip9\":0,\"ip10\":0,\"cp0\":0,\"cp1\":0,\"cp2\":0,\"cp3\":0,\"cp4\":0,\"cp5\":0,\"cp6\":0,\"op0\":0,\"op1\":0},\"profile_complete\":{\"profile_pic\":1,\"slider\":1,\"address\":1,\"collection\":1,\"product_count\":28,\"category_count\":41,\"favoriter_count\":2,\"menu_set\":1},\"ratting\":0,\"staffHash\":\"\",\"staffloginattemp\":5,\"stafflogin_block_time\":0,\"staffloginblock\":0,\"nextOrderCount\":0,\"varified\":1,\"shippingZonecountry\":\"105\",\"countryinfo_id\":105,\"shippingZonetype\":\"1\",\"currency\":\"INR\",\"unitsystem\":\"metric\",\"weightunit\":\"kg\",\"return_policy\":\"1\",\"store_menu_table_code\":0,\"avatar\":\"\",\"profilepic\":[],\"addressdata\":{\"address_id\":\"1\",\"entity_id\":\"1\",\"location_id\":\"3\",\"address\":\"YXNkYXNkYXMmbmJzcDthc2QmbmJzcDthc2Rhc2Rhc2Rhc2R0eXNkZnNkZnNkZiZuYnNwO3NkZnNkPGJyPmRmZ2RmZ2RmZ2RmZ2RmZ2Rmc2RzZDxicj5kZmdkZmdkZmdzY2N2PGJyPmRmZ2RmZ2prJm5ic3A7ZmdoZmdzZGZmZyZuYnNwO3J0Zmc=\",\"landmark\":\"c2RmZGZjY3Z2\",\"phone\":\"7891945988\",\"otheraddress\":\"\",\"otherlandmark\":\"\",\"otherphone\":\"\",\"varifed\":\"\",\"phone_varified\":\"\",\"type\":1,\"postalCode_id\":\"2\",\"location\":\"YXlhbmE=\",\"country_id\":\"105\",\"fl_admin_id\":\"22\",\"city_id\":\"1\",\"city\":\"a290YQ==\",\"town_id\":\"3\",\"town\":\"YXlhbmE=\",\"fl_admin\":\"UmFqYXN0aGFuCQ==\",\"country\":\"SW5kaWE=\"},\"collection\":[\"3\",\"6\"],\"theme\":[\"19\",\"\"],\"store_policy\":\"ZGZnZGZnZGZnZGZnZGdkZmc=\",\"about_store\":\"ZGZnZGY=\",\"sliderBox\":[],\"website\":\"\",\"categoryBox\":[{\"cid\":\"22\",\"sort\":1},{\"cid\":\"17\",\"sort\":0}],\"policy_store\":\"\",\"slider\":[],\"storeterms\":\"\",\"address_id\":\"\"}","search_data":"Demo store test-mob-store","slug_id":"2044","object_id":"1","object_type":"store","content_slug":"test-mob-store","original_slug":"test-mob-store"}]
October 8, 2019, 5:42 pm {"address_id":"58","entity_id":"1","location_id":"10","address":"ZmdkZmdk","landmark":"bGFuZMKgbWFyaw==","phone":"9950449428","otheraddress":"","otherlandmark":"","otherphone":"","varifed":"","phone_varified":"","type":1,"postalCode_id":"4","postalCode":"61241","location":"Q29sb25h","country_id":"234","fl_admin_id":"49","city_id":"10","city":"Q29sb25h","town_id":"","town":"","fl_admin":"IElsbGlub2lzCQ==","country":"VW5pdGVkIFN0YXRlcw=="}
October 8, 2019, 5:42 pm {"address_id":"58","entity_id":"1","location_id":"10","address":"ZmdkZmdk","landmark":"bGFuZMKgbWFyaw==","phone":"9950449428","otheraddress":"","otherlandmark":"","otherphone":"","varifed":"","phone_varified":"","type":1,"postalCode_id":"4","postalCode":"61241","location":"Q29sb25h","country_id":"234","fl_admin_id":"49","city_id":"10","city":"Q29sb25h","town_id":"","town":"","fl_admin":"IElsbGlub2lzCQ==","country":"VW5pdGVkIFN0YXRlcw=="}
October 8, 2019, 5:42 pm {"address_id":"58","entity_id":"1","location_id":"10","address":"ZmdkZmdk","landmark":"bGFuZMKgbWFyaw==","phone":"9950449428","otheraddress":"","otherlandmark":"","otherphone":"","varifed":"","phone_varified":"","type":1,"postalCode_id":"4","postalCode":"61241","location":"Q29sb25h","country_id":"234","fl_admin_id":"49","city_id":"10","city":"Q29sb25h","town_id":"","town":"","fl_admin":"IElsbGlub2lzCQ==","country":"VW5pdGVkIFN0YXRlcw=="}
October 8, 2019, 5:42 pm {"address_id":"58","entity_id":"1","location_id":"10","address":"ZmdkZmdk","landmark":"bGFuZMKgbWFyaw==","phone":"9950449428","otheraddress":"","otherlandmark":"","otherphone":"","varifed":"","phone_varified":"","type":1,"postalCode_id":"4","postalCode":"61241","location":"Q29sb25h","country_id":"234","fl_admin_id":"49","city_id":"10","city":"Q29sb25h","town_id":"","town":"","fl_admin":"IElsbGlub2lzCQ==","country":"VW5pdGVkIFN0YXRlcw=="}
October 8, 2019, 5:43 pm {"address_id":"58","entity_id":"1","location_id":"10","address":"ZmdkZmdk","landmark":"bGFuZMKgbWFyaw==","phone":"9950449428","otheraddress":"","otherlandmark":"","otherphone":"","varifed":"","phone_varified":"","type":1,"postalCode_id":"4","postalCode":"61241","location":"Q29sb25h","country_id":"234","fl_admin_id":"49","city_id":"10","city":"Q29sb25h","town_id":"","town":"","fl_admin":"IElsbGlub2lzCQ==","country":"VW5pdGVkIFN0YXRlcw=="}
November 10, 2019, 10:46 am [{"entity_id":"2","account_id":"1","type":"0","device_in_use":"0","last_login":"2019-08-22 20:36:35","public_data":"{\"theme\":[\"\",\"\"],\"Name\":\"a2VzaGF2IGdhdXRhbQ==\",\"UserName\":\"keshav\",\"FirstName\":\"a2VzaGF2\",\"LastName\":\"Z2F1dGFt\",\"sex\":\"0\",\"birthday\":\"Jun,19,1992\",\"slug\":\"keshav\",\"profilepicData\":{\"mainimages\":[{\"url\":\"https&colon;&sol;&sol;s3-ap-south-1&period;amazonaws&period;com&sol;wowrol&sol;0&lowbar;92&period;jpeg\",\"key\":\"0&lowbar;92\",\"hash\":\"lpuet2lqmp\",\"name\":\"0&lowbar;92\",\"priviewId\":\"1486546772kagDG71\"}],\"webimages\":[],\"featureimage\":{\"image_id\":\"\",\"url\":\"https&colon;&sol;&sol;s3-ap-south-1&period;amazonaws&period;com&sol;wowrol&sol;0&lowbar;92&period;jpeg\",\"update_hash\":\"\",\"width\":\"400\",\"height\":\"400\",\"time\":\"\",\"filesize\":\"\",\"key\":\"0&lowbar;92\",\"hash\":\"lpuet2lqmp\",\"name\":\"0&lowbar;92\",\"priviewId\":\"1486546772kagDG71\"}},\"bannerData\":{\"mainimages\":[{\"url\":\"https&colon;&sol;&sol;s3-ap-south-1&period;amazonaws&period;com&sol;wowrol&sol;0&lowbar;94&period;jpeg\",\"key\":\"0&lowbar;94\",\"hash\":\"v7i11h6zxy\",\"name\":\"0&lowbar;94&period;jpeg\",\"priviewId\":\"14797441958ezZh33\"}],\"webimages\":[],\"featureimage\":{\"image_id\":\"\",\"url\":\"https&colon;&sol;&sol;s3-ap-south-1&period;amazonaws&period;com&sol;wowrol&sol;0&lowbar;94&period;jpeg\",\"update_hash\":\"\",\"width\":\"400\",\"height\":\"400\",\"time\":\"\",\"filesize\":\"\",\"key\":\"0&lowbar;94\",\"hash\":\"v7i11h6zxy\",\"name\":\"0&lowbar;94&period;jpeg\",\"priviewId\":\"14797441958ezZh33\"}},\"livingPalce\":\"ZnNkZnNkZg==\",\"about\":\"cnR0dHR0dHR0dHR0dHR0dHR0dGRmZ2RmJm5ic3A7ZGZnJm5ic3A7ZGYmbmJzcDtkZmcmbmJzcDtmZGRkZGRkZGRkZGRkZGdkZmdkZmdkZmcmbmJzcDtkZmdkZmdkZmdkZmdmZGdkZmdkZmdkZmdkZmZmZmZmZmZmZmZmZmZnZGZmZmZmZmZmZmZmZmZmZmZnZGZmZmZmZmZmZmZmZmZmZmZmZmZmZmZmZmZmZmZmZmZmZmZmZmZmZmZmZmZmZmZmZmZmZmZmZmZmZmZmZmZmZmZmZmZmZmZmZmZmZmZmZmZmZmZmZmZmZmZmZmZmZmZmZmZmZmZmZmZmZmZmZmZmZmZmZmZmZmZmZmZmZmZmZmZmZmY=\",\"website\":\"cnR5cnR5\",\"avatar\":\"https&colon;&sol;&sol;s3-ap-south-1&period;amazonaws&period;com&sol;wowrol&sol;0&lowbar;92&period;jpeg\",\"banner\":\"https&colon;&sol;&sol;s3-ap-south-1&period;amazonaws&period;com&sol;wowrol&sol;0&lowbar;94&period;jpeg\",\"addressdata\":{\"0\":{\"address_id\":16,\"entity_id\":\"2\",\"location_id\":\"3\",\"address\":\"amFpcHVy\",\"landmark\":\"c2Q=\",\"phone\":\"7891945988\",\"otheraddress\":\"\",\"otherlandmark\":\"\",\"otherphone\":\"\",\"varifed\":\"\",\"phone_varified\":\"\",\"type\":0,\"postalCode_id\":\"2\",\"postalCode\":\"325214\",\"location\":\"YXlhbmE=\",\"country_id\":\"105\",\"fl_admin_id\":\"22\",\"city_id\":\"1\",\"city\":\"a290YQ==\",\"town_id\":\"3\",\"town\":\"YXlhbmE=\",\"fl_admin\":\"UmFqYXN0aGFuCQ==\",\"country\":\"SW5kaWE=\"},\"14\":{\"address_id\":\"14\",\"entity_id\":\"2\",\"location_id\":\"1\",\"address\":\"ZmRnZGZnPGJyPnNkZnNk\",\"landmark\":\"\",\"phone\":\"7891945988\",\"otheraddress\":\"\",\"otherlandmark\":\"\",\"otherphone\":\"\",\"varifed\":\"\",\"phone_varified\":\"\",\"type\":0,\"postalCode_id\":\"1\",\"postalCode\":\"324001\",\"location\":\"a290YQ==\",\"country_id\":\"105\",\"fl_admin_id\":\"22\",\"city_id\":\"1\",\"city\":\"a290YQ==\",\"town_id\":\"\",\"town\":\"\",\"fl_admin\":\"UmFqYXN0aGFuCQ==\",\"country\":\"SW5kaWE=\"},\"17\":{\"address_id\":\"17\",\"entity_id\":\"2\",\"location_id\":\"1\",\"address\":\"aG91c2UmbmJzcDszNCZuYnNwO3NreSZuYnNwO3ZpZXc8YnI+cG9sb2FsdG8mbmJzcDttYXhpbXVt\",\"landmark\":\"\",\"phone\":\"7891945988\",\"otheraddress\":\"\",\"otherlandmark\":\"\",\"otherphone\":\"\",\"varifed\":\"\",\"phone_varified\":\"\",\"type\":0,\"postalCode_id\":\"1\",\"postalCode\":\"324001\",\"location\":\"a290YQ==\",\"country_id\":\"105\",\"fl_admin_id\":\"22\",\"city_id\":\"1\",\"city\":\"a290YQ==\",\"town_id\":\"\",\"town\":\"\",\"fl_admin\":\"UmFqYXN0aGFuCQ==\",\"country\":\"SW5kaWE=\"},\"18\":{\"address_id\":\"18\",\"entity_id\":\"2\",\"location_id\":\"1\",\"address\":\"d3dlcmRmPGJyPnNkZnNkZjxicj5zZGZzZA==\",\"landmark\":\"\",\"phone\":\"7891945988\",\"otheraddress\":\"\",\"otherlandmark\":\"\",\"otherphone\":\"\",\"varifed\":\"\",\"phone_varified\":\"\",\"type\":0,\"postalCode_id\":\"1\",\"postalCode\":\"324001\",\"location\":\"a290YQ==\",\"country_id\":\"105\",\"fl_admin_id\":\"22\",\"city_id\":\"1\",\"city\":\"a290YQ==\",\"town_id\":\"\",\"town\":\"\",\"fl_admin\":\"UmFqYXN0aGFuCQ==\",\"country\":\"SW5kaWE=\"},\"16\":{\"address_id\":\"16\",\"entity_id\":\"2\",\"location_id\":\"3\",\"address\":\"aG91c2XCoE51bWJlcsKgwqAyN8KgPGJyPnBvd2VywqBob3VzZcKgc3RhdGlvbg==\",\"landmark\":\"\",\"phone\":\"7891945988\",\"otheraddress\":\"\",\"otherlandmark\":\"\",\"otherphone\":\"\",\"varifed\":\"\",\"phone_varified\":\"\",\"type\":0,\"postalCode_id\":\"2\",\"postalCode\":\"325214\",\"location\":\"YXlhbmE=\",\"country_id\":\"105\",\"fl_admin_id\":\"22\",\"city_id\":\"1\",\"city\":\"a290YQ==\",\"town_id\":\"3\",\"town\":\"YXlhbmE=\",\"fl_admin\":\"UmFqYXN0aGFuCQ==\",\"country\":\"SW5kaWE=\"},\"38\":{\"address_id\":38,\"entity_id\":\"2\",\"location_id\":\"7\",\"address\":\"cHVsaXlhJm5ic3A7a2UmbmJzcDtwYXNz\",\"landmark\":\"YmFzJm5ic3A7c3RhbmQ=\",\"phone\":\"7891945988\",\"otheraddress\":\"\",\"otherlandmark\":\"\",\"otherphone\":\"\",\"varifed\":\"\",\"phone_varified\":\"\",\"type\":0,\"postalCode_id\":\"2\",\"postalCode\":\"325214\",\"location\":\"THVoYXdhZA==\",\"country_id\":\"105\",\"fl_admin_id\":\"22\",\"city_id\":\"1\",\"city\":\"a290YQ==\",\"town_id\":\"7\",\"town\":\"THVoYXdhZA==\",\"fl_admin\":\"UmFqYXN0aGFuCQ==\",\"country\":\"SW5kaWE=\"}},\"bio\":[],\"profilepic\":\"\",\"banner_id\":\"\",\"Url\":[]}","private_data":"{\"deactivate\":1,\"wallet_id\":0,\"countryinfo_id\":\"105\",\"varified\":1,\"memberSince\":1476860439,\"notification_checktime\":\"1564079294\",\"order_checktime\":1476860439,\"checkin_msg_checktime\":1566486122,\"chat_msg_checktime\":1564080208,\"blocked_entity\":[],\"profile_complete\":{\"profile_pic\":1,\"profile_banner\":1,\"address\":1,\"following_count\":0,\"friend_count\":0,\"favoritestore_count\":3},\"activity_update_server_code\":0,\"privacy_setting\":{\"ip0\":0,\"ip1\":0,\"ip2\":0,\"ip3\":0,\"ip4\":0,\"ip5\":2,\"ip6\":0,\"ip7\":0,\"ip8\":0,\"ip9\":2,\"ip10\":0,\"cp0\":0,\"cp1\":0,\"cp2\":0,\"cp3\":0,\"cp4\":0,\"cp5\":5,\"cp6\":0,\"op0\":0,\"op1\":0},\"notification_setting\":{\"nss0\":1,\"nss1\":1,\"nss2\":1,\"nss3\":0,\"ns0\":0,\"ns1\":0,\"ns2\":0},\"FirstName\":\"a2VzaGF2\",\"LastName\":\"Z2F1dGFt\",\"sex\":\"0\",\"birthday\":\"Jun,19,1991\",\"livingPalce\":\"dfgfd\",\"about\":\"\",\"website\":\"dfg\",\"theme\":[\"\",\"\"],\"profilepic\":\"\",\"avatar\":\"http:\/\/localhost:3325\/assets\/imgs\/pic\/avatar.png\",\"banner_id\":\"\",\"addressdata\":{\"address_id\":\"2\",\"entity_id\":\"2\",\"location_id\":\"1\",\"address\":\"c2Rm\",\"landmark\":\"c2Rm\",\"phone\":\"7891945988\",\"otheraddress\":\"\",\"otherlandmark\":\"\",\"otherphone\":\"\",\"varifed\":\"\",\"phone_varified\":\"\",\"type\":0,\"postalCode_id\":\"1\",\"postalCode\":\"324001\",\"location\":\"a290YQ==\",\"country_id\":\"105\",\"fl_admin_id\":\"22\",\"city_id\":\"1\",\"city\":\"a290YQ==\",\"town_id\":\"\",\"town\":\"\",\"fl_admin\":\"UmFqYXN0aGFuCQ==\",\"country\":\"SW5kaWE=\"},\"AddressHome\":{\"address\":\"\",\"location_id\":\"105005\",\"address_id\":\"\",\"location_name\":\"Jaloda&nbsp;Khatian\",\"Districtname\":\"Kota\",\"Statename\":\"RAJASTHAN\",\"Country\":\"India\",\"pincode\":\"325214\",\"phone\":\"\"},\"AddressWork\":{\"address\":\"\",\"location_id\":\"\",\"address_id\":\"\",\"location_name\":\"\",\"Districtname\":\"\",\"Statename\":\"\",\"Country\":\"\",\"pincode\":\"\",\"phone\":\"\"},\"bio\":[]}","search_data":"keshav gautam keshav gautam keshav","slug_id":"2045","object_id":"2","object_type":"buyer","content_slug":"keshav","original_slug":"keshav"}]
December 8, 2019, 11:39 pm {"address_id":"58","entity_id":"1","location_id":"10","address":"ZmdkZmdk","landmark":"bGFuZMKgbWFyaw==","phone":"9950449428","otheraddress":"","otherlandmark":"","otherphone":"","varifed":"","phone_varified":"","type":1,"postalCode_id":"4","postalCode":"61241","location":"Q29sb25h","country_id":"234","fl_admin_id":"49","city_id":"10","city":"Q29sb25h","town_id":"","town":"","fl_admin":"IElsbGlub2lzCQ==","country":"VW5pdGVkIFN0YXRlcw=="}
December 8, 2019, 11:39 pm {"address_id":"58","entity_id":"1","location_id":"10","address":"ZmdkZmdk","landmark":"bGFuZMKgbWFyaw==","phone":"9950449428","otheraddress":"","otherlandmark":"","otherphone":"","varifed":"","phone_varified":"","type":1,"postalCode_id":"4","postalCode":"61241","location":"Q29sb25h","country_id":"234","fl_admin_id":"49","city_id":"10","city":"Q29sb25h","town_id":"","town":"","fl_admin":"IElsbGlub2lzCQ==","country":"VW5pdGVkIFN0YXRlcw=="}
December 13, 2019, 3:51 am [{"entity_id":"2","account_id":"1","type":"0","device_in_use":"0","last_login":"2019-12-09 02:23:41","public_data":"{\"Name\":\"a2VzaGF2IGdhdXRhbQ==\",\"UserName\":\"keshav\",\"FirstName\":\"a2VzaGF2\",\"LastName\":\"Z2F1dGFt\",\"sex\":\"0\",\"birthday\":\"Jun,19,1992\",\"slug\":\"keshav\",\"profilepicData\":{\"mainimages\":[{\"url\":\"https&colon;&sol;&sol;s3-ap-south-1&period;amazonaws&period;com&sol;wowrol&sol;0&lowbar;92&period;jpeg\",\"key\":\"0&lowbar;92\",\"hash\":\"lpuet2lqmp\",\"name\":\"0&lowbar;92\",\"priviewId\":\"1486546772kagDG71\"}],\"webimages\":[],\"featureimage\":{\"image_id\":\"\",\"url\":\"https&colon;&sol;&sol;s3-ap-south-1&period;amazonaws&period;com&sol;wowrol&sol;0&lowbar;92&period;jpeg\",\"update_hash\":\"\",\"width\":\"400\",\"height\":\"400\",\"time\":\"\",\"filesize\":\"\",\"key\":\"0&lowbar;92\",\"hash\":\"lpuet2lqmp\",\"name\":\"0&lowbar;92\",\"priviewId\":\"1486546772kagDG71\"}},\"bannerData\":{\"mainimages\":[{\"url\":\"https&colon;&sol;&sol;s3-ap-south-1&period;amazonaws&period;com&sol;wowrol&sol;0&lowbar;94&period;jpeg\",\"key\":\"0&lowbar;94\",\"hash\":\"v7i11h6zxy\",\"name\":\"0&lowbar;94&period;jpeg\",\"priviewId\":\"14797441958ezZh33\"}],\"webimages\":[],\"featureimage\":{\"image_id\":\"\",\"url\":\"https&colon;&sol;&sol;s3-ap-south-1&period;amazonaws&period;com&sol;wowrol&sol;0&lowbar;94&period;jpeg\",\"update_hash\":\"\",\"width\":\"400\",\"height\":\"400\",\"time\":\"\",\"filesize\":\"\",\"key\":\"0&lowbar;94\",\"hash\":\"v7i11h6zxy\",\"name\":\"0&lowbar;94&period;jpeg\",\"priviewId\":\"14797441958ezZh33\"}},\"livingPalce\":\"ZnNkZnNkZg==\",\"about\":\"cnR0dHR0dHR0dHR0dHR0dHR0dGRmZ2RmJm5ic3A7ZGZnJm5ic3A7ZGYmbmJzcDtkZmcmbmJzcDtmZGRkZGRkZGRkZGRkZGdkZmdkZmdkZmcmbmJzcDtkZmdkZmdkZmdkZmdmZGdkZmdkZmdkZmdkZmZmZmZmZmZmZmZmZmZnZGZmZmZmZmZmZmZmZmZmZmZnZGZmZmZmZmZmZmZmZmZmZmZmZmZmZmZmZmZmZmZmZmZmZmZmZmZmZmZmZmZmZmZmZmZmZmZmZmZmZmZmZmZmZmZmZmZmZmZmZmZmZmZmZmZmZmZmZmZmZmZmZmZmZmZmZmZmZmZmZmZmZmZmZmZmZmZmZmZmZmZmZmZmZmZmZmZmZmY=\",\"website\":\"cnR5cnR5\",\"avatar\":\"https&colon;&sol;&sol;s3-ap-south-1&period;amazonaws&period;com&sol;wowrol&sol;0&lowbar;92&period;jpeg\",\"banner\":\"https&colon;&sol;&sol;s3-ap-south-1&period;amazonaws&period;com&sol;wowrol&sol;0&lowbar;94&period;jpeg\",\"addressdata\":{\"0\":{\"address_id\":16,\"entity_id\":\"2\",\"location_id\":\"3\",\"address\":\"amFpcHVy\",\"landmark\":\"c2Q=\",\"phone\":\"7891945988\",\"otheraddress\":\"\",\"otherlandmark\":\"\",\"otherphone\":\"\",\"varifed\":\"\",\"phone_varified\":\"\",\"type\":0,\"postalCode_id\":\"2\",\"postalCode\":\"325214\",\"location\":\"YXlhbmE=\",\"country_id\":\"105\",\"fl_admin_id\":\"22\",\"city_id\":\"1\",\"city\":\"a290YQ==\",\"town_id\":\"3\",\"town\":\"YXlhbmE=\",\"fl_admin\":\"UmFqYXN0aGFuCQ==\",\"country\":\"SW5kaWE=\"},\"14\":{\"address_id\":\"14\",\"entity_id\":\"2\",\"location_id\":\"1\",\"address\":\"ZmRnZGZnPGJyPnNkZnNk\",\"landmark\":\"\",\"phone\":\"7891945988\",\"otheraddress\":\"\",\"otherlandmark\":\"\",\"otherphone\":\"\",\"varifed\":\"\",\"phone_varified\":\"\",\"type\":0,\"postalCode_id\":\"1\",\"postalCode\":\"324001\",\"location\":\"a290YQ==\",\"country_id\":\"105\",\"fl_admin_id\":\"22\",\"city_id\":\"1\",\"city\":\"a290YQ==\",\"town_id\":\"\",\"town\":\"\",\"fl_admin\":\"UmFqYXN0aGFuCQ==\",\"country\":\"SW5kaWE=\"},\"17\":{\"address_id\":\"17\",\"entity_id\":\"2\",\"location_id\":\"1\",\"address\":\"aG91c2UmbmJzcDszNCZuYnNwO3NreSZuYnNwO3ZpZXc8YnI+cG9sb2FsdG8mbmJzcDttYXhpbXVt\",\"landmark\":\"\",\"phone\":\"7891945988\",\"otheraddress\":\"\",\"otherlandmark\":\"\",\"otherphone\":\"\",\"varifed\":\"\",\"phone_varified\":\"\",\"type\":0,\"postalCode_id\":\"1\",\"postalCode\":\"324001\",\"location\":\"a290YQ==\",\"country_id\":\"105\",\"fl_admin_id\":\"22\",\"city_id\":\"1\",\"city\":\"a290YQ==\",\"town_id\":\"\",\"town\":\"\",\"fl_admin\":\"UmFqYXN0aGFuCQ==\",\"country\":\"SW5kaWE=\"},\"18\":{\"address_id\":\"18\",\"entity_id\":\"2\",\"location_id\":\"1\",\"address\":\"d3dlcmRmPGJyPnNkZnNkZjxicj5zZGZzZA==\",\"landmark\":\"\",\"phone\":\"7891945988\",\"otheraddress\":\"\",\"otherlandmark\":\"\",\"otherphone\":\"\",\"varifed\":\"\",\"phone_varified\":\"\",\"type\":0,\"postalCode_id\":\"1\",\"postalCode\":\"324001\",\"location\":\"a290YQ==\",\"country_id\":\"105\",\"fl_admin_id\":\"22\",\"city_id\":\"1\",\"city\":\"a290YQ==\",\"town_id\":\"\",\"town\":\"\",\"fl_admin\":\"UmFqYXN0aGFuCQ==\",\"country\":\"SW5kaWE=\"},\"16\":{\"address_id\":\"16\",\"entity_id\":\"2\",\"location_id\":\"3\",\"address\":\"aG91c2XCoE51bWJlcsKgwqAyN8KgPGJyPnBvd2VywqBob3VzZcKgc3RhdGlvbg==\",\"landmark\":\"\",\"phone\":\"7891945988\",\"otheraddress\":\"\",\"otherlandmark\":\"\",\"otherphone\":\"\",\"varifed\":\"\",\"phone_varified\":\"\",\"type\":0,\"postalCode_id\":\"2\",\"postalCode\":\"325214\",\"location\":\"YXlhbmE=\",\"country_id\":\"105\",\"fl_admin_id\":\"22\",\"city_id\":\"1\",\"city\":\"a290YQ==\",\"town_id\":\"3\",\"town\":\"YXlhbmE=\",\"fl_admin\":\"UmFqYXN0aGFuCQ==\",\"country\":\"SW5kaWE=\"},\"38\":{\"address_id\":38,\"entity_id\":\"2\",\"location_id\":\"7\",\"address\":\"cHVsaXlhJm5ic3A7a2UmbmJzcDtwYXNz\",\"landmark\":\"YmFzJm5ic3A7c3RhbmQ=\",\"phone\":\"7891945988\",\"otheraddress\":\"\",\"otherlandmark\":\"\",\"otherphone\":\"\",\"varifed\":\"\",\"phone_varified\":\"\",\"type\":0,\"postalCode_id\":\"2\",\"postalCode\":\"325214\",\"location\":\"THVoYXdhZA==\",\"country_id\":\"105\",\"fl_admin_id\":\"22\",\"city_id\":\"1\",\"city\":\"a290YQ==\",\"town_id\":\"7\",\"town\":\"THVoYXdhZA==\",\"fl_admin\":\"UmFqYXN0aGFuCQ==\",\"country\":\"SW5kaWE=\"}},\"bio\":[],\"theme\":[\"\",\"\"],\"profilepic\":\"\",\"banner_id\":\"\",\"Url\":[]}","private_data":"{\"deactivate\":1,\"wallet_id\":0,\"countryinfo_id\":\"105\",\"varified\":1,\"memberSince\":1476860439,\"notification_checktime\":\"1564079294\",\"order_checktime\":1476860439,\"checkin_msg_checktime\":1566486122,\"chat_msg_checktime\":1564080208,\"blocked_entity\":[],\"profile_complete\":{\"profile_pic\":1,\"profile_banner\":1,\"address\":1,\"following_count\":0,\"friend_count\":0,\"favoritestore_count\":3},\"activity_update_server_code\":0,\"privacy_setting\":{\"ip0\":0,\"ip1\":0,\"ip2\":0,\"ip3\":0,\"ip4\":0,\"ip5\":2,\"ip6\":0,\"ip7\":0,\"ip8\":0,\"ip9\":2,\"ip10\":0,\"cp0\":0,\"cp1\":0,\"cp2\":0,\"cp3\":0,\"cp4\":0,\"cp5\":5,\"cp6\":0,\"op0\":0,\"op1\":0},\"notification_setting\":{\"nss0\":1,\"nss1\":1,\"nss2\":1,\"nss3\":0,\"ns0\":0,\"ns1\":0,\"ns2\":0},\"FirstName\":\"a2VzaGF2\",\"LastName\":\"Z2F1dGFt\",\"sex\":\"0\",\"birthday\":\"Jun,19,1991\",\"livingPalce\":\"dfgfd\",\"about\":\"\",\"website\":\"dfg\",\"theme\":[\"\",\"\"],\"profilepic\":\"\",\"avatar\":\"http:\/\/localhost:3325\/assets\/imgs\/pic\/avatar.png\",\"banner_id\":\"\",\"addressdata\":{\"address_id\":\"2\",\"entity_id\":\"2\",\"location_id\":\"1\",\"address\":\"c2Rm\",\"landmark\":\"c2Rm\",\"phone\":\"7891945988\",\"otheraddress\":\"\",\"otherlandmark\":\"\",\"otherphone\":\"\",\"varifed\":\"\",\"phone_varified\":\"\",\"type\":0,\"postalCode_id\":\"1\",\"postalCode\":\"324001\",\"location\":\"a290YQ==\",\"country_id\":\"105\",\"fl_admin_id\":\"22\",\"city_id\":\"1\",\"city\":\"a290YQ==\",\"town_id\":\"\",\"town\":\"\",\"fl_admin\":\"UmFqYXN0aGFuCQ==\",\"country\":\"SW5kaWE=\"},\"AddressHome\":{\"address\":\"\",\"location_id\":\"105005\",\"address_id\":\"\",\"location_name\":\"Jaloda&nbsp;Khatian\",\"Districtname\":\"Kota\",\"Statename\":\"RAJASTHAN\",\"Country\":\"India\",\"pincode\":\"325214\",\"phone\":\"\"},\"AddressWork\":{\"address\":\"\",\"location_id\":\"\",\"address_id\":\"\",\"location_name\":\"\",\"Districtname\":\"\",\"Statename\":\"\",\"Country\":\"\",\"pincode\":\"\",\"phone\":\"\"},\"bio\":[]}","search_data":"keshav gautam keshav gautam keshav","slug_id":"2045","object_id":"2","object_type":"buyer","content_slug":"keshav","original_slug":"keshav"}]
January 26, 2020, 9:37 am [{"entity_id":"1","account_id":"1","type":"1","device_in_use":"0","last_login":"2019-12-27 16:55:43","public_data":"{\"Name\":\"RGVtb8Kgc3RvcmU=\",\"slug\":\"test-mob-store\",\"avatar\":\"https&colon;&sol;&sol;i&period;imgur&period;com&sol;OL5KPb4&period;jpg\",\"banner\":\"\",\"profilepicData\":{\"mainimages\":[],\"webimages\":[{\"url\":\"https&colon;&sol;&sol;i&period;imgur&period;com&sol;OL5KPb4&period;jpg\",\"key\":\"\",\"hash\":\"\",\"name\":\"\",\"priviewId\":\"1564079515WThC784\"}],\"featureimage\":{\"image_id\":\"\",\"url\":\"https&colon;&sol;&sol;i&period;imgur&period;com&sol;OL5KPb4&period;jpg\",\"update_hash\":\"\",\"width\":\"400\",\"height\":\"400\",\"time\":\"\",\"filesize\":\"\",\"key\":\"\",\"hash\":\"\",\"name\":\"\",\"priviewId\":\"1564079515WThC784\"}},\"bannerData\":{\"mainimages\":[],\"webimages\":[],\"featureimage\":{\"image_id\":\"\",\"url\":\"\",\"update_hash\":\"\",\"width\":\"400\",\"height\":\"400\",\"time\":\"\",\"filesize\":\"\"}},\"addressdata\":{\"address_id\":\"58\",\"entity_id\":\"1\",\"location_id\":\"10\",\"address\":\"ZmdkZmdk\",\"landmark\":\"bGFuZMKgbWFyaw==\",\"phone\":\"9950449428\",\"otheraddress\":\"\",\"otherlandmark\":\"\",\"otherphone\":\"\",\"varifed\":\"\",\"phone_varified\":\"\",\"type\":1,\"postalCode_id\":\"4\",\"postalCode\":\"61241\",\"location\":\"Q29sb25h\",\"country_id\":\"234\",\"fl_admin_id\":\"49\",\"city_id\":\"10\",\"city\":\"Q29sb25h\",\"town_id\":\"\",\"town\":\"\",\"fl_admin\":\"IElsbGlub2lzCQ==\",\"country\":\"VW5pdGVkIFN0YXRlcw==\"},\"collection\":[\"1\",\"4\",\"5\",\"6\",\"7\"],\"collection_data\":[{\"id\":\"1\",\"name\":\"Daily&nbsp;Needs\",\"slug\":\"daily-needs-collection\"},{\"id\":\"4\",\"name\":\"Real-Estate\",\"slug\":\"real-estate-collection\"},{\"id\":\"5\",\"name\":\"industry&nbsp;supply\",\"slug\":\"industry-supply-collection\"},{\"id\":\"6\",\"name\":\"Furniture\",\"slug\":\"furniture-collection\"},{\"id\":\"7\",\"name\":\"Electronics\",\"slug\":\"electronics-collection\"}],\"theme\":[\"1\",\"\"],\"store_policy\":\"c3RvcmUmbG93YmFyO3BvbGljeXN0b3JlJmxvd2Jhcjtwb2xpY3lzdG9yZSZsb3diYXI7cG9saWN5c3RvcmUmbG93YmFyO3BvbGljeXN0b3JlJmxvd2Jhcjtwb2xpY3lzdG9yZSZsb3diYXI7cG9saWN5c3RvcmUmbG93YmFyO3BvbGljeXN0b3JlJmxvd2Jhcjtwb2xpY3lzdG9yZSZsb3diYXI7cG9saWN5c3RvcmUmbG93YmFyO3BvbGljeXN0b3JlJmxvd2Jhcjtwb2xpY3lzdG9yZSZsb3diYXI7cG9saWN5c3RvcmUmbG93YmFyO3BvbGljeXN0b3JlJmxvd2Jhcjtwb2xpY3lzdG9yZSZsb3diYXI7cG9saWN5c3RvcmUmbG93YmFyO3BvbGljeXN0b3JlJmxvd2Jhcjtwb2xpY3lzdG9yZSZsb3diYXI7cG9saWN5c3RvcmUmbG93YmFyO3BvbGljeXN0b3JlJmxvd2Jhcjtwb2xpY3lzdG9yZSZsb3diYXI7cG9saQ==\",\"about_store\":\"c2FkYWFhYWFhYWFhYWFhYWFhYWFhYWFhYWFhYWFhYWFhYWFhYWFhYWFhYWFhYWFhYWFhYWFhYWFhYWFhYWFhYWFhYWFhYWFhYWFhYWFhYWFhYWFhYWFhYWFhYWFhYWFhYWFhYWFhYWFhYWFhYWFhYWFhYWFhYWFhYWFhYWFhYWFhYWFhYWFhYWFhYWFhYWFhYWFhYWFhYWFhYWFhYWFhYWFhYWFhYWFhYWFhYWFhYWFhYWFhYWFhYWFhYWFhYWFhYWFhYWFhYWFhYWFhYWFhYWFhYWFhYWFhYWFhYWFhYWFhYWFhYWFhYWFhYWFhYWFhYWFhYWFhYWFhYQ==\",\"sliderBox\":{\"mainimages\":[],\"webimages\":[],\"0\":{\"webimages\":[{\"url\":\"https&colon;&sol;&sol;www&period;f-cdn&period;com&sol;assets&sol;css&sol;images&sol;homepage&sol;bg-architecture-2x-cd1a1d20&period;jpg\",\"key\":\"\",\"hash\":\"\",\"name\":\"\",\"priviewId\":\"14911985620fx8761\"}],\"linkto\":{\"id\":\"0&lowbar;15\",\"mid\":\"15\",\"name\":\"Cameras &amp; Accessories\",\"slug\":\"cameras-accessories-category\",\"type\":\"0\",\"saveingId\":\"suggestion&period;1491200377H1BDZ72\"}},\"1\":{\"webimages\":[{\"url\":\"http&colon;&sol;&sol;i&period;imgur&period;com&sol;4sX8V8U&period;jpg\",\"key\":\"\",\"hash\":\"\",\"name\":\"\",\"priviewId\":\"1480961508ARHV682\"}],\"linkto\":{\"id\":\"0&lowbar;22\",\"mid\":\"22\",\"name\":\"Men\",\"slug\":\"men-category\",\"type\":\"0\",\"saveingId\":\"suggestion&period;1480961521wuBSD94\"}},\"2\":{\"webimages\":[{\"url\":\"https&colon;&sol;&sol;www&period;f-cdn&period;com&sol;assets&sol;css&sol;images&sol;homepage&sol;bg-app-2x-c16b1159&period;jpg\",\"key\":\"\",\"hash\":\"\",\"name\":\"\",\"priviewId\":\"1491200064RXxiD66\"}],\"linkto\":{\"id\":\"0&lowbar;15\",\"mid\":\"15\",\"name\":\"Cameras &amp; Accessories\",\"slug\":\"cameras-accessories-category\",\"type\":\"0\",\"saveingId\":\"suggestion&period;1491200066nHHrR74\"}}},\"website\":\"d293cm9sJnBlcmlvZDtjb20=\",\"categoryBox\":[{\"cid\":\"12\",\"sort\":1},{\"cid\":\"40\",\"sort\":0},{\"cid\":\"22\",\"sort\":2}],\"profilepic\":[],\"policy_store\":\"\"}","private_data":"{\"notification_setting\":{\"nss0\":1,\"nss1\":0,\"nss2\":1,\"nss3\":0,\"ns0\":0,\"ns1\":0,\"ns2\":0},\"notification_checktime\":1565097344,\"order_checktime\":1476820645,\"checkin_msg_checktime\":1570536781,\"chat_msg_checktime\":1564080218,\"default_category\":{\"cN\":\"dfdfgdfg\",\"pa\":{\"cid\":\"\",\"cN\":\"\"},\"description\":\"\",\"cid\":\"71\",\"sid\":\"347\"},\"deactivate\":\"0\",\"wallet_id\":0,\"minimum_order\":\"2000\",\"activity_update_server_code\":0,\"memberSince\":1476820645,\"blocked_entity\":[],\"price_range\":{\"min\":\"0\",\"max\":\"200\"},\"feedback_spreadId\":191,\"privacy_setting\":{\"ip0\":0,\"ip1\":0,\"ip2\":0,\"ip3\":0,\"ip4\":0,\"ip5\":0,\"ip6\":0,\"ip7\":0,\"ip8\":0,\"ip9\":0,\"ip10\":0,\"cp0\":0,\"cp1\":0,\"cp2\":0,\"cp3\":0,\"cp4\":0,\"cp5\":0,\"cp6\":0,\"op0\":0,\"op1\":0},\"profile_complete\":{\"profile_pic\":1,\"slider\":1,\"address\":1,\"collection\":1,\"product_count\":28,\"category_count\":41,\"favoriter_count\":2,\"menu_set\":1},\"ratting\":0,\"staffHash\":\"\",\"staffloginattemp\":5,\"stafflogin_block_time\":0,\"staffloginblock\":0,\"nextOrderCount\":0,\"varified\":1,\"shippingZonecountry\":\"105\",\"countryinfo_id\":105,\"shippingZonetype\":\"1\",\"currency\":\"INR\",\"unitsystem\":\"metric\",\"weightunit\":\"kg\",\"return_policy\":\"1\",\"store_menu_table_code\":0,\"avatar\":\"\",\"profilepic\":[],\"addressdata\":{\"address_id\":\"1\",\"entity_id\":\"1\",\"location_id\":\"3\",\"address\":\"YXNkYXNkYXMmbmJzcDthc2QmbmJzcDthc2Rhc2Rhc2Rhc2R0eXNkZnNkZnNkZiZuYnNwO3NkZnNkPGJyPmRmZ2RmZ2RmZ2RmZ2RmZ2Rmc2RzZDxicj5kZmdkZmdkZmdzY2N2PGJyPmRmZ2RmZ2prJm5ic3A7ZmdoZmdzZGZmZyZuYnNwO3J0Zmc=\",\"landmark\":\"c2RmZGZjY3Z2\",\"phone\":\"7891945988\",\"otheraddress\":\"\",\"otherlandmark\":\"\",\"otherphone\":\"\",\"varifed\":\"\",\"phone_varified\":\"\",\"type\":1,\"postalCode_id\":\"2\",\"location\":\"YXlhbmE=\",\"country_id\":\"105\",\"fl_admin_id\":\"22\",\"city_id\":\"1\",\"city\":\"a290YQ==\",\"town_id\":\"3\",\"town\":\"YXlhbmE=\",\"fl_admin\":\"UmFqYXN0aGFuCQ==\",\"country\":\"SW5kaWE=\"},\"collection\":[\"3\",\"6\"],\"theme\":[\"19\",\"\"],\"store_policy\":\"ZGZnZGZnZGZnZGZnZGdkZmc=\",\"about_store\":\"ZGZnZGY=\",\"sliderBox\":[],\"website\":\"\",\"categoryBox\":[{\"cid\":\"22\",\"sort\":1},{\"cid\":\"17\",\"sort\":0}],\"policy_store\":\"\",\"slider\":[],\"storeterms\":\"\",\"address_id\":\"\"}","search_data":"Demo store test-mob-store","slug_id":"2044","object_id":"1","object_type":"store","content_slug":"test-mob-store","original_slug":"test-mob-store"}]
January 31, 2020, 5:38 pm [{"entity_id":"1","account_id":"1","type":"1","device_in_use":"0","last_login":"2020-01-27 03:43:13","public_data":"{\"Name\":\"RGVtb8Kgc3RvcmU=\",\"slug\":\"test-mob-store\",\"avatar\":\"https&colon;&sol;&sol;i&period;imgur&period;com&sol;OL5KPb4&period;jpg\",\"banner\":\"\",\"profilepicData\":{\"mainimages\":[],\"webimages\":[{\"url\":\"https&colon;&sol;&sol;i&period;imgur&period;com&sol;OL5KPb4&period;jpg\",\"key\":\"\",\"hash\":\"\",\"name\":\"\",\"priviewId\":\"1564079515WThC784\"}],\"featureimage\":{\"image_id\":\"\",\"url\":\"https&colon;&sol;&sol;i&period;imgur&period;com&sol;OL5KPb4&period;jpg\",\"update_hash\":\"\",\"width\":\"400\",\"height\":\"400\",\"time\":\"\",\"filesize\":\"\",\"key\":\"\",\"hash\":\"\",\"name\":\"\",\"priviewId\":\"1564079515WThC784\"}},\"bannerData\":{\"mainimages\":[],\"webimages\":[],\"featureimage\":{\"image_id\":\"\",\"url\":\"\",\"update_hash\":\"\",\"width\":\"400\",\"height\":\"400\",\"time\":\"\",\"filesize\":\"\"}},\"addressdata\":{\"address_id\":\"58\",\"entity_id\":\"1\",\"location_id\":\"10\",\"address\":\"ZmdkZmdk\",\"landmark\":\"bGFuZMKgbWFyaw==\",\"phone\":\"9950449428\",\"otheraddress\":\"\",\"otherlandmark\":\"\",\"otherphone\":\"\",\"varifed\":\"\",\"phone_varified\":\"\",\"type\":1,\"postalCode_id\":\"4\",\"postalCode\":\"61241\",\"location\":\"Q29sb25h\",\"country_id\":\"234\",\"fl_admin_id\":\"49\",\"city_id\":\"10\",\"city\":\"Q29sb25h\",\"town_id\":\"\",\"town\":\"\",\"fl_admin\":\"IElsbGlub2lzCQ==\",\"country\":\"VW5pdGVkIFN0YXRlcw==\"},\"collection\":[\"1\",\"4\",\"5\",\"6\",\"7\"],\"collection_data\":[{\"id\":\"1\",\"name\":\"Daily&nbsp;Needs\",\"slug\":\"daily-needs-collection\"},{\"id\":\"4\",\"name\":\"Real-Estate\",\"slug\":\"real-estate-collection\"},{\"id\":\"5\",\"name\":\"industry&nbsp;supply\",\"slug\":\"industry-supply-collection\"},{\"id\":\"6\",\"name\":\"Furniture\",\"slug\":\"furniture-collection\"},{\"id\":\"7\",\"name\":\"Electronics\",\"slug\":\"electronics-collection\"}],\"theme\":[\"1\",\"\"],\"store_policy\":\"c3RvcmUmbG93YmFyO3BvbGljeXN0b3JlJmxvd2Jhcjtwb2xpY3lzdG9yZSZsb3diYXI7cG9saWN5c3RvcmUmbG93YmFyO3BvbGljeXN0b3JlJmxvd2Jhcjtwb2xpY3lzdG9yZSZsb3diYXI7cG9saWN5c3RvcmUmbG93YmFyO3BvbGljeXN0b3JlJmxvd2Jhcjtwb2xpY3lzdG9yZSZsb3diYXI7cG9saWN5c3RvcmUmbG93YmFyO3BvbGljeXN0b3JlJmxvd2Jhcjtwb2xpY3lzdG9yZSZsb3diYXI7cG9saWN5c3RvcmUmbG93YmFyO3BvbGljeXN0b3JlJmxvd2Jhcjtwb2xpY3lzdG9yZSZsb3diYXI7cG9saWN5c3RvcmUmbG93YmFyO3BvbGljeXN0b3JlJmxvd2Jhcjtwb2xpY3lzdG9yZSZsb3diYXI7cG9saWN5c3RvcmUmbG93YmFyO3BvbGljeXN0b3JlJmxvd2Jhcjtwb2xpY3lzdG9yZSZsb3diYXI7cG9saQ==\",\"about_store\":\"c2FkYWFhYWFhYWFhYWFhYWFhYWFhYWFhYWFhYWFhYWFhYWFhYWFhYWFhYWFhYWFhYWFhYWFhYWFhYWFhYWFhYWFhYWFhYWFhYWFhYWFhYWFhYWFhYWFhYWFhYWFhYWFhYWFhYWFhYWFhYWFhYWFhYWFhYWFhYWFhYWFhYWFhYWFhYWFhYWFhYWFhYWFhYWFhYWFhYWFhYWFhYWFhYWFhYWFhYWFhYWFhYWFhYWFhYWFhYWFhYWFhYWFhYWFhYWFhYWFhYWFhYWFhYWFhYWFhYWFhYWFhYWFhYWFhYWFhYWFhYWFhYWFhYWFhYWFhYWFhYWFhYWFhYWFhYQ==\",\"sliderBox\":{\"mainimages\":[],\"webimages\":[],\"0\":{\"webimages\":[{\"url\":\"https&colon;&sol;&sol;www&period;f-cdn&period;com&sol;assets&sol;css&sol;images&sol;homepage&sol;bg-architecture-2x-cd1a1d20&period;jpg\",\"key\":\"\",\"hash\":\"\",\"name\":\"\",\"priviewId\":\"14911985620fx8761\"}],\"linkto\":{\"id\":\"0&lowbar;15\",\"mid\":\"15\",\"name\":\"Cameras &amp; Accessories\",\"slug\":\"cameras-accessories-category\",\"type\":\"0\",\"saveingId\":\"suggestion&period;1491200377H1BDZ72\"}},\"1\":{\"webimages\":[{\"url\":\"http&colon;&sol;&sol;i&period;imgur&period;com&sol;4sX8V8U&period;jpg\",\"key\":\"\",\"hash\":\"\",\"name\":\"\",\"priviewId\":\"1480961508ARHV682\"}],\"linkto\":{\"id\":\"0&lowbar;22\",\"mid\":\"22\",\"name\":\"Men\",\"slug\":\"men-category\",\"type\":\"0\",\"saveingId\":\"suggestion&period;1480961521wuBSD94\"}},\"2\":{\"webimages\":[{\"url\":\"https&colon;&sol;&sol;www&period;f-cdn&period;com&sol;assets&sol;css&sol;images&sol;homepage&sol;bg-app-2x-c16b1159&period;jpg\",\"key\":\"\",\"hash\":\"\",\"name\":\"\",\"priviewId\":\"1491200064RXxiD66\"}],\"linkto\":{\"id\":\"0&lowbar;15\",\"mid\":\"15\",\"name\":\"Cameras &amp; Accessories\",\"slug\":\"cameras-accessories-category\",\"type\":\"0\",\"saveingId\":\"suggestion&period;1491200066nHHrR74\"}}},\"website\":\"d293cm9sJnBlcmlvZDtjb20=\",\"categoryBox\":[{\"cid\":\"12\",\"sort\":1},{\"cid\":\"40\",\"sort\":0},{\"cid\":\"22\",\"sort\":2}],\"profilepic\":[],\"policy_store\":\"\"}","private_data":"{\"notification_setting\":{\"nss0\":1,\"nss1\":0,\"nss2\":1,\"nss3\":0,\"ns0\":0,\"ns1\":0,\"ns2\":0},\"notification_checktime\":1565097344,\"order_checktime\":1476820645,\"checkin_msg_checktime\":1570536781,\"chat_msg_checktime\":1564080218,\"default_category\":{\"cN\":\"dfdfgdfg\",\"pa\":{\"cid\":\"\",\"cN\":\"\"},\"description\":\"\",\"cid\":\"71\",\"sid\":\"347\"},\"deactivate\":\"0\",\"wallet_id\":0,\"minimum_order\":\"2000\",\"activity_update_server_code\":0,\"memberSince\":1476820645,\"blocked_entity\":[],\"price_range\":{\"min\":\"0\",\"max\":\"200\"},\"feedback_spreadId\":191,\"privacy_setting\":{\"ip0\":0,\"ip1\":0,\"ip2\":0,\"ip3\":0,\"ip4\":0,\"ip5\":0,\"ip6\":0,\"ip7\":0,\"ip8\":0,\"ip9\":0,\"ip10\":0,\"cp0\":0,\"cp1\":0,\"cp2\":0,\"cp3\":0,\"cp4\":0,\"cp5\":0,\"cp6\":0,\"op0\":0,\"op1\":0},\"profile_complete\":{\"profile_pic\":1,\"slider\":1,\"address\":1,\"collection\":1,\"product_count\":28,\"category_count\":41,\"favoriter_count\":2,\"menu_set\":1},\"ratting\":0,\"staffHash\":\"\",\"staffloginattemp\":5,\"stafflogin_block_time\":0,\"staffloginblock\":0,\"nextOrderCount\":0,\"varified\":1,\"shippingZonecountry\":\"105\",\"countryinfo_id\":105,\"shippingZonetype\":\"1\",\"currency\":\"INR\",\"unitsystem\":\"metric\",\"weightunit\":\"kg\",\"return_policy\":\"1\",\"store_menu_table_code\":0,\"avatar\":\"\",\"profilepic\":[],\"addressdata\":{\"address_id\":\"1\",\"entity_id\":\"1\",\"location_id\":\"3\",\"address\":\"YXNkYXNkYXMmbmJzcDthc2QmbmJzcDthc2Rhc2Rhc2Rhc2R0eXNkZnNkZnNkZiZuYnNwO3NkZnNkPGJyPmRmZ2RmZ2RmZ2RmZ2RmZ2Rmc2RzZDxicj5kZmdkZmdkZmdzY2N2PGJyPmRmZ2RmZ2prJm5ic3A7ZmdoZmdzZGZmZyZuYnNwO3J0Zmc=\",\"landmark\":\"c2RmZGZjY3Z2\",\"phone\":\"7891945988\",\"otheraddress\":\"\",\"otherlandmark\":\"\",\"otherphone\":\"\",\"varifed\":\"\",\"phone_varified\":\"\",\"type\":1,\"postalCode_id\":\"2\",\"location\":\"YXlhbmE=\",\"country_id\":\"105\",\"fl_admin_id\":\"22\",\"city_id\":\"1\",\"city\":\"a290YQ==\",\"town_id\":\"3\",\"town\":\"YXlhbmE=\",\"fl_admin\":\"UmFqYXN0aGFuCQ==\",\"country\":\"SW5kaWE=\"},\"collection\":[\"3\",\"6\"],\"theme\":[\"19\",\"\"],\"store_policy\":\"ZGZnZGZnZGZnZGZnZGdkZmc=\",\"about_store\":\"ZGZnZGY=\",\"sliderBox\":[],\"website\":\"\",\"categoryBox\":[{\"cid\":\"22\",\"sort\":1},{\"cid\":\"17\",\"sort\":0}],\"policy_store\":\"\",\"slider\":[],\"storeterms\":\"\",\"address_id\":\"\"}","search_data":"Demo store test-mob-store","slug_id":"2044","object_id":"1","object_type":"store","content_slug":"test-mob-store","original_slug":"test-mob-store"}]
March 9, 2020, 4:00 pm [{"entity_id":"2","account_id":"1","type":"0","device_in_use":"0","last_login":"2019-12-13 18:35:41","public_data":"{\"Name\":\"a2VzaGF2IGdhdXRhbQ==\",\"UserName\":\"keshav\",\"FirstName\":\"a2VzaGF2\",\"LastName\":\"Z2F1dGFt\",\"sex\":\"0\",\"birthday\":\"Jun,19,1992\",\"slug\":\"keshav\",\"profilepicData\":{\"mainimages\":[{\"url\":\"https&colon;&sol;&sol;s3-ap-south-1&period;amazonaws&period;com&sol;wowrol&sol;0&lowbar;92&period;jpeg\",\"key\":\"0&lowbar;92\",\"hash\":\"lpuet2lqmp\",\"name\":\"0&lowbar;92\",\"priviewId\":\"1486546772kagDG71\"}],\"webimages\":[],\"featureimage\":{\"image_id\":\"\",\"url\":\"https&colon;&sol;&sol;s3-ap-south-1&period;amazonaws&period;com&sol;wowrol&sol;0&lowbar;92&period;jpeg\",\"update_hash\":\"\",\"width\":\"400\",\"height\":\"400\",\"time\":\"\",\"filesize\":\"\",\"key\":\"0&lowbar;92\",\"hash\":\"lpuet2lqmp\",\"name\":\"0&lowbar;92\",\"priviewId\":\"1486546772kagDG71\"}},\"bannerData\":{\"mainimages\":[{\"url\":\"https&colon;&sol;&sol;s3-ap-south-1&period;amazonaws&period;com&sol;wowrol&sol;0&lowbar;94&period;jpeg\",\"key\":\"0&lowbar;94\",\"hash\":\"v7i11h6zxy\",\"name\":\"0&lowbar;94&period;jpeg\",\"priviewId\":\"14797441958ezZh33\"}],\"webimages\":[],\"featureimage\":{\"image_id\":\"\",\"url\":\"https&colon;&sol;&sol;s3-ap-south-1&period;amazonaws&period;com&sol;wowrol&sol;0&lowbar;94&period;jpeg\",\"update_hash\":\"\",\"width\":\"400\",\"height\":\"400\",\"time\":\"\",\"filesize\":\"\",\"key\":\"0&lowbar;94\",\"hash\":\"v7i11h6zxy\",\"name\":\"0&lowbar;94&period;jpeg\",\"priviewId\":\"14797441958ezZh33\"}},\"livingPalce\":\"ZnNkZnNkZg==\",\"about\":\"cnR0dHR0dHR0dHR0dHR0dHR0dGRmZ2RmJm5ic3A7ZGZnJm5ic3A7ZGYmbmJzcDtkZmcmbmJzcDtmZGRkZGRkZGRkZGRkZGdkZmdkZmdkZmcmbmJzcDtkZmdkZmdkZmdkZmdmZGdkZmdkZmdkZmdkZmZmZmZmZmZmZmZmZmZnZGZmZmZmZmZmZmZmZmZmZmZnZGZmZmZmZmZmZmZmZmZmZmZmZmZmZmZmZmZmZmZmZmZmZmZmZmZmZmZmZmZmZmZmZmZmZmZmZmZmZmZmZmZmZmZmZmZmZmZmZmZmZmZmZmZmZmZmZmZmZmZmZmZmZmZmZmZmZmZmZmZmZmZmZmZmZmZmZmZmZmZmZmZmZmZmZmZmZmY=\",\"website\":\"cnR5cnR5\",\"avatar\":\"https&colon;&sol;&sol;s3-ap-south-1&period;amazonaws&period;com&sol;wowrol&sol;0&lowbar;92&period;jpeg\",\"banner\":\"https&colon;&sol;&sol;s3-ap-south-1&period;amazonaws&period;com&sol;wowrol&sol;0&lowbar;94&period;jpeg\",\"addressdata\":{\"0\":{\"address_id\":16,\"entity_id\":\"2\",\"location_id\":\"3\",\"address\":\"amFpcHVy\",\"landmark\":\"c2Q=\",\"phone\":\"7891945988\",\"otheraddress\":\"\",\"otherlandmark\":\"\",\"otherphone\":\"\",\"varifed\":\"\",\"phone_varified\":\"\",\"type\":0,\"postalCode_id\":\"2\",\"postalCode\":\"325214\",\"location\":\"YXlhbmE=\",\"country_id\":\"105\",\"fl_admin_id\":\"22\",\"city_id\":\"1\",\"city\":\"a290YQ==\",\"town_id\":\"3\",\"town\":\"YXlhbmE=\",\"fl_admin\":\"UmFqYXN0aGFuCQ==\",\"country\":\"SW5kaWE=\"},\"14\":{\"address_id\":\"14\",\"entity_id\":\"2\",\"location_id\":\"1\",\"address\":\"ZmRnZGZnPGJyPnNkZnNk\",\"landmark\":\"\",\"phone\":\"7891945988\",\"otheraddress\":\"\",\"otherlandmark\":\"\",\"otherphone\":\"\",\"varifed\":\"\",\"phone_varified\":\"\",\"type\":0,\"postalCode_id\":\"1\",\"postalCode\":\"324001\",\"location\":\"a290YQ==\",\"country_id\":\"105\",\"fl_admin_id\":\"22\",\"city_id\":\"1\",\"city\":\"a290YQ==\",\"town_id\":\"\",\"town\":\"\",\"fl_admin\":\"UmFqYXN0aGFuCQ==\",\"country\":\"SW5kaWE=\"},\"17\":{\"address_id\":\"17\",\"entity_id\":\"2\",\"location_id\":\"1\",\"address\":\"aG91c2UmbmJzcDszNCZuYnNwO3NreSZuYnNwO3ZpZXc8YnI+cG9sb2FsdG8mbmJzcDttYXhpbXVt\",\"landmark\":\"\",\"phone\":\"7891945988\",\"otheraddress\":\"\",\"otherlandmark\":\"\",\"otherphone\":\"\",\"varifed\":\"\",\"phone_varified\":\"\",\"type\":0,\"postalCode_id\":\"1\",\"postalCode\":\"324001\",\"location\":\"a290YQ==\",\"country_id\":\"105\",\"fl_admin_id\":\"22\",\"city_id\":\"1\",\"city\":\"a290YQ==\",\"town_id\":\"\",\"town\":\"\",\"fl_admin\":\"UmFqYXN0aGFuCQ==\",\"country\":\"SW5kaWE=\"},\"18\":{\"address_id\":\"18\",\"entity_id\":\"2\",\"location_id\":\"1\",\"address\":\"d3dlcmRmPGJyPnNkZnNkZjxicj5zZGZzZA==\",\"landmark\":\"\",\"phone\":\"7891945988\",\"otheraddress\":\"\",\"otherlandmark\":\"\",\"otherphone\":\"\",\"varifed\":\"\",\"phone_varified\":\"\",\"type\":0,\"postalCode_id\":\"1\",\"postalCode\":\"324001\",\"location\":\"a290YQ==\",\"country_id\":\"105\",\"fl_admin_id\":\"22\",\"city_id\":\"1\",\"city\":\"a290YQ==\",\"town_id\":\"\",\"town\":\"\",\"fl_admin\":\"UmFqYXN0aGFuCQ==\",\"country\":\"SW5kaWE=\"},\"16\":{\"address_id\":\"16\",\"entity_id\":\"2\",\"location_id\":\"3\",\"address\":\"aG91c2XCoE51bWJlcsKgwqAyN8KgPGJyPnBvd2VywqBob3VzZcKgc3RhdGlvbg==\",\"landmark\":\"\",\"phone\":\"7891945988\",\"otheraddress\":\"\",\"otherlandmark\":\"\",\"otherphone\":\"\",\"varifed\":\"\",\"phone_varified\":\"\",\"type\":0,\"postalCode_id\":\"2\",\"postalCode\":\"325214\",\"location\":\"YXlhbmE=\",\"country_id\":\"105\",\"fl_admin_id\":\"22\",\"city_id\":\"1\",\"city\":\"a290YQ==\",\"town_id\":\"3\",\"town\":\"YXlhbmE=\",\"fl_admin\":\"UmFqYXN0aGFuCQ==\",\"country\":\"SW5kaWE=\"},\"38\":{\"address_id\":38,\"entity_id\":\"2\",\"location_id\":\"7\",\"address\":\"cHVsaXlhJm5ic3A7a2UmbmJzcDtwYXNz\",\"landmark\":\"YmFzJm5ic3A7c3RhbmQ=\",\"phone\":\"7891945988\",\"otheraddress\":\"\",\"otherlandmark\":\"\",\"otherphone\":\"\",\"varifed\":\"\",\"phone_varified\":\"\",\"type\":0,\"postalCode_id\":\"2\",\"postalCode\":\"325214\",\"location\":\"THVoYXdhZA==\",\"country_id\":\"105\",\"fl_admin_id\":\"22\",\"city_id\":\"1\",\"city\":\"a290YQ==\",\"town_id\":\"7\",\"town\":\"THVoYXdhZA==\",\"fl_admin\":\"UmFqYXN0aGFuCQ==\",\"country\":\"SW5kaWE=\"}},\"bio\":[],\"theme\":[\"\",\"\"],\"profilepic\":\"\",\"banner_id\":\"\",\"Url\":[]}","private_data":"{\"deactivate\":1,\"wallet_id\":0,\"countryinfo_id\":\"105\",\"varified\":1,\"memberSince\":1476860439,\"notification_checktime\":\"1564079294\",\"order_checktime\":1476860439,\"checkin_msg_checktime\":1566486122,\"chat_msg_checktime\":1564080208,\"blocked_entity\":[],\"profile_complete\":{\"profile_pic\":1,\"profile_banner\":1,\"address\":1,\"following_count\":0,\"friend_count\":0,\"favoritestore_count\":3},\"activity_update_server_code\":0,\"privacy_setting\":{\"ip0\":0,\"ip1\":0,\"ip2\":0,\"ip3\":0,\"ip4\":0,\"ip5\":2,\"ip6\":0,\"ip7\":0,\"ip8\":0,\"ip9\":2,\"ip10\":0,\"cp0\":0,\"cp1\":0,\"cp2\":0,\"cp3\":0,\"cp4\":0,\"cp5\":5,\"cp6\":0,\"op0\":0,\"op1\":0},\"notification_setting\":{\"nss0\":1,\"nss1\":1,\"nss2\":1,\"nss3\":0,\"ns0\":0,\"ns1\":0,\"ns2\":0},\"FirstName\":\"a2VzaGF2\",\"LastName\":\"Z2F1dGFt\",\"sex\":\"0\",\"birthday\":\"Jun,19,1991\",\"livingPalce\":\"dfgfd\",\"about\":\"\",\"website\":\"dfg\",\"theme\":[\"\",\"\"],\"profilepic\":\"\",\"avatar\":\"http:\/\/localhost:3325\/assets\/imgs\/pic\/avatar.png\",\"banner_id\":\"\",\"addressdata\":{\"address_id\":\"2\",\"entity_id\":\"2\",\"location_id\":\"1\",\"address\":\"c2Rm\",\"landmark\":\"c2Rm\",\"phone\":\"7891945988\",\"otheraddress\":\"\",\"otherlandmark\":\"\",\"otherphone\":\"\",\"varifed\":\"\",\"phone_varified\":\"\",\"type\":0,\"postalCode_id\":\"1\",\"postalCode\":\"324001\",\"location\":\"a290YQ==\",\"country_id\":\"105\",\"fl_admin_id\":\"22\",\"city_id\":\"1\",\"city\":\"a290YQ==\",\"town_id\":\"\",\"town\":\"\",\"fl_admin\":\"UmFqYXN0aGFuCQ==\",\"country\":\"SW5kaWE=\"},\"AddressHome\":{\"address\":\"\",\"location_id\":\"105005\",\"address_id\":\"\",\"location_name\":\"Jaloda&nbsp;Khatian\",\"Districtname\":\"Kota\",\"Statename\":\"RAJASTHAN\",\"Country\":\"India\",\"pincode\":\"325214\",\"phone\":\"\"},\"AddressWork\":{\"address\":\"\",\"location_id\":\"\",\"address_id\":\"\",\"location_name\":\"\",\"Districtname\":\"\",\"Statename\":\"\",\"Country\":\"\",\"pincode\":\"\",\"phone\":\"\"},\"bio\":[]}","search_data":"keshav gautam keshav gautam keshav","slug_id":"2045","object_id":"2","object_type":"buyer","content_slug":"keshav","original_slug":"keshav"}]
March 9, 2020, 4:01 pm [{"entity_id":"7","account_id":"1","type":"0","device_in_use":"0","last_login":"2019-08-13 02:02:05","public_data":"{\"theme\":[\"\",\"\"],\"Name\":\"ZGVwaWthIHNoYXJtYQ==\",\"UserName\":\"keshavd\",\"FirstName\":\"\",\"LastName\":\"\",\"sex\":\"0\",\"birthday\":\"\",\"slug\":\"keshavd\",\"profilepicData\":{\"webimages\":[{\"url\":\"https&colon;&sol;&sol;www&period;google&period;co&period;in&sol;images&sol;branding&sol;googlelogo&sol;2x&sol;googlelogo&lowbar;color&lowbar;272x92dp&period;png\",\"key\":\"\",\"hash\":\"\",\"name\":\"\",\"priviewId\":\"1486547005ebQdq154\"}],\"featureimage\":{\"image_id\":\"\",\"url\":\"https&colon;&sol;&sol;www&period;google&period;co&period;in&sol;images&sol;branding&sol;googlelogo&sol;2x&sol;googlelogo&lowbar;color&lowbar;272x92dp&period;png\",\"update_hash\":\"\",\"time\":\"\",\"filesize\":\"\",\"key\":\"\",\"hash\":\"\",\"name\":\"\",\"priviewId\":\"1486547005ebQdq154\"}},\"bannerData\":{\"webimages\":[{\"url\":\"http&colon;&sol;&sol;www&period;trendycovers&period;com&sol;covers&sol;hello&lowbar;june&lowbar;facebook&lowbar;cover&lowbar;1464666892&period;jpg\",\"key\":\"\",\"hash\":\"\",\"name\":\"\",\"priviewId\":\"148654714294u5M50\"}],\"featureimage\":{\"image_id\":\"\",\"url\":\"http&colon;&sol;&sol;www&period;trendycovers&period;com&sol;covers&sol;hello&lowbar;june&lowbar;facebook&lowbar;cover&lowbar;1464666892&period;jpg\",\"update_hash\":\"\",\"time\":\"\",\"filesize\":\"\",\"key\":\"\",\"hash\":\"\",\"name\":\"\",\"priviewId\":\"148654714294u5M50\"}},\"livingPalce\":\"\",\"about\":\"\",\"website\":\"\",\"avatar\":\"https&colon;&sol;&sol;www&period;google&period;co&period;in&sol;images&sol;branding&sol;googlelogo&sol;2x&sol;googlelogo&lowbar;color&lowbar;272x92dp&period;png\",\"banner\":\"http&colon;&sol;&sol;www&period;trendycovers&period;com&sol;covers&sol;hello&lowbar;june&lowbar;facebook&lowbar;cover&lowbar;1464666892&period;jpg\",\"addressdata\":{\"0\":{\"address_id\":0,\"entity_id\":\"\",\"location_id\":\"\",\"address\":\"\",\"landmark\":\"\",\"phone\":\"\",\"otheraddress\":\"\",\"otherlandmark\":\"\",\"otherphone\":\"\",\"varifed\":\"\",\"phone_varified\":\"\",\"type\":0,\"postalCode_id\":\"\",\"postalCode\":\"\",\"location\":\"\",\"country_id\":\"\",\"fl_admin_id\":\"\",\"city_id\":\"\",\"city\":\"\",\"town_id\":\"\",\"town\":\"\",\"fl_admin\":\"\",\"country\":\"\"},\"60\":{\"address_id\":60,\"entity_id\":\"7\",\"location_id\":\"1\",\"address\":\"bGtqa2w=\",\"landmark\":\"a2w=\",\"phone\":\"7891945988\",\"otheraddress\":\"\",\"otherlandmark\":\"\",\"otherphone\":\"\",\"varifed\":\"\",\"phone_varified\":\"\",\"type\":0,\"postalCode_id\":\"1\",\"postalCode\":\"324001\",\"location\":\"a290YQ==\",\"country_id\":\"105\",\"fl_admin_id\":\"22\",\"city_id\":\"1\",\"city\":\"a290YQ==\",\"town_id\":\"\",\"town\":\"\",\"fl_admin\":\"UmFqYXN0aGFuCQ==\",\"country\":\"SW5kaWE=\"},\"61\":{\"address_id\":\"61\",\"entity_id\":\"7\",\"location_id\":\"1\",\"address\":\"c2Rmcw==\",\"landmark\":\"\",\"phone\":\"9950443495\",\"otheraddress\":\"\",\"otherlandmark\":\"\",\"otherphone\":\"\",\"varifed\":\"\",\"phone_varified\":\"\",\"type\":0,\"postalCode_id\":\"1\",\"postalCode\":\"324001\",\"location\":\"a290YQ==\",\"country_id\":\"105\",\"fl_admin_id\":\"22\",\"city_id\":\"1\",\"city\":\"a290YQ==\",\"town_id\":\"\",\"town\":\"\",\"fl_admin\":\"UmFqYXN0aGFuCQ==\",\"country\":\"SW5kaWE=\"},\"62\":{\"address_id\":62,\"entity_id\":\"7\",\"location_id\":\"1\",\"address\":\"c2Rmcw==\",\"landmark\":\"c2Rm\",\"phone\":\"7891945988\",\"otheraddress\":\"\",\"otherlandmark\":\"\",\"otherphone\":\"\",\"varifed\":\"\",\"phone_varified\":\"\",\"type\":0,\"postalCode_id\":\"1\",\"postalCode\":\"324001\",\"location\":\"a290YQ==\",\"country_id\":\"105\",\"fl_admin_id\":\"22\",\"city_id\":\"1\",\"city\":\"a290YQ==\",\"town_id\":\"\",\"town\":\"\",\"fl_admin\":\"UmFqYXN0aGFuCQ==\",\"country\":\"SW5kaWE=\"}},\"bio\":[],\"Url\":[],\"entity_id\":\"\"}","private_data":"{\"deactivate\":\"0\",\"wallet_id\":0,\"countryinfo_id\":\"105\",\"varified\":1,\"memberSince\":1483807658,\"notification_checktime\":\"1478848847\",\"order_checktime\":1483807658,\"checkin_msg_checktime\":1483807658,\"chat_msg_checktime\":1491053514,\"blocked_entity\":[],\"profile_complete\":{\"profile_pic\":1,\"profile_banner\":1,\"address\":1,\"following_count\":0,\"friend_count\":0,\"favoritestore_count\":0},\"activity_update_server_code\":0,\"privacy_setting\":{\"ip0\":0,\"ip1\":0,\"ip2\":0,\"ip3\":0,\"ip4\":0,\"ip5\":0,\"ip6\":0,\"ip7\":0,\"ip8\":0,\"ip9\":0,\"ip10\":0,\"cp0\":0,\"cp1\":0,\"cp2\":0,\"cp3\":0,\"cp4\":0,\"cp5\":0,\"cp6\":0,\"op0\":0,\"op1\":0},\"notification_setting\":{\"nss0\":1,\"nss1\":1,\"nss2\":1,\"nss3\":1},\"birthday\":\"Jun,16,1989\",\"profilepic\":\"\",\"avatar\":\"http:\/\/localhost:3325\/assets\/imgs\/pic\/avatar.png\",\"banner_id\":\"\",\"AddressHome\":{\"address\":\"\",\"loaction_id\":\"\",\"location_name\":\"\",\"Districtname\":\"\",\"Statename\":\"\",\"Country\":\"\",\"pincode\":\"\",\"phone\":\"\"},\"AddressWork\":{\"address\":\"\",\"loaction_id\":\"\",\"location_name\":\"\",\"Districtname\":\"\",\"Statename\":\"\",\"Country\":\"\",\"pincode\":\"\",\"phone\":\"\"},\"memberSience\":\"2016-05-01&nbsp;18:45:25&nbsp;&nbsp;\",\"bio\":[],\"sex\":\"1\",\"FirstName\":\"ZGVwaWth\",\"LastName\":\"c2hhcm1h\"}","search_data":"depika sharma depika keshavd","slug_id":"2069","object_id":"7","object_type":"buyer","content_slug":"keshavd","original_slug":"keshavd"}]
September 1, 2020, 4:21 am "SELECT DISTINCT *\r\nFROM  wowrol_app.account_login_identity a ,wowrol_app.accounts b,wowrol_app.login c\r\nWHERE a.login_identity =\"7891945988\" \r\nAND a.account_id=b.account_id\r\nAND b.login_id=c.login_id\r\nLIMIT 1\r\n"
September 1, 2020, 4:22 am "SELECT DISTINCT *\r\nFROM  wowrol_app.account_login_identity a ,wowrol_app.accounts b,wowrol_app.login c\r\nWHERE a.login_identity =\"7891945988\" \r\nAND a.account_id=b.account_id\r\nAND b.login_id=c.login_id\r\nLIMIT 1\r\n"
September 1, 2020, 4:47 am {"identity_type":"phone","identity_Name":"Mobile No. ","login_identity":"7891945988","recovery_code":"365666","More_Information_link":""}
September 1, 2020, 4:49 am [{"entity_id":"1","account_id":"1","type":"1","device_in_use":"0","last_login":"2017-05-04 11:43:35","public_data":"{\"Name\":\"RGVtb8Kgc3RvcmU=\",\"slug\":\"test-mob-store\",\"avatar\":\"https&colon;&sol;&sol;s3-ap-south-1&period;amazonaws&period;com&sol;wowrol&sol;0&lowbar;124&lowbar;ua2bbz5x30&period;png\",\"banner\":\"\",\"profilepicData\":{\"mainimages\":[{\"url\":\"https&colon;&sol;&sol;s3-ap-south-1&period;amazonaws&period;com&sol;wowrol&sol;0&lowbar;124&lowbar;ua2bbz5x30&period;png\",\"key\":\"0&lowbar;124&lowbar;ua2bbz5x30\",\"hash\":\"ua2bbz5x30\",\"name\":\"0&lowbar;124&lowbar;ua2bbz5x30&period;png\",\"priviewId\":\"1493054650DkEXh56\"}],\"webimages\":[],\"featureimage\":{\"url\":\"https&colon;&sol;&sol;s3-ap-south-1&period;amazonaws&period;com&sol;wowrol&sol;0&lowbar;124&lowbar;ua2bbz5x30&period;png\",\"key\":\"0&lowbar;124&lowbar;ua2bbz5x30\",\"hash\":\"ua2bbz5x30\",\"name\":\"0&lowbar;124&lowbar;ua2bbz5x30&period;png\",\"priviewId\":\"1493054650DkEXh56\"}},\"bannerData\":{\"mainimages\":[],\"webimages\":[],\"featureimage\":{\"image_id\":\"\",\"url\":\"\",\"update_hash\":\"\",\"time\":\"\",\"filesize\":\"\"}},\"addressdata\":{\"address_id\":\"58\",\"entity_id\":\"1\",\"location_id\":\"10\",\"address\":\"ZmdkZmdk\",\"landmark\":\"bGFuZMKgbWFyaw==\",\"phone\":\"9950449428\",\"otheraddress\":\"\",\"otherlandmark\":\"\",\"otherphone\":\"\",\"varifed\":\"\",\"phone_varified\":\"\",\"type\":1,\"postalCode_id\":\"4\",\"postalCode\":\"61241\",\"location\":\"Q29sb25h\",\"country_id\":\"234\",\"fl_admin_id\":\"49\",\"city_id\":\"10\",\"city\":\"Q29sb25h\",\"town_id\":\"\",\"town\":\"\",\"fl_admin\":\"IElsbGlub2lzCQ==\",\"country\":\"VW5pdGVkIFN0YXRlcw==\"},\"collection\":[\"1\",\"4\",\"5\",\"6\",\"7\"],\"collection_data\":[{\"id\":\"1\",\"name\":\"Daily&nbsp;Needs\",\"slug\":\"daily-needs-collection\"},{\"id\":\"4\",\"name\":\"Real-Estate\",\"slug\":\"real-estate-collection\"},{\"id\":\"5\",\"name\":\"industry&nbsp;supply\",\"slug\":\"industry-supply-collection\"},{\"id\":\"6\",\"name\":\"Furniture\",\"slug\":\"furniture-collection\"},{\"id\":\"7\",\"name\":\"Electronics\",\"slug\":\"electronics-collection\"}],\"theme\":[\"0\",\"\"],\"store_policy\":\"c3RvcmUmbG93YmFyO3BvbGljeXN0b3JlJmxvd2Jhcjtwb2xpY3lzdG9yZSZsb3diYXI7cG9saWN5c3RvcmUmbG93YmFyO3BvbGljeXN0b3JlJmxvd2Jhcjtwb2xpY3lzdG9yZSZsb3diYXI7cG9saWN5c3RvcmUmbG93YmFyO3BvbGljeXN0b3JlJmxvd2Jhcjtwb2xpY3lzdG9yZSZsb3diYXI7cG9saWN5c3RvcmUmbG93YmFyO3BvbGljeXN0b3JlJmxvd2Jhcjtwb2xpY3lzdG9yZSZsb3diYXI7cG9saWN5c3RvcmUmbG93YmFyO3BvbGljeXN0b3JlJmxvd2Jhcjtwb2xpY3lzdG9yZSZsb3diYXI7cG9saWN5c3RvcmUmbG93YmFyO3BvbGljeXN0b3JlJmxvd2Jhcjtwb2xpY3lzdG9yZSZsb3diYXI7cG9saWN5c3RvcmUmbG93YmFyO3BvbGljeXN0b3JlJmxvd2Jhcjtwb2xpY3lzdG9yZSZsb3diYXI7cG9saQ==\",\"about_store\":\"c2FkYWFhYWFhYWFhYWFhYWFhYWFhYWFhYWFhYWFhYWFhYWFhYWFhYWFhYWFhYWFhYWFhYWFhYWFhYWFhYWFhYWFhYWFhYWFhYWFhYWFhYWFhYWFhYWFhYWFhYWFhYWFhYWFhYWFhYWFhYWFhYWFhYWFhYWFhYWFhYWFhYWFhYWFhYWFhYWFhYWFhYWFhYWFhYWFhYWFhYWFhYWFhYWFhYWFhYWFhYWFhYWFhYWFhYWFhYWFhYWFhYWFhYWFhYWFhYWFhYWFhYWFhYWFhYWFhYWFhYWFhYWFhYWFhYWFhYWFhYWFhYWFhYWFhYWFhYWFhYWFhYWFhYWFhYQ==\",\"sliderBox\":{\"mainimages\":[],\"webimages\":[],\"0\":{\"webimages\":[{\"url\":\"https&colon;&sol;&sol;www&period;f-cdn&period;com&sol;assets&sol;css&sol;images&sol;homepage&sol;bg-architecture-2x-cd1a1d20&period;jpg\",\"key\":\"\",\"hash\":\"\",\"name\":\"\",\"priviewId\":\"14911985620fx8761\"}],\"linkto\":{\"id\":\"0&lowbar;15\",\"mid\":\"15\",\"name\":\"Cameras &amp; Accessories\",\"slug\":\"cameras-accessories-category\",\"type\":\"0\",\"saveingId\":\"suggestion&period;1491200377H1BDZ72\"}},\"1\":{\"webimages\":[{\"url\":\"http&colon;&sol;&sol;i&period;imgur&period;com&sol;4sX8V8U&period;jpg\",\"key\":\"\",\"hash\":\"\",\"name\":\"\",\"priviewId\":\"1480961508ARHV682\"}],\"linkto\":{\"id\":\"0&lowbar;22\",\"mid\":\"22\",\"name\":\"Men\",\"slug\":\"men-category\",\"type\":\"0\",\"saveingId\":\"suggestion&period;1480961521wuBSD94\"}},\"2\":{\"webimages\":[{\"url\":\"https&colon;&sol;&sol;www&period;f-cdn&period;com&sol;assets&sol;css&sol;images&sol;homepage&sol;bg-app-2x-c16b1159&period;jpg\",\"key\":\"\",\"hash\":\"\",\"name\":\"\",\"priviewId\":\"1491200064RXxiD66\"}],\"linkto\":{\"id\":\"0&lowbar;15\",\"mid\":\"15\",\"name\":\"Cameras &amp; Accessories\",\"slug\":\"cameras-accessories-category\",\"type\":\"0\",\"saveingId\":\"suggestion&period;1491200066nHHrR74\"}}},\"website\":\"d293cm9sJnBlcmlvZDtjb20=\",\"categoryBox\":[{\"cid\":\"12\",\"sort\":0},{\"cid\":\"6\",\"sort\":0},{\"cid\":\"40\",\"sort\":0},{\"cid\":\"22\",\"sort\":0}],\"profilepic\":[],\"policy_store\":\"\"}","private_data":"{\"notification_setting\":{\"nss0\":1,\"nss1\":0,\"nss2\":1,\"nss3\":0,\"ns0\":0,\"ns1\":0,\"ns2\":0},\"notification_checktime\":\"1489996583\",\"order_checktime\":1476820645,\"checkin_msg_checktime\":1492590540,\"chat_msg_checktime\":1492950076,\"default_category\":{\"cN\":\"hhjghj\",\"pa\":{\"cid\":\"\",\"cN\":\"\"},\"description\":\"\",\"cid\":\"63\",\"sid\":\"287\"},\"deactivate\":\"0\",\"wallet_id\":0,\"minimum_order\":\"2000\",\"activity_update_server_code\":0,\"memberSince\":1476820645,\"blocked_entity\":[],\"price_range\":{\"min\":\"0\",\"max\":\"200\"},\"feedback_spreadId\":191,\"privacy_setting\":{\"ip0\":0,\"ip1\":0,\"ip2\":0,\"ip3\":0,\"ip4\":0,\"ip5\":0,\"ip6\":0,\"ip7\":0,\"ip8\":0,\"ip9\":0,\"ip10\":0,\"cp0\":0,\"cp1\":0,\"cp2\":0,\"cp3\":0,\"cp4\":0,\"cp5\":0,\"cp6\":0,\"op0\":0,\"op1\":0},\"profile_complete\":{\"profile_pic\":1,\"slider\":1,\"address\":1,\"collection\":1,\"product_count\":28,\"category_count\":41,\"favoriter_count\":2,\"menu_set\":1},\"ratting\":0,\"staffHash\":\"\",\"staffloginattemp\":5,\"stafflogin_block_time\":0,\"staffloginblock\":0,\"nextOrderCount\":0,\"varified\":1,\"shippingZonecountry\":\"105\",\"countryinfo_id\":105,\"shippingZonetype\":\"1\",\"currency\":\"INR\",\"unitsystem\":\"metric\",\"weightunit\":\"kg\",\"return_policy\":\"1\",\"store_menu_table_code\":0,\"avatar\":\"\",\"profilepic\":[],\"addressdata\":{\"address_id\":\"1\",\"entity_id\":\"1\",\"location_id\":\"3\",\"address\":\"YXNkYXNkYXMmbmJzcDthc2QmbmJzcDthc2Rhc2Rhc2Rhc2R0eXNkZnNkZnNkZiZuYnNwO3NkZnNkPGJyPmRmZ2RmZ2RmZ2RmZ2RmZ2Rmc2RzZDxicj5kZmdkZmdkZmdzY2N2PGJyPmRmZ2RmZ2prJm5ic3A7ZmdoZmdzZGZmZyZuYnNwO3J0Zmc=\",\"landmark\":\"c2RmZGZjY3Z2\",\"phone\":\"7891945988\",\"otheraddress\":\"\",\"otherlandmark\":\"\",\"otherphone\":\"\",\"varifed\":\"\",\"phone_varified\":\"\",\"type\":1,\"postalCode_id\":\"2\",\"location\":\"YXlhbmE=\",\"country_id\":\"105\",\"fl_admin_id\":\"22\",\"city_id\":\"1\",\"city\":\"a290YQ==\",\"town_id\":\"3\",\"town\":\"YXlhbmE=\",\"fl_admin\":\"UmFqYXN0aGFuCQ==\",\"country\":\"SW5kaWE=\"},\"collection\":[\"3\",\"6\"],\"theme\":[\"19\",\"\"],\"store_policy\":\"ZGZnZGZnZGZnZGZnZGdkZmc=\",\"about_store\":\"ZGZnZGY=\",\"sliderBox\":[],\"website\":\"\",\"categoryBox\":[{\"cid\":\"22\",\"sort\":1},{\"cid\":\"17\",\"sort\":0}],\"policy_store\":\"\",\"slider\":[],\"storeterms\":\"\",\"address_id\":\"\"}","search_data":"Demo store test-mob-store","slug_id":"2044","object_id":"1","object_type":"store","content_slug":"test-mob-store","original_slug":"test-mob-store"}]
September 1, 2020, 10:19 am {"address_id":"58","entity_id":"1","location_id":"10","address":"ZmdkZmdk","landmark":"bGFuZMKgbWFyaw==","phone":"9950449428","otheraddress":"","otherlandmark":"","otherphone":"","varifed":"","phone_varified":"","type":1,"postalCode_id":"4","postalCode":"61241","location":"Q29sb25h","country_id":"234","fl_admin_id":"49","city_id":"10","city":"Q29sb25h","town_id":"","town":"","fl_admin":"IElsbGlub2lzCQ==","country":"VW5pdGVkIFN0YXRlcw=="}
September 1, 2020, 10:19 am {"address_id":"58","entity_id":"1","location_id":"10","address":"ZmdkZmdk","landmark":"bGFuZMKgbWFyaw==","phone":"9950449428","otheraddress":"","otherlandmark":"","otherphone":"","varifed":"","phone_varified":"","type":1,"postalCode_id":"4","postalCode":"61241","location":"Q29sb25h","country_id":"234","fl_admin_id":"49","city_id":"10","city":"Q29sb25h","town_id":"","town":"","fl_admin":"IElsbGlub2lzCQ==","country":"VW5pdGVkIFN0YXRlcw=="}
September 1, 2020, 10:19 am {"address_id":"58","entity_id":"1","location_id":"10","address":"ZmdkZmdk","landmark":"bGFuZMKgbWFyaw==","phone":"9950449428","otheraddress":"","otherlandmark":"","otherphone":"","varifed":"","phone_varified":"","type":1,"postalCode_id":"4","postalCode":"61241","location":"Q29sb25h","country_id":"234","fl_admin_id":"49","city_id":"10","city":"Q29sb25h","town_id":"","town":"","fl_admin":"IElsbGlub2lzCQ==","country":"VW5pdGVkIFN0YXRlcw=="}
September 1, 2020, 10:19 am {"address_id":"58","entity_id":"1","location_id":"10","address":"ZmdkZmdk","landmark":"bGFuZMKgbWFyaw==","phone":"9950449428","otheraddress":"","otherlandmark":"","otherphone":"","varifed":"","phone_varified":"","type":1,"postalCode_id":"4","postalCode":"61241","location":"Q29sb25h","country_id":"234","fl_admin_id":"49","city_id":"10","city":"Q29sb25h","town_id":"","town":"","fl_admin":"IElsbGlub2lzCQ==","country":"VW5pdGVkIFN0YXRlcw=="}
September 1, 2020, 10:19 am {"address_id":"58","entity_id":"1","location_id":"10","address":"ZmdkZmdk","landmark":"bGFuZMKgbWFyaw==","phone":"9950449428","otheraddress":"","otherlandmark":"","otherphone":"","varifed":"","phone_varified":"","type":1,"postalCode_id":"4","postalCode":"61241","location":"Q29sb25h","country_id":"234","fl_admin_id":"49","city_id":"10","city":"Q29sb25h","town_id":"","town":"","fl_admin":"IElsbGlub2lzCQ==","country":"VW5pdGVkIFN0YXRlcw=="}
September 1, 2020, 10:19 am {"address_id":"58","entity_id":"1","location_id":"10","address":"ZmdkZmdk","landmark":"bGFuZMKgbWFyaw==","phone":"9950449428","otheraddress":"","otherlandmark":"","otherphone":"","varifed":"","phone_varified":"","type":1,"postalCode_id":"4","postalCode":"61241","location":"Q29sb25h","country_id":"234","fl_admin_id":"49","city_id":"10","city":"Q29sb25h","town_id":"","town":"","fl_admin":"IElsbGlub2lzCQ==","country":"VW5pdGVkIFN0YXRlcw=="}
September 1, 2020, 10:19 am {"address_id":"58","entity_id":"1","location_id":"10","address":"ZmdkZmdk","landmark":"bGFuZMKgbWFyaw==","phone":"9950449428","otheraddress":"","otherlandmark":"","otherphone":"","varifed":"","phone_varified":"","type":1,"postalCode_id":"4","postalCode":"61241","location":"Q29sb25h","country_id":"234","fl_admin_id":"49","city_id":"10","city":"Q29sb25h","town_id":"","town":"","fl_admin":"IElsbGlub2lzCQ==","country":"VW5pdGVkIFN0YXRlcw=="}
September 1, 2020, 10:20 am {"address_id":"58","entity_id":"1","location_id":"10","address":"ZmdkZmdk","landmark":"bGFuZMKgbWFyaw==","phone":"9950449428","otheraddress":"","otherlandmark":"","otherphone":"","varifed":"","phone_varified":"","type":1,"postalCode_id":"4","postalCode":"61241","location":"Q29sb25h","country_id":"234","fl_admin_id":"49","city_id":"10","city":"Q29sb25h","town_id":"","town":"","fl_admin":"IElsbGlub2lzCQ==","country":"VW5pdGVkIFN0YXRlcw=="}
September 1, 2020, 10:20 am {"address_id":"58","entity_id":"1","location_id":"10","address":"ZmdkZmdk","landmark":"bGFuZMKgbWFyaw==","phone":"9950449428","otheraddress":"","otherlandmark":"","otherphone":"","varifed":"","phone_varified":"","type":1,"postalCode_id":"4","postalCode":"61241","location":"Q29sb25h","country_id":"234","fl_admin_id":"49","city_id":"10","city":"Q29sb25h","town_id":"","town":"","fl_admin":"IElsbGlub2lzCQ==","country":"VW5pdGVkIFN0YXRlcw=="}
September 1, 2020, 10:20 am {"address_id":"58","entity_id":"1","location_id":"10","address":"ZmdkZmdk","landmark":"bGFuZMKgbWFyaw==","phone":"9950449428","otheraddress":"","otherlandmark":"","otherphone":"","varifed":"","phone_varified":"","type":1,"postalCode_id":"4","postalCode":"61241","location":"Q29sb25h","country_id":"234","fl_admin_id":"49","city_id":"10","city":"Q29sb25h","town_id":"","town":"","fl_admin":"IElsbGlub2lzCQ==","country":"VW5pdGVkIFN0YXRlcw=="}
September 1, 2020, 10:20 am {"address_id":"58","entity_id":"1","location_id":"10","address":"ZmdkZmdk","landmark":"bGFuZMKgbWFyaw==","phone":"9950449428","otheraddress":"","otherlandmark":"","otherphone":"","varifed":"","phone_varified":"","type":1,"postalCode_id":"4","postalCode":"61241","location":"Q29sb25h","country_id":"234","fl_admin_id":"49","city_id":"10","city":"Q29sb25h","town_id":"","town":"","fl_admin":"IElsbGlub2lzCQ==","country":"VW5pdGVkIFN0YXRlcw=="}
September 1, 2020, 10:20 am {"address_id":"58","entity_id":"1","location_id":"10","address":"ZmdkZmdk","landmark":"bGFuZMKgbWFyaw==","phone":"9950449428","otheraddress":"","otherlandmark":"","otherphone":"","varifed":"","phone_varified":"","type":1,"postalCode_id":"4","postalCode":"61241","location":"Q29sb25h","country_id":"234","fl_admin_id":"49","city_id":"10","city":"Q29sb25h","town_id":"","town":"","fl_admin":"IElsbGlub2lzCQ==","country":"VW5pdGVkIFN0YXRlcw=="}
September 1, 2020, 10:20 am {"address_id":"58","entity_id":"1","location_id":"10","address":"ZmdkZmdk","landmark":"bGFuZMKgbWFyaw==","phone":"9950449428","otheraddress":"","otherlandmark":"","otherphone":"","varifed":"","phone_varified":"","type":1,"postalCode_id":"4","postalCode":"61241","location":"Q29sb25h","country_id":"234","fl_admin_id":"49","city_id":"10","city":"Q29sb25h","town_id":"","town":"","fl_admin":"IElsbGlub2lzCQ==","country":"VW5pdGVkIFN0YXRlcw=="}
September 1, 2020, 10:21 am {"address_id":"58","entity_id":"1","location_id":"10","address":"ZmdkZmdk","landmark":"bGFuZMKgbWFyaw==","phone":"9950449428","otheraddress":"","otherlandmark":"","otherphone":"","varifed":"","phone_varified":"","type":1,"postalCode_id":"4","postalCode":"61241","location":"Q29sb25h","country_id":"234","fl_admin_id":"49","city_id":"10","city":"Q29sb25h","town_id":"","town":"","fl_admin":"IElsbGlub2lzCQ==","country":"VW5pdGVkIFN0YXRlcw=="}
September 1, 2020, 10:21 am {"address_id":"58","entity_id":"1","location_id":"10","address":"ZmdkZmdk","landmark":"bGFuZMKgbWFyaw==","phone":"9950449428","otheraddress":"","otherlandmark":"","otherphone":"","varifed":"","phone_varified":"","type":1,"postalCode_id":"4","postalCode":"61241","location":"Q29sb25h","country_id":"234","fl_admin_id":"49","city_id":"10","city":"Q29sb25h","town_id":"","town":"","fl_admin":"IElsbGlub2lzCQ==","country":"VW5pdGVkIFN0YXRlcw=="}
September 1, 2020, 10:21 am {"address_id":"58","entity_id":"1","location_id":"10","address":"ZmdkZmdk","landmark":"bGFuZMKgbWFyaw==","phone":"9950449428","otheraddress":"","otherlandmark":"","otherphone":"","varifed":"","phone_varified":"","type":1,"postalCode_id":"4","postalCode":"61241","location":"Q29sb25h","country_id":"234","fl_admin_id":"49","city_id":"10","city":"Q29sb25h","town_id":"","town":"","fl_admin":"IElsbGlub2lzCQ==","country":"VW5pdGVkIFN0YXRlcw=="}
September 1, 2020, 10:21 am {"address_id":"58","entity_id":"1","location_id":"10","address":"ZmdkZmdk","landmark":"bGFuZMKgbWFyaw==","phone":"9950449428","otheraddress":"","otherlandmark":"","otherphone":"","varifed":"","phone_varified":"","type":1,"postalCode_id":"4","postalCode":"61241","location":"Q29sb25h","country_id":"234","fl_admin_id":"49","city_id":"10","city":"Q29sb25h","town_id":"","town":"","fl_admin":"IElsbGlub2lzCQ==","country":"VW5pdGVkIFN0YXRlcw=="}
September 1, 2020, 10:21 am {"address_id":"58","entity_id":"1","location_id":"10","address":"ZmdkZmdk","landmark":"bGFuZMKgbWFyaw==","phone":"9950449428","otheraddress":"","otherlandmark":"","otherphone":"","varifed":"","phone_varified":"","type":1,"postalCode_id":"4","postalCode":"61241","location":"Q29sb25h","country_id":"234","fl_admin_id":"49","city_id":"10","city":"Q29sb25h","town_id":"","town":"","fl_admin":"IElsbGlub2lzCQ==","country":"VW5pdGVkIFN0YXRlcw=="}
September 1, 2020, 10:25 am {"address_id":"58","entity_id":"1","location_id":"10","address":"ZmdkZmdk","landmark":"bGFuZMKgbWFyaw==","phone":"9950449428","otheraddress":"","otherlandmark":"","otherphone":"","varifed":"","phone_varified":"","type":1,"postalCode_id":"4","postalCode":"61241","location":"Q29sb25h","country_id":"234","fl_admin_id":"49","city_id":"10","city":"Q29sb25h","town_id":"","town":"","fl_admin":"IElsbGlub2lzCQ==","country":"VW5pdGVkIFN0YXRlcw=="}
September 1, 2020, 10:25 am {"address_id":"58","entity_id":"1","location_id":"10","address":"ZmdkZmdk","landmark":"bGFuZMKgbWFyaw==","phone":"9950449428","otheraddress":"","otherlandmark":"","otherphone":"","varifed":"","phone_varified":"","type":1,"postalCode_id":"4","postalCode":"61241","location":"Q29sb25h","country_id":"234","fl_admin_id":"49","city_id":"10","city":"Q29sb25h","town_id":"","town":"","fl_admin":"IElsbGlub2lzCQ==","country":"VW5pdGVkIFN0YXRlcw=="}
September 1, 2020, 10:25 am {"address_id":"58","entity_id":"1","location_id":"10","address":"ZmdkZmdk","landmark":"bGFuZMKgbWFyaw==","phone":"9950449428","otheraddress":"","otherlandmark":"","otherphone":"","varifed":"","phone_varified":"","type":1,"postalCode_id":"4","postalCode":"61241","location":"Q29sb25h","country_id":"234","fl_admin_id":"49","city_id":"10","city":"Q29sb25h","town_id":"","town":"","fl_admin":"IElsbGlub2lzCQ==","country":"VW5pdGVkIFN0YXRlcw=="}
September 1, 2020, 10:26 am {"address_id":"58","entity_id":"1","location_id":"10","address":"ZmdkZmdk","landmark":"bGFuZMKgbWFyaw==","phone":"9950449428","otheraddress":"","otherlandmark":"","otherphone":"","varifed":"","phone_varified":"","type":1,"postalCode_id":"4","postalCode":"61241","location":"Q29sb25h","country_id":"234","fl_admin_id":"49","city_id":"10","city":"Q29sb25h","town_id":"","town":"","fl_admin":"IElsbGlub2lzCQ==","country":"VW5pdGVkIFN0YXRlcw=="}
September 1, 2020, 10:26 am {"address_id":"58","entity_id":"1","location_id":"10","address":"ZmdkZmdk","landmark":"bGFuZMKgbWFyaw==","phone":"9950449428","otheraddress":"","otherlandmark":"","otherphone":"","varifed":"","phone_varified":"","type":1,"postalCode_id":"4","postalCode":"61241","location":"Q29sb25h","country_id":"234","fl_admin_id":"49","city_id":"10","city":"Q29sb25h","town_id":"","town":"","fl_admin":"IElsbGlub2lzCQ==","country":"VW5pdGVkIFN0YXRlcw=="}
